"Longitude (x)","Latitude (y)","Station Name","Climate ID","Date/Time (UTC)","Year","Month","Day","Time (UTC)","Temp (°C)","Temp Flag","Dew Point Temp (°C)","Dew Point Temp Flag","Rel Hum (%)","Rel Hum Flag","Precip. Amount (mm)","Precip. Amount Flag","Wind Dir (10s deg)","Wind Dir Flag","Wind Spd (km/h)","Wind Spd Flag","Visibility (km)","Visibility Flag","Stn Press (kPa)","Stn Press Flag","Hmdx","Hmdx Flag","Wind Chill","Wind Chill Flag","Weather"
"-80.42","43.65","ELORA RCS","6142286","2012-12-01 00:00","2012","12","01","00:00","-7.0","","-9.3","","84","","","","8","","19","","","","98.18","","","","-14","","NA"
"-80.42","43.65","ELORA RCS","6142286","2012-12-01 01:00","2012","12","01","01:00","-6.8","","-9.1","","84","","","","9","","20","","","","98.16","","","","-14","","NA"
"-80.42","43.65","ELORA RCS","6142286","2012-12-01 02:00","2012","12","01","02:00","-6.4","","-8.5","","85","","","","8","","20","","","","98.14","","","","-13","","NA"
"-80.42","43.65","ELORA RCS","6142286","2012-12-01 03:00","2012","12","01","03:00","-6.5","","-8.3","","87","","","","9","","22","","","","98.11","","","","-14","","NA"
"-80.42","43.65","ELORA RCS","6142286","2012-12-01 04:00","2012","12","01","04:00","-6.2","","-7.5","","90","","","","8","","19","","","","98.14","","","","-13","","NA"
"-80.42","43.65","ELORA RCS","6142286","2012-12-01 05:00","2012","12","01","05:00","-6.1","","-6.9","","94","","","","9","","24","","","","98.03","","","","-14","","NA"
"-80.42","43.65","ELORA RCS","6142286","2012-12-01 06:00","2012","12","01","06:00","-5.7","","-6.3","","96","","","","10","","20","","","","97.99","","","","-12","","NA"
"-80.42","43.65","ELORA RCS","6142286","2012-12-01 07:00","2012","12","01","07:00","-5.3","","-6.0","","95","","","","8","","13","","","","98.05","","","","-10","","NA"
"-80.42","43.65","ELORA RCS","6142286","2012-12-01 08:00","2012","12","01","08:00","-5.2","","-5.9","","95","","","","8","","11","","","","98.08","","","","-10","","NA"
"-80.42","43.65","ELORA RCS","6142286","2012-12-01 09:00","2012","12","01","09:00","-5.1","","-5.7","","96","","","","8","","9","","","","98.08","","","","-9","","NA"
"-80.42","43.65","ELORA RCS","6142286","2012-12-01 10:00","2012","12","01","10:00","-4.9","","-5.5","","96","","","","9","","9","","","","98.10","","","","-9","","NA"
"-80.42","43.65","ELORA RCS","6142286","2012-12-01 11:00","2012","12","01","11:00","-4.8","","-5.4","","96","","","","9","","7","","","","98.12","","","","-8","","NA"
"-80.42","43.65","ELORA RCS","6142286","2012-12-01 12:00","2012","12","01","12:00","-5.1","","-5.8","","95","","","","9","","15","","","","98.13","","","","-11","","NA"
"-80.42","43.65","ELORA RCS","6142286","2012-12-01 13:00","2012","12","01","13:00","-5.2","","-5.9","","95","","","","10","","15","","","","98.08","","","","-11","","NA"
"-80.42","43.65","ELORA RCS","6142286","2012-12-01 14:00","2012","12","01","14:00","-4.7","","-5.3","","96","","","","11","","9","","","","98.11","","","","-9","","NA"
"-80.42","43.65","ELORA RCS","6142286","2012-12-01 15:00","2012","12","01","15:00","-4.1","","-4.7","","96","","","","11","","9","","","","98.05","","","","-8","","NA"
"-80.42","43.65","ELORA RCS","6142286","2012-12-01 16:00","2012","12","01","16:00","-3.0","","-3.5","","96","","","","11","","11","","","","98.05","","","","-7","","NA"
"-80.42","43.65","ELORA RCS","6142286","2012-12-01 17:00","2012","12","01","17:00","-2.4","","-2.9","","96","","","","10","","11","","","","97.94","","","","-6","","NA"
"-80.42","43.65","ELORA RCS","6142286","2012-12-01 18:00","2012","12","01","18:00","-1.8","","-2.2","","97","","","","12","","13","","","","97.84","","","","-6","","NA"
"-80.42","43.65","ELORA RCS","6142286","2012-12-01 19:00","2012","12","01","19:00","-1.4","","-1.8","","97","","","","11","","13","","","","97.83","","","","-6","","NA"
"-80.42","43.65","ELORA RCS","6142286","2012-12-01 20:00","2012","12","01","20:00","-1.1","","-1.5","","97","","","","11","","11","","","","97.77","","","","-5","","NA"
"-80.42","43.65","ELORA RCS","6142286","2012-12-01 21:00","2012","12","01","21:00","-0.8","","-1.1","","98","","","","11","","11","","","","97.73","","","","-5","","NA"
"-80.42","43.65","ELORA RCS","6142286","2012-12-01 22:00","2012","12","01","22:00","-0.7","","-1.0","","98","","","","10","","11","","","","97.70","","","","-4","","NA"
"-80.42","43.65","ELORA RCS","6142286","2012-12-01 23:00","2012","12","01","23:00","-0.4","","-0.7","","98","","","","10","","9","","","","97.69","","","","-4","","NA"
"-80.42","43.65","ELORA RCS","6142286","2012-12-02 00:00","2012","12","02","00:00","-0.1","","-0.4","","98","","","","11","","13","","","","97.62","","","","-4","","NA"
"-80.42","43.65","ELORA RCS","6142286","2012-12-02 01:00","2012","12","02","01:00","0.1","","-0.2","","98","","","","11","","9","","","","97.59","","","","","","NA"
"-80.42","43.65","ELORA RCS","6142286","2012-12-02 02:00","2012","12","02","02:00","0.4","","0.1","","98","","","","11","","13","","","","97.48","","","","","","NA"
"-80.42","43.65","ELORA RCS","6142286","2012-12-02 03:00","2012","12","02","03:00","1.0","","0.7","","98","","","","12","","7","","","","97.44","","","","","","NA"
"-80.42","43.65","ELORA RCS","6142286","2012-12-02 04:00","2012","12","02","04:00","1.3","","1.0","","98","","","","12","","6","","","","97.38","","","","","","NA"
"-80.42","43.65","ELORA RCS","6142286","2012-12-02 05:00","2012","12","02","05:00","1.6","","1.3","","98","","","","10","","4","","","","97.35","","","","","","NA"
"-80.42","43.65","ELORA RCS","6142286","2012-12-02 06:00","2012","12","02","06:00","2.4","","2.0","","97","","","","15","","13","","","","97.21","","","","","","NA"
"-80.42","43.65","ELORA RCS","6142286","2012-12-02 07:00","2012","12","02","07:00","4.9","","4.2","","95","","","","19","","15","","","","97.17","","","","","","NA"
"-80.42","43.65","ELORA RCS","6142286","2012-12-02 08:00","2012","12","02","08:00","6.2","","5.2","","93","","","","20","","20","","","","97.18","","","","","","NA"
"-80.42","43.65","ELORA RCS","6142286","2012-12-02 09:00","2012","12","02","09:00","7.9","","6.9","","93","","","","21","","28","","","","97.06","","","","","","NA"
"-80.42","43.65","ELORA RCS","6142286","2012-12-02 10:00","2012","12","02","10:00","7.9","","6.9","","93","","","","21","","24","","","","97.00","","","","","","NA"
"-80.42","43.65","ELORA RCS","6142286","2012-12-02 11:00","2012","12","02","11:00","8.0","","7.2","","95","","","","21","","20","","","","96.98","","","","","","NA"
"-80.42","43.65","ELORA RCS","6142286","2012-12-02 12:00","2012","12","02","12:00","8.5","","7.8","","95","","","","21","","24","","","","96.93","","","","","","NA"
"-80.42","43.65","ELORA RCS","6142286","2012-12-02 13:00","2012","12","02","13:00","8.6","","7.9","","95","","","","20","","26","","","","96.89","","","","","","NA"
"-80.42","43.65","ELORA RCS","6142286","2012-12-02 14:00","2012","12","02","14:00","9.0","","8.3","","95","","","","21","","20","","","","96.88","","","","","","NA"
"-80.42","43.65","ELORA RCS","6142286","2012-12-02 15:00","2012","12","02","15:00","9.4","","8.6","","95","","","","21","","24","","","","96.83","","","","","","NA"
"-80.42","43.65","ELORA RCS","6142286","2012-12-02 16:00","2012","12","02","16:00","9.3","","8.5","","95","","","","22","","22","","","","96.78","","","","","","NA"
"-80.42","43.65","ELORA RCS","6142286","2012-12-02 17:00","2012","12","02","17:00","9.4","","8.4","","93","","","","23","","22","","","","96.71","","","","","","NA"
"-80.42","43.65","ELORA RCS","6142286","2012-12-02 18:00","2012","12","02","18:00","9.5","","8.6","","94","","","","24","","19","","","","96.66","","","","","","NA"
"-80.42","43.65","ELORA RCS","6142286","2012-12-02 19:00","2012","12","02","19:00","9.6","","8.8","","95","","","","25","","20","","","","96.68","","","","","","NA"
"-80.42","43.65","ELORA RCS","6142286","2012-12-02 20:00","2012","12","02","20:00","9.8","","9.1","","95","","","","26","","20","","","","96.68","","","","","","NA"
"-80.42","43.65","ELORA RCS","6142286","2012-12-02 21:00","2012","12","02","21:00","10.0","","9.3","","95","","","","26","","19","","","","96.74","","","","","","NA"
"-80.42","43.65","ELORA RCS","6142286","2012-12-02 22:00","2012","12","02","22:00","9.8","","9.1","","95","","","","29","","17","","","","96.84","","","","","","NA"
"-80.42","43.65","ELORA RCS","6142286","2012-12-02 23:00","2012","12","02","23:00","7.8","","6.9","","94","","","","31","","24","","","","97.01","","","","","","NA"
"-80.42","43.65","ELORA RCS","6142286","2012-12-03 00:00","2012","12","03","00:00","6.2","","4.8","","91","","","","31","","17","","","","97.12","","","","","","NA"
"-80.42","43.65","ELORA RCS","6142286","2012-12-03 01:00","2012","12","03","01:00","5.7","","4.4","","91","","","","32","","9","","","","97.19","","","","","","NA"
"-80.42","43.65","ELORA RCS","6142286","2012-12-03 02:00","2012","12","03","02:00","5.4","","3.7","","89","","","","31","","17","","","","97.25","","","","","","NA"
"-80.42","43.65","ELORA RCS","6142286","2012-12-03 03:00","2012","12","03","03:00","5.1","","3.7","","91","","","","28","","11","","","","97.32","","","","","","NA"
"-80.42","43.65","ELORA RCS","6142286","2012-12-03 04:00","2012","12","03","04:00","5.0","","3.5","","90","","","","29","","9","","","","97.38","","","","","","NA"
"-80.42","43.65","ELORA RCS","6142286","2012-12-03 05:00","2012","12","03","05:00","4.8","","3.0","","88","","","","32","","9","","","","97.45","","","","","","NA"
"-80.42","43.65","ELORA RCS","6142286","2012-12-03 06:00","2012","12","03","06:00","4.7","","3.0","","89","","","","29","","6","","","","97.47","","","","","","NA"
"-80.42","43.65","ELORA RCS","6142286","2012-12-03 07:00","2012","12","03","07:00","4.6","","2.9","","89","","","","30","","6","","","","97.50","","","","","","NA"
"-80.42","43.65","ELORA RCS","6142286","2012-12-03 08:00","2012","12","03","08:00","4.6","","2.7","","87","","","","30","","9","","","","97.56","","","","","","NA"
"-80.42","43.65","ELORA RCS","6142286","2012-12-03 09:00","2012","12","03","09:00","4.6","","2.6","","87","","","","33","","7","","","","97.58","","","","","","NA"
"-80.42","43.65","ELORA RCS","6142286","2012-12-03 10:00","2012","12","03","10:00","4.4","","2.7","","89","","","","32","","6","","","","97.60","","","","","","NA"
"-80.42","43.65","ELORA RCS","6142286","2012-12-03 11:00","2012","12","03","11:00","4.2","","2.9","","91","","","","19","","4","","","","97.62","","","","","","NA"
"-80.42","43.65","ELORA RCS","6142286","2012-12-03 12:00","2012","12","03","12:00","4.2","","2.7","","90","","","","13","","4","","","","97.67","","","","","","NA"
"-80.42","43.65","ELORA RCS","6142286","2012-12-03 13:00","2012","12","03","13:00","4.2","","3.0","","92","","","","12","","4","","","","97.70","","","","","","NA"
"-80.42","43.65","ELORA RCS","6142286","2012-12-03 14:00","2012","12","03","14:00","4.6","","3.0","","89","","","","12","","7","","","","97.70","","","","","","NA"
"-80.42","43.65","ELORA RCS","6142286","2012-12-03 15:00","2012","12","03","15:00","5.1","","3.3","","88","","","","15","","9","","","","97.71","","","","","","NA"
"-80.42","43.65","ELORA RCS","6142286","2012-12-03 16:00","2012","12","03","16:00","5.8","","3.9","","88","","","","18","","15","","","","97.69","","","","","","NA"
"-80.42","43.65","ELORA RCS","6142286","2012-12-03 17:00","2012","12","03","17:00","6.7","","4.8","","88","","","","17","","13","","","","97.58","","","","","","NA"
"-80.42","43.65","ELORA RCS","6142286","2012-12-03 18:00","2012","12","03","18:00","8.6","","5.5","","81","","","","15","","9","","","","97.50","","","","","","NA"
"-80.42","43.65","ELORA RCS","6142286","2012-12-03 19:00","2012","12","03","19:00","10.1","","6.5","","78","","","","15","","13","","","","97.43","","","","","","NA"
"-80.42","43.65","ELORA RCS","6142286","2012-12-03 20:00","2012","12","03","20:00","9.9","","6.8","","81","","","","18","","15","","","","97.43","","","","","","NA"
"-80.42","43.65","ELORA RCS","6142286","2012-12-03 21:00","2012","12","03","21:00","9.4","","7.2","","86","","","","15","","15","","","","97.41","","","","","","NA"
"-80.42","43.65","ELORA RCS","6142286","2012-12-03 22:00","2012","12","03","22:00","8.2","","6.5","","89","","","","15","","20","","","","97.43","","","","","","NA"
"-80.42","43.65","ELORA RCS","6142286","2012-12-03 23:00","2012","12","03","23:00","6.8","","5.8","","93","","","","12","","13","","","","97.37","","","","","","NA"
"-80.42","43.65","ELORA RCS","6142286","2012-12-04 00:00","2012","12","04","00:00","6.0","","5.3","","95","","","","12","","11","","","","97.35","","","","","","NA"
"-80.42","43.65","ELORA RCS","6142286","2012-12-04 01:00","2012","12","04","01:00","5.7","","5.1","","96","","","","12","","11","","","","97.29","","","","","","NA"
"-80.42","43.65","ELORA RCS","6142286","2012-12-04 02:00","2012","12","04","02:00","6.4","","5.8","","96","","","","14","","11","","","","97.23","","","","","","NA"
"-80.42","43.65","ELORA RCS","6142286","2012-12-04 03:00","2012","12","04","03:00","7.3","","6.7","","96","","","","15","","17","","","","97.18","","","","","","NA"
"-80.42","43.65","ELORA RCS","6142286","2012-12-04 04:00","2012","12","04","04:00","8.2","","7.7","","97","","","","16","","15","","","","97.09","","","","","","NA"
"-80.42","43.65","ELORA RCS","6142286","2012-12-04 05:00","2012","12","04","05:00","9.1","","8.5","","96","","","","16","","15","","","","97.06","","","","","","NA"
"-80.42","43.65","ELORA RCS","6142286","2012-12-04 06:00","2012","12","04","06:00","11.0","","10.5","","97","","","","20","","22","","","","97.01","","","","","","NA"
"-80.42","43.65","ELORA RCS","6142286","2012-12-04 07:00","2012","12","04","07:00","12.3","","11.7","","96","","","","21","","22","","","","96.96","","","","","","NA"
"-80.42","43.65","ELORA RCS","6142286","2012-12-04 08:00","2012","12","04","08:00","13.6","","12.0","","90","","","","21","","30","","","","96.93","","","","","","NA"
"-80.42","43.65","ELORA RCS","6142286","2012-12-04 09:00","2012","12","04","09:00","14.0","","11.2","","83","","","","22","","32","","","","96.85","","","","","","NA"
"-80.42","43.65","ELORA RCS","6142286","2012-12-04 10:00","2012","12","04","10:00","13.9","","10.9","","82","","","","22","","33","","","","96.83","","","","","","NA"
"-80.42","43.65","ELORA RCS","6142286","2012-12-04 11:00","2012","12","04","11:00","13.1","","10.3","","83","","","","22","","28","","","","96.81","","","","","","NA"
"-80.42","43.65","ELORA RCS","6142286","2012-12-04 12:00","2012","12","04","12:00","12.6","","9.8","","83","","","","22","","26","","","","96.82","","","","","","NA"
"-80.42","43.65","ELORA RCS","6142286","2012-12-04 13:00","2012","12","04","13:00","12.9","","9.9","","82","","","","23","","26","","","","96.82","","","","","","NA"
"-80.42","43.65","ELORA RCS","6142286","2012-12-04 14:00","2012","12","04","14:00","12.8","","10.0","","83","","","","22","","28","","","","96.82","","","","","","NA"
"-80.42","43.65","ELORA RCS","6142286","2012-12-04 15:00","2012","12","04","15:00","12.2","","10.4","","89","","","","22","","30","","","","96.81","","","","","","NA"
"-80.42","43.65","ELORA RCS","6142286","2012-12-04 16:00","2012","12","04","16:00","12.1","","10.8","","92","","","","23","","26","","","","96.82","","","","","","NA"
"-80.42","43.65","ELORA RCS","6142286","2012-12-04 17:00","2012","12","04","17:00","11.7","","10.8","","94","","","","26","","15","","","","96.73","","","","","","NA"
"-80.42","43.65","ELORA RCS","6142286","2012-12-04 18:00","2012","12","04","18:00","11.3","","10.0","","92","","","","27","","20","","","","96.77","","","","","","NA"
"-80.42","43.65","ELORA RCS","6142286","2012-12-04 19:00","2012","12","04","19:00","9.9","","7.5","","85","","","","26","","22","","","","96.75","","","","","","NA"
"-80.42","43.65","ELORA RCS","6142286","2012-12-04 20:00","2012","12","04","20:00","8.7","","6.3","","85","","","","26","","13","","","","96.74","","","","","","NA"
"-80.42","43.65","ELORA RCS","6142286","2012-12-04 21:00","2012","12","04","21:00","8.4","","5.9","","84","","","","27","","17","","","","96.80","","","","","","NA"
"-80.42","43.65","ELORA RCS","6142286","2012-12-04 22:00","2012","12","04","22:00","7.9","","5.5","","85","","","","27","","15","","","","96.81","","","","","","NA"
"-80.42","43.65","ELORA RCS","6142286","2012-12-04 23:00","2012","12","04","23:00","7.4","","5.6","","88","","","","27","","17","","","","96.85","","","","","","NA"
"-80.42","43.65","ELORA RCS","6142286","2012-12-05 00:00","2012","12","05","00:00","7.1","","5.4","","89","","","","27","","19","","","","96.88","","","","","","NA"
"-80.42","43.65","ELORA RCS","6142286","2012-12-05 01:00","2012","12","05","01:00","6.4","","4.0","","85","","","","26","","19","","","","96.90","","","","","","NA"
"-80.42","43.65","ELORA RCS","6142286","2012-12-05 02:00","2012","12","05","02:00","5.8","","3.2","","83","","","","27","","20","","","","96.91","","","","","","NA"
"-80.42","43.65","ELORA RCS","6142286","2012-12-05 03:00","2012","12","05","03:00","4.8","","2.4","","84","","","","27","","20","","","","96.92","","","","","","NA"
"-80.42","43.65","ELORA RCS","6142286","2012-12-05 04:00","2012","12","05","04:00","4.3","","2.0","","85","","","","28","","20","","","","96.96","","","","","","NA"
"-80.42","43.65","ELORA RCS","6142286","2012-12-05 05:00","2012","12","05","05:00","3.5","","1.6","","87","","","","30","","13","","","","97.04","","","","","","NA"
"-80.42","43.65","ELORA RCS","6142286","2012-12-05 06:00","2012","12","05","06:00","2.7","","0.5","","85","","","","32","","19","","","","97.08","","","","","","NA"
"-80.42","43.65","ELORA RCS","6142286","2012-12-05 07:00","2012","12","05","07:00","0.9","","-1.9","","82","","","","32","","26","","","","97.20","","","","","","NA"
"-80.42","43.65","ELORA RCS","6142286","2012-12-05 08:00","2012","12","05","08:00","0.5","","-2.9","","78","","","","32","","32","","","","97.29","","","","","","NA"
"-80.42","43.65","ELORA RCS","6142286","2012-12-05 09:00","2012","12","05","09:00","-0.2","","-4.6","","72","","","","31","","32","","","","97.35","","","","-7","","NA"
"-80.42","43.65","ELORA RCS","6142286","2012-12-05 10:00","2012","12","05","10:00","-0.7","","-5.3","","71","","","","31","","32","","","","97.40","","","","-8","","NA"
"-80.42","43.65","ELORA RCS","6142286","2012-12-05 11:00","2012","12","05","11:00","-0.9","","-5.6","","70","","","","31","","32","","","","97.51","","","","-8","","NA"
"-80.42","43.65","ELORA RCS","6142286","2012-12-05 12:00","2012","12","05","12:00","-0.9","","-4.9","","74","","","","30","","24","","","","97.53","","","","-7","","NA"
"-80.42","43.65","ELORA RCS","6142286","2012-12-05 13:00","2012","12","05","13:00","-1.3","","-3.7","","84","","","","30","","22","","","","97.62","","","","-7","","NA"
"-80.42","43.65","ELORA RCS","6142286","2012-12-05 14:00","2012","12","05","14:00","-1.2","","-4.6","","78","","","","32","","30","","","","97.70","","","","-8","","NA"
"-80.42","43.65","ELORA RCS","6142286","2012-12-05 15:00","2012","12","05","15:00","-1.4","","-6.4","","69","","","","33","","30","","","","97.82","","","","-8","","NA"
"-80.42","43.65","ELORA RCS","6142286","2012-12-05 16:00","2012","12","05","16:00","-1.6","","-6.4","","70","","","","34","","24","","","","97.89","","","","-8","","NA"
"-80.42","43.65","ELORA RCS","6142286","2012-12-05 17:00","2012","12","05","17:00","-1.7","","-6.1","","72","","","","33","","26","","","","97.91","","","","-8","","NA"
"-80.42","43.65","ELORA RCS","6142286","2012-12-05 18:00","2012","12","05","18:00","-1.9","","-6.6","","70","","","","33","","20","","","","97.96","","","","-8","","NA"
"-80.42","43.65","ELORA RCS","6142286","2012-12-05 19:00","2012","12","05","19:00","-1.8","","-7.8","","64","","","","34","","22","","","","98.01","","","","-8","","NA"
"-80.42","43.65","ELORA RCS","6142286","2012-12-05 20:00","2012","12","05","20:00","-1.7","","-7.8","","63","","","","33","","24","","","","98.01","","","","-8","","NA"
"-80.42","43.65","ELORA RCS","6142286","2012-12-05 21:00","2012","12","05","21:00","-2.0","","-7.5","","66","","","","36","","19","","","","98.08","","","","-8","","NA"
"-80.42","43.65","ELORA RCS","6142286","2012-12-05 22:00","2012","12","05","22:00","-2.9","","-7.8","","69","","","","35","","17","","","","98.19","","","","-8","","NA"
"-80.42","43.65","ELORA RCS","6142286","2012-12-05 23:00","2012","12","05","23:00","-3.5","","-7.9","","72","","","","36","","9","","","","98.21","","","","-7","","NA"
"-80.42","43.65","ELORA RCS","6142286","2012-12-06 00:00","2012","12","06","00:00","-3.5","","-8.0","","71","","","","3","","6","","","","98.23","","","","-6","","NA"
"-80.42","43.65","ELORA RCS","6142286","2012-12-06 01:00","2012","12","06","01:00","-3.7","","-8.2","","71","","","","2","","9","","","","98.19","","","","-7","","NA"
"-80.42","43.65","ELORA RCS","6142286","2012-12-06 02:00","2012","12","06","02:00","-4.1","","-7.7","","76","","","","3","","6","","","","98.20","","","","-7","","NA"
"-80.42","43.65","ELORA RCS","6142286","2012-12-06 03:00","2012","12","06","03:00","-4.1","","-7.8","","75","","","","","","0","","","","98.20","","","","","","NA"
"-80.42","43.65","ELORA RCS","6142286","2012-12-06 04:00","2012","12","06","04:00","-4.0","","-8.1","","73","","","","","","0","","","","98.22","","","","","","NA"
"-80.42","43.65","ELORA RCS","6142286","2012-12-06 05:00","2012","12","06","05:00","-4.3","","-7.4","","79","","","","31","","4","","","","98.26","","","","-6","","NA"
"-80.42","43.65","ELORA RCS","6142286","2012-12-06 06:00","2012","12","06","06:00","-4.9","","-7.2","","84","","","","","","0","","","","98.22","","","","","","NA"
"-80.42","43.65","ELORA RCS","6142286","2012-12-06 07:00","2012","12","06","07:00","-5.4","","-7.6","","84","","","","14","","6","","","","98.19","","","","-8","","NA"
"-80.42","43.65","ELORA RCS","6142286","2012-12-06 08:00","2012","12","06","08:00","-6.1","","-7.5","","90","","","","11","","6","","","","98.16","","","","-9","","NA"
"-80.42","43.65","ELORA RCS","6142286","2012-12-06 09:00","2012","12","06","09:00","-6.3","","-7.6","","90","","","","11","","4","","","","98.11","","","","-8","","NA"
"-80.42","43.65","ELORA RCS","6142286","2012-12-06 10:00","2012","12","06","10:00","-6.5","","-7.7","","91","","","","11","","4","","","","98.11","","","","-8","","NA"
"-80.42","43.65","ELORA RCS","6142286","2012-12-06 11:00","2012","12","06","11:00","-6.8","","-7.9","","92","","","","9","","4","","","","98.12","","","","-9","","NA"
"-80.42","43.65","ELORA RCS","6142286","2012-12-06 12:00","2012","12","06","12:00","-6.2","","-7.8","","88","","","","11","","9","","","","98.05","","","","-10","","NA"
"-80.42","43.65","ELORA RCS","6142286","2012-12-06 13:00","2012","12","06","13:00","-6.0","","-7.8","","87","","","","14","","7","","","","98.07","","","","-9","","NA"
"-80.42","43.65","ELORA RCS","6142286","2012-12-06 14:00","2012","12","06","14:00","-4.5","","-6.7","","85","","","","14","","11","","","","98.02","","","","-9","","NA"
"-80.42","43.65","ELORA RCS","6142286","2012-12-06 15:00","2012","12","06","15:00","-3.3","","-5.5","","85","","","","14","","15","","","","97.95","","","","-8","","NA"
"-80.42","43.65","ELORA RCS","6142286","2012-12-06 16:00","2012","12","06","16:00","-2.0","","-4.8","","81","","","","14","","17","","","","97.83","","","","-7","","NA"
"-80.42","43.65","ELORA RCS","6142286","2012-12-06 17:00","2012","12","06","17:00","-1.8","","-5.6","","75","","","","14","","19","","","","97.68","","","","-7","","NA"
"-80.42","43.65","ELORA RCS","6142286","2012-12-06 18:00","2012","12","06","18:00","-0.7","","-5.0","","73","","","","15","","17","","","","97.58","","","","-6","","NA"
"-80.42","43.65","ELORA RCS","6142286","2012-12-06 19:00","2012","12","06","19:00","-0.4","","-5.5","","68","","","","14","","11","","","","97.48","","","","-4","","NA"
"-80.42","43.65","ELORA RCS","6142286","2012-12-06 20:00","2012","12","06","20:00","-0.5","","-5.6","","68","","","","11","","13","","","","97.38","","","","-5","","NA"
"-80.42","43.65","ELORA RCS","6142286","2012-12-06 21:00","2012","12","06","21:00","-0.9","","-5.1","","73","","","","11","","7","","","","97.38","","","","-3","","NA"
"-80.42","43.65","ELORA RCS","6142286","2012-12-06 22:00","2012","12","06","22:00","-1.3","","-5.3","","74","","","","14","","11","","","","97.36","","","","-5","","NA"
"-80.42","43.65","ELORA RCS","6142286","2012-12-06 23:00","2012","12","06","23:00","-1.7","","-4.9","","79","","","","14","","7","","","","97.27","","","","-4","","NA"
"-80.42","43.65","ELORA RCS","6142286","2012-12-07 00:00","2012","12","07","00:00","-2.0","","-4.5","","83","","","","13","","13","","","","97.22","","","","-6","","NA"
"-80.42","43.65","ELORA RCS","6142286","2012-12-07 01:00","2012","12","07","01:00","-2.5","","-4.7","","85","","","","12","","6","","","","97.19","","","","-5","","NA"
"-80.42","43.65","ELORA RCS","6142286","2012-12-07 02:00","2012","12","07","02:00","-2.3","","-4.3","","86","","","","14","","6","","","","97.13","","","","-5","","NA"
"-80.42","43.65","ELORA RCS","6142286","2012-12-07 03:00","2012","12","07","03:00","-2.1","","-3.7","","89","","","","11","","4","","","","97.09","","","","-4","","NA"
"-80.42","43.65","ELORA RCS","6142286","2012-12-07 04:00","2012","12","07","04:00","-1.9","","-3.5","","89","","","","35","","4","","","","97.08","","","","-3","","NA"
"-80.42","43.65","ELORA RCS","6142286","2012-12-07 05:00","2012","12","07","05:00","-1.8","","-3.5","","88","","","","","","0","","","","97.03","","","","","","NA"
"-80.42","43.65","ELORA RCS","6142286","2012-12-07 06:00","2012","12","07","06:00","-1.5","","-3.4","","87","","","","14","","6","","","","96.97","","","","-4","","NA"
"-80.42","43.65","ELORA RCS","6142286","2012-12-07 07:00","2012","12","07","07:00","-1.2","","-3.4","","85","","","","","","0","","","","96.96","","","","","","NA"
"-80.42","43.65","ELORA RCS","6142286","2012-12-07 08:00","2012","12","07","08:00","-1.0","","-3.1","","86","","","","13","","4","","","","96.93","","","","-2","","NA"
"-80.42","43.65","ELORA RCS","6142286","2012-12-07 09:00","2012","12","07","09:00","-0.9","","-2.4","","90","","","","","","0","","","","96.89","","","","","","NA"
"-80.42","43.65","ELORA RCS","6142286","2012-12-07 10:00","2012","12","07","10:00","-0.8","","-2.3","","90","","","","","","0","","","","96.86","","","","","","NA"
"-80.42","43.65","ELORA RCS","6142286","2012-12-07 11:00","2012","12","07","11:00","-0.5","","-1.9","","90","","","","15","","6","","","","96.83","","","","-3","","NA"
"-80.42","43.65","ELORA RCS","6142286","2012-12-07 12:00","2012","12","07","12:00","-0.3","","-1.6","","91","","","","16","","4","","","","96.86","","","","-2","","NA"
"-80.42","43.65","ELORA RCS","6142286","2012-12-07 13:00","2012","12","07","13:00","-0.2","","-1.4","","92","","","","","","0","","","","96.85","","","","","","NA"
"-80.42","43.65","ELORA RCS","6142286","2012-12-07 14:00","2012","12","07","14:00","0.4","","-1.0","","90","","","","7","","4","","","","96.88","","","","","","NA"
"-80.42","43.65","ELORA RCS","6142286","2012-12-07 15:00","2012","12","07","15:00","1.1","","-0.3","","90","","","","","","0","","","","96.91","","","","","","NA"
"-80.42","43.65","ELORA RCS","6142286","2012-12-07 16:00","2012","12","07","16:00","1.6","","0.0","","89","","","","17","","4","","","","96.91","","","","","","NA"
"-80.42","43.65","ELORA RCS","6142286","2012-12-07 17:00","2012","12","07","17:00","2.1","","0.8","","91","","","","19","","4","","","","96.86","","","","","","NA"
"-80.42","43.65","ELORA RCS","6142286","2012-12-07 18:00","2012","12","07","18:00","2.8","","1.2","","89","","","","31","","4","","","","96.80","","","","","","NA"
"-80.42","43.65","ELORA RCS","6142286","2012-12-07 19:00","2012","12","07","19:00","3.0","","1.8","","92","","","","31","","4","","","","96.77","","","","","","NA"
"-80.42","43.65","ELORA RCS","6142286","2012-12-07 20:00","2012","12","07","20:00","2.9","","1.9","","93","","","","32","","6","","","","96.80","","","","","","NA"
"-80.42","43.65","ELORA RCS","6142286","2012-12-07 21:00","2012","12","07","21:00","2.6","","1.8","","94","","","","30","","4","","","","96.83","","","","","","NA"
"-80.42","43.65","ELORA RCS","6142286","2012-12-07 22:00","2012","12","07","22:00","2.0","","1.4","","96","","","","19","","4","","","","96.87","","","","","","NA"
"-80.42","43.65","ELORA RCS","6142286","2012-12-07 23:00","2012","12","07","23:00","2.1","","1.6","","96","","","","","","0","","","","96.90","","","","","","NA"
"-80.42","43.65","ELORA RCS","6142286","2012-12-08 00:00","2012","12","08","00:00","1.9","","1.4","","96","","","","","","0","","","","96.90","","","","","","NA"
"-80.42","43.65","ELORA RCS","6142286","2012-12-08 01:00","2012","12","08","01:00","2.0","","1.6","","97","","","","5","","4","","","","96.89","","","","","","NA"
"-80.42","43.65","ELORA RCS","6142286","2012-12-08 02:00","2012","12","08","02:00","1.8","","1.4","","97","","","","10","","4","","","","96.85","","","","","","NA"
"-80.42","43.65","ELORA RCS","6142286","2012-12-08 03:00","2012","12","08","03:00","1.7","","1.3","","97","","","","","","0","","","","96.82","","","","","","NA"
"-80.42","43.65","ELORA RCS","6142286","2012-12-08 04:00","2012","12","08","04:00","2.2","","1.8","","97","","","","36","","6","","","","96.82","","","","","","NA"
"-80.42","43.65","ELORA RCS","6142286","2012-12-08 05:00","2012","12","08","05:00","1.9","","1.5","","97","","","","6","","6","","","","96.77","","","","","","NA"
"-80.42","43.65","ELORA RCS","6142286","2012-12-08 06:00","2012","12","08","06:00","2.3","","1.9","","97","","","","4","","7","","","","96.71","","","","","","NA"
"-80.42","43.65","ELORA RCS","6142286","2012-12-08 07:00","2012","12","08","07:00","2.2","","1.8","","97","","","","4","","7","","","","96.67","","","","","","NA"
"-80.42","43.65","ELORA RCS","6142286","2012-12-08 08:00","2012","12","08","08:00","2.2","","1.8","","97","","","","4","","9","","","","96.63","","","","","","NA"
"-80.42","43.65","ELORA RCS","6142286","2012-12-08 09:00","2012","12","08","09:00","2.4","","2.0","","97","","","","7","","9","","","","96.58","","","","","","NA"
"-80.42","43.65","ELORA RCS","6142286","2012-12-08 10:00","2012","12","08","10:00","2.3","","1.9","","97","","","","7","","7","","","","96.55","","","","","","NA"
"-80.42","43.65","ELORA RCS","6142286","2012-12-08 11:00","2012","12","08","11:00","2.4","","2.0","","97","","","","5","","7","","","","96.55","","","","","","NA"
"-80.42","43.65","ELORA RCS","6142286","2012-12-08 12:00","2012","12","08","12:00","2.5","","2.1","","97","","","","6","","9","","","","96.54","","","","","","NA"
"-80.42","43.65","ELORA RCS","6142286","2012-12-08 13:00","2012","12","08","13:00","2.5","","2.1","","97","","","","6","","11","","","","96.46","","","","","","NA"
"-80.42","43.65","ELORA RCS","6142286","2012-12-08 14:00","2012","12","08","14:00","2.6","","2.2","","97","","","","4","","6","","","","96.47","","","","","","NA"
"-80.42","43.65","ELORA RCS","6142286","2012-12-08 15:00","2012","12","08","15:00","3.0","","2.6","","97","","","","1","","4","","","","96.50","","","","","","NA"
"-80.42","43.65","ELORA RCS","6142286","2012-12-08 16:00","2012","12","08","16:00","3.2","","2.8","","97","","","","1","","6","","","","96.49","","","","","","NA"
"-80.42","43.65","ELORA RCS","6142286","2012-12-08 17:00","2012","12","08","17:00","3.0","","2.6","","97","","","","32","","15","","","","96.49","","","","","","NA"
"-80.42","43.65","ELORA RCS","6142286","2012-12-08 18:00","2012","12","08","18:00","1.8","","1.4","","97","","","","35","","17","","","","96.49","","","","","","NA"
"-80.42","43.65","ELORA RCS","6142286","2012-12-08 19:00","2012","12","08","19:00","1.4","","0.8","","96","","","","34","","19","","","","96.57","","","","","","NA"
"-80.42","43.65","ELORA RCS","6142286","2012-12-08 20:00","2012","12","08","20:00","2.0","","1.2","","94","","","","34","","13","","","","96.65","","","","","","NA"
"-80.42","43.65","ELORA RCS","6142286","2012-12-08 21:00","2012","12","08","21:00","1.6","","0.4","","92","","","","33","","19","","","","96.77","","","","","","NA"
"-80.42","43.65","ELORA RCS","6142286","2012-12-08 22:00","2012","12","08","22:00","1.0","","-0.1","","92","","","","33","","20","","","","96.89","","","","","","NA"
"-80.42","43.65","ELORA RCS","6142286","2012-12-08 23:00","2012","12","08","23:00","0.3","","-1.6","","87","","","","33","","19","","","","97.02","","","","","","NA"
"-80.42","43.65","ELORA RCS","6142286","2012-12-09 00:00","2012","12","09","00:00","-0.4","","-2.5","","86","","","","33","","17","","","","97.15","","","","-5","","NA"
"-80.42","43.65","ELORA RCS","6142286","2012-12-09 01:00","2012","12","09","01:00","-0.3","","-3.0","","82","","","","34","","20","","","","97.26","","","","-6","","NA"
"-80.42","43.65","ELORA RCS","6142286","2012-12-09 02:00","2012","12","09","02:00","-0.9","","-3.7","","81","","","","34","","20","","","","97.35","","","","-6","","NA"
"-80.42","43.65","ELORA RCS","6142286","2012-12-09 03:00","2012","12","09","03:00","-1.1","","-4.3","","79","","","","34","","20","","","","97.45","","","","-7","","NA"
"-80.42","43.65","ELORA RCS","6142286","2012-12-09 04:00","2012","12","09","04:00","-1.3","","-4.2","","81","","","","1","","19","","","","97.50","","","","-7","","NA"
"-80.42","43.65","ELORA RCS","6142286","2012-12-09 05:00","2012","12","09","05:00","-1.3","","-4.5","","79","","","","1","","13","","","","97.54","","","","-6","","NA"
"-80.42","43.65","ELORA RCS","6142286","2012-12-09 06:00","2012","12","09","06:00","-1.3","","-4.3","","80","","","","1","","15","","","","97.64","","","","-6","","NA"
"-80.42","43.65","ELORA RCS","6142286","2012-12-09 07:00","2012","12","09","07:00","-1.6","","-5.0","","78","","","","3","","13","","","","97.66","","","","-6","","NA"
"-80.42","43.65","ELORA RCS","6142286","2012-12-09 08:00","2012","12","09","08:00","-1.8","","-4.8","","80","","","","1","","6","","","","97.77","","","","-4","","NA"
"-80.42","43.65","ELORA RCS","6142286","2012-12-09 09:00","2012","12","09","09:00","-2.3","","-5.4","","79","","","","5","","13","","","","97.81","","","","-7","","NA"
"-80.42","43.65","ELORA RCS","6142286","2012-12-09 10:00","2012","12","09","10:00","-3.0","","-6.0","","80","","","","5","","13","","","","97.76","","","","-8","","NA"
"-80.42","43.65","ELORA RCS","6142286","2012-12-09 11:00","2012","12","09","11:00","-3.4","","-6.2","","81","","","","5","","15","","","","97.79","","","","-9","","NA"
"-80.42","43.65","ELORA RCS","6142286","2012-12-09 12:00","2012","12","09","12:00","-3.8","","-6.9","","79","","","","6","","13","","","","97.79","","","","-9","","NA"
"-80.42","43.65","ELORA RCS","6142286","2012-12-09 13:00","2012","12","09","13:00","-4.1","","-8.3","","73","","","","8","","13","","","","97.84","","","","-9","","NA"
"-80.42","43.65","ELORA RCS","6142286","2012-12-09 14:00","2012","12","09","14:00","-4.0","","-8.6","","70","","","","7","","15","","","","97.83","","","","-9","","NA"
"-80.42","43.65","ELORA RCS","6142286","2012-12-09 15:00","2012","12","09","15:00","-3.7","","-9.3","","65","","","","8","","19","","","","97.77","","","","-10","","NA"
"-80.42","43.65","ELORA RCS","6142286","2012-12-09 16:00","2012","12","09","16:00","-2.9","","-9.1","","62","","","","10","","19","","","","97.62","","","","-9","","NA"
"-80.42","43.65","ELORA RCS","6142286","2012-12-09 17:00","2012","12","09","17:00","-2.9","","-7.5","","71","","","","9","","22","","","","97.54","","","","-9","","NA"
"-80.42","43.65","ELORA RCS","6142286","2012-12-09 18:00","2012","12","09","18:00","-3.0","","-7.1","","73","","","","9","","22","","","","97.48","","","","-9","","NA"
"-80.42","43.65","ELORA RCS","6142286","2012-12-09 19:00","2012","12","09","19:00","-3.0","","-5.0","","86","","","","8","","22","","","","97.37","","","","-9","","NA"
"-80.42","43.65","ELORA RCS","6142286","2012-12-09 20:00","2012","12","09","20:00","-2.3","","-3.6","","91","","","","9","","26","","","","97.20","","","","-9","","NA"
"-80.42","43.65","ELORA RCS","6142286","2012-12-09 21:00","2012","12","09","21:00","-1.7","","-2.7","","93","","","","10","","30","","","","97.10","","","","-9","","NA"
"-80.42","43.65","ELORA RCS","6142286","2012-12-09 22:00","2012","12","09","22:00","-1.2","","-2.0","","94","","","","10","","39","","","","96.89","","","","-9","","NA"
"-80.42","43.65","ELORA RCS","6142286","2012-12-09 23:00","2012","12","09","23:00","-0.7","","-1.6","","94","","","","10","","33","","","","96.79","","","","-8","","NA"
"-80.42","43.65","ELORA RCS","6142286","2012-12-10 00:00","2012","12","10","00:00","-0.4","","-1.4","","93","","","","11","","32","","","","96.68","","","","-7","","NA"
"-80.42","43.65","ELORA RCS","6142286","2012-12-10 01:00","2012","12","10","01:00","0.2","","-0.7","","94","","","","11","","24","","","","96.51","","","","","","NA"
"-80.42","43.65","ELORA RCS","6142286","2012-12-10 02:00","2012","12","10","02:00","0.3","","-0.3","","96","","","","11","","28","","","","96.38","","","","","","NA"
"-80.42","43.65","ELORA RCS","6142286","2012-12-10 03:00","2012","12","10","03:00","0.5","","0.1","","97","","","","11","","20","","","","96.25","","","","","","NA"
"-80.42","43.65","ELORA RCS","6142286","2012-12-10 04:00","2012","12","10","04:00","0.7","","0.3","","97","","","","10","","13","","","","96.18","","","","","","NA"
"-80.42","43.65","ELORA RCS","6142286","2012-12-10 05:00","2012","12","10","05:00","0.9","","0.5","","97","","","","11","","17","","","","96.03","","","","","","NA"
"-80.42","43.65","ELORA RCS","6142286","2012-12-10 06:00","2012","12","10","06:00","1.4","","1.0","","97","","","","10","","7","","","","95.93","","","","","","NA"
"-80.42","43.65","ELORA RCS","6142286","2012-12-10 07:00","2012","12","10","07:00","1.3","","0.9","","97","","","","9","","6","","","","95.80","","","","","","NA"
"-80.42","43.65","ELORA RCS","6142286","2012-12-10 08:00","2012","12","10","08:00","1.3","","1.0","","98","","","","9","","7","","","","95.73","","","","","","NA"
"-80.42","43.65","ELORA RCS","6142286","2012-12-10 09:00","2012","12","10","09:00","1.3","","1.0","","98","","","","8","","4","","","","95.61","","","","","","NA"
"-80.42","43.65","ELORA RCS","6142286","2012-12-10 10:00","2012","12","10","10:00","1.4","","1.1","","98","","","","","","0","","","","95.53","","","","","","NA"
"-80.42","43.65","ELORA RCS","6142286","2012-12-10 11:00","2012","12","10","11:00","1.0","","0.7","","98","","","","","","0","","","","95.52","","","","","","NA"
"-80.42","43.65","ELORA RCS","6142286","2012-12-10 12:00","2012","12","10","12:00","1.1","","0.8","","98","","","","26","","6","","","","95.50","","","","","","NA"
"-80.42","43.65","ELORA RCS","6142286","2012-12-10 13:00","2012","12","10","13:00","2.4","","2.0","","97","","","","26","","19","","","","95.53","","","","","","NA"
"-80.42","43.65","ELORA RCS","6142286","2012-12-10 14:00","2012","12","10","14:00","1.5","","1.2","","98","","","","27","","22","","","","95.61","","","","","","NA"
"-80.42","43.65","ELORA RCS","6142286","2012-12-10 15:00","2012","12","10","15:00","1.5","","1.2","","98","","","","26","","20","","","","95.65","","","","","","NA"
"-80.42","43.65","ELORA RCS","6142286","2012-12-10 16:00","2012","12","10","16:00","1.4","","1.1","","98","","","","27","","22","","","","95.66","","","","","","NA"
"-80.42","43.65","ELORA RCS","6142286","2012-12-10 17:00","2012","12","10","17:00","1.4","","1.1","","98","","","","28","","24","","","","95.62","","","","","","NA"
"-80.42","43.65","ELORA RCS","6142286","2012-12-10 18:00","2012","12","10","18:00","1.1","","0.8","","98","","","","27","","28","","","","95.62","","","","","","NA"
"-80.42","43.65","ELORA RCS","6142286","2012-12-10 19:00","2012","12","10","19:00","1.2","","0.9","","98","","","","28","","20","","","","95.66","","","","","","NA"
"-80.42","43.65","ELORA RCS","6142286","2012-12-10 20:00","2012","12","10","20:00","1.2","","0.8","","97","","","","29","","20","","","","95.66","","","","","","NA"
"-80.42","43.65","ELORA RCS","6142286","2012-12-10 21:00","2012","12","10","21:00","0.4","","-0.2","","96","","","","31","","22","","","","95.77","","","","","","NA"
"-80.42","43.65","ELORA RCS","6142286","2012-12-10 22:00","2012","12","10","22:00","-0.3","","-1.3","","93","","","","33","","19","","","","95.83","","","","-5","","NA"
"-80.42","43.65","ELORA RCS","6142286","2012-12-10 23:00","2012","12","10","23:00","-0.6","","-1.8","","92","","","","32","","17","","","","95.92","","","","-6","","NA"
"-80.42","43.65","ELORA RCS","6142286","2012-12-11 00:00","2012","12","11","00:00","-1.0","","-2.3","","91","","","","33","","17","","","","96.01","","","","-6","","NA"
"-80.42","43.65","ELORA RCS","6142286","2012-12-11 01:00","2012","12","11","01:00","-1.5","","-2.9","","90","","","","32","","19","","","","96.10","","","","-7","","NA"
"-80.42","43.65","ELORA RCS","6142286","2012-12-11 02:00","2012","12","11","02:00","-1.7","","-3.6","","87","","","","29","","20","","","","96.17","","","","-7","","NA"
"-80.42","43.65","ELORA RCS","6142286","2012-12-11 03:00","2012","12","11","03:00","-2.3","","-4.6","","84","","","","32","","22","","","","96.21","","","","-8","","NA"
"-80.42","43.65","ELORA RCS","6142286","2012-12-11 04:00","2012","12","11","04:00","-2.7","","-4.8","","85","","","","32","","19","","","","96.27","","","","-8","","NA"
"-80.42","43.65","ELORA RCS","6142286","2012-12-11 05:00","2012","12","11","05:00","-3.2","","-5.2","","86","","","","34","","17","","","","96.33","","","","-9","","NA"
"-80.42","43.65","ELORA RCS","6142286","2012-12-11 06:00","2012","12","11","06:00","-3.8","","-6.2","","83","","","","32","","17","","","","96.40","","","","-10","","NA"
"-80.42","43.65","ELORA RCS","6142286","2012-12-11 07:00","2012","12","11","07:00","-4.4","","-6.8","","83","","","","33","","13","","","","96.42","","","","-9","","NA"
"-80.42","43.65","ELORA RCS","6142286","2012-12-11 08:00","2012","12","11","08:00","-4.4","","-6.6","","85","","","","29","","11","","","","96.46","","","","-9","","NA"
"-80.42","43.65","ELORA RCS","6142286","2012-12-11 09:00","2012","12","11","09:00","-4.5","","-6.9","","83","","","","33","","13","","","","96.53","","","","-10","","NA"
"-80.42","43.65","ELORA RCS","6142286","2012-12-11 10:00","2012","12","11","10:00","-4.6","","-6.8","","85","","","","33","","11","","","","96.58","","","","-9","","NA"
"-80.42","43.65","ELORA RCS","6142286","2012-12-11 11:00","2012","12","11","11:00","-4.4","","-6.6","","85","","","","30","","9","","","","96.68","","","","-8","","NA"
"-80.42","43.65","ELORA RCS","6142286","2012-12-11 12:00","2012","12","11","12:00","-4.2","","-6.1","","87","","","","31","","7","","","","96.69","","","","-7","","NA"
"-80.42","43.65","ELORA RCS","6142286","2012-12-11 13:00","2012","12","11","13:00","-4.0","","-6.0","","86","","","","30","","7","","","","96.80","","","","-7","","NA"
"-80.42","43.65","ELORA RCS","6142286","2012-12-11 14:00","2012","12","11","14:00","-4.0","","-6.0","","86","","","","31","","7","","","","96.87","","","","-7","","NA"
"-80.42","43.65","ELORA RCS","6142286","2012-12-11 15:00","2012","12","11","15:00","-3.6","","-5.8","","85","","","","30","","9","","","","96.92","","","","-7","","NA"
"-80.42","43.65","ELORA RCS","6142286","2012-12-11 16:00","2012","12","11","16:00","-3.2","","-5.6","","83","","","","29","","6","","","","96.98","","","","-6","","NA"
"-80.42","43.65","ELORA RCS","6142286","2012-12-11 17:00","2012","12","11","17:00","-2.8","","-5.6","","81","","","","27","","7","","","","96.94","","","","-6","","NA"
"-80.42","43.65","ELORA RCS","6142286","2012-12-11 18:00","2012","12","11","18:00","-2.6","","-5.3","","82","","","","24","","7","","","","96.97","","","","-5","","NA"
"-80.42","43.65","ELORA RCS","6142286","2012-12-11 19:00","2012","12","11","19:00","-2.3","","-4.4","","85","","","","24","","9","","","","97.02","","","","-6","","NA"
"-80.42","43.65","ELORA RCS","6142286","2012-12-11 20:00","2012","12","11","20:00","-1.9","","-4.2","","84","","","","25","","11","","","","97.05","","","","-6","","NA"
"-80.42","43.65","ELORA RCS","6142286","2012-12-11 21:00","2012","12","11","21:00","-1.8","","-5.7","","75","","","","26","","20","","","","97.12","","","","-8","","NA"
"-80.42","43.65","ELORA RCS","6142286","2012-12-11 22:00","2012","12","11","22:00","-2.7","","-6.0","","78","","","","26","","15","","","","97.17","","","","-8","","NA"
"-80.42","43.65","ELORA RCS","6142286","2012-12-11 23:00","2012","12","11","23:00","-3.4","","-6.0","","82","","","","24","","11","","","","97.25","","","","-8","","NA"
"-80.42","43.65","ELORA RCS","6142286","2012-12-12 00:00","2012","12","12","00:00","-4.3","","-6.5","","85","","","","19","","6","","","","97.25","","","","-7","","NA"
"-80.42","43.65","ELORA RCS","6142286","2012-12-12 01:00","2012","12","12","01:00","-3.8","","-5.5","","88","","","","15","","6","","","","97.27","","","","-6","","NA"
"-80.42","43.65","ELORA RCS","6142286","2012-12-12 02:00","2012","12","12","02:00","-3.2","","-5.2","","86","","","","18","","7","","","","97.29","","","","-6","","NA"
"-80.42","43.65","ELORA RCS","6142286","2012-12-12 03:00","2012","12","12","03:00","-2.5","","-4.6","","85","","","","21","","11","","","","97.31","","","","-7","","NA"
"-80.42","43.65","ELORA RCS","6142286","2012-12-12 04:00","2012","12","12","04:00","-1.4","","-5.8","","72","","","","24","","24","","","","97.35","","","","-8","","NA"
"-80.42","43.65","ELORA RCS","6142286","2012-12-12 05:00","2012","12","12","05:00","-2.0","","-6.0","","74","","","","24","","26","","","","97.39","","","","-9","","NA"
"-80.42","43.65","ELORA RCS","6142286","2012-12-12 06:00","2012","12","12","06:00","-3.2","","-6.1","","80","","","","24","","20","","","","97.42","","","","-9","","NA"
"-80.42","43.65","ELORA RCS","6142286","2012-12-12 07:00","2012","12","12","07:00","-3.4","","-5.8","","83","","","","23","","17","","","","97.45","","","","-9","","NA"
"-80.42","43.65","ELORA RCS","6142286","2012-12-12 08:00","2012","12","12","08:00","-2.6","","-5.2","","82","","","","24","","22","","","","97.53","","","","-9","","NA"
"-80.42","43.65","ELORA RCS","6142286","2012-12-12 09:00","2012","12","12","09:00","-3.0","","-5.3","","84","","","","24","","20","","","","97.57","","","","-9","","NA"
"-80.42","43.65","ELORA RCS","6142286","2012-12-12 10:00","2012","12","12","10:00","-2.9","","-5.1","","85","","","","23","","17","","","","97.60","","","","-8","","NA"
"-80.42","43.65","ELORA RCS","6142286","2012-12-12 11:00","2012","12","12","11:00","-2.7","","-4.8","","85","","","","23","","19","","","","97.63","","","","-8","","NA"
"-80.42","43.65","ELORA RCS","6142286","2012-12-12 12:00","2012","12","12","12:00","-2.6","","-4.7","","85","","","","23","","17","","","","97.70","","","","-8","","NA"
"-80.42","43.65","ELORA RCS","6142286","2012-12-12 13:00","2012","12","12","13:00","-2.5","","-4.5","","86","","","","22","","17","","","","97.73","","","","-8","","NA"
"-80.42","43.65","ELORA RCS","6142286","2012-12-12 14:00","2012","12","12","14:00","-2.3","","-4.1","","87","","","","23","","19","","","","97.77","","","","-8","","NA"
"-80.42","43.65","ELORA RCS","6142286","2012-12-12 15:00","2012","12","12","15:00","-0.8","","-3.6","","81","","","","24","","22","","","","97.84","","","","-7","","NA"
"-80.42","43.65","ELORA RCS","6142286","2012-12-12 16:00","2012","12","12","16:00","-0.2","","-3.2","","80","","","","24","","26","","","","97.92","","","","-6","","NA"
"-80.42","43.65","ELORA RCS","6142286","2012-12-12 17:00","2012","12","12","17:00","0.6","","-3.1","","76","","","","25","","24","","","","97.94","","","","","","NA"
"-80.42","43.65","ELORA RCS","6142286","2012-12-12 18:00","2012","12","12","18:00","1.3","","-2.3","","77","","","","26","","28","","","","97.95","","","","","","NA"
"-80.42","43.65","ELORA RCS","6142286","2012-12-12 19:00","2012","12","12","19:00","1.1","","-2.0","","80","","","","27","","24","","","","98.00","","","","","","NA"
"-80.42","43.65","ELORA RCS","6142286","2012-12-12 20:00","2012","12","12","20:00","0.8","","-2.1","","81","","","","25","","20","","","","98.03","","","","","","NA"
"-80.42","43.65","ELORA RCS","6142286","2012-12-12 21:00","2012","12","12","21:00","0.5","","-2.1","","83","","","","24","","15","","","","98.08","","","","","","NA"
"-80.42","43.65","ELORA RCS","6142286","2012-12-12 22:00","2012","12","12","22:00","0.1","","-2.1","","85","","","","24","","11","","","","98.09","","","","","","NA"
"-80.42","43.65","ELORA RCS","6142286","2012-12-12 23:00","2012","12","12","23:00","-0.7","","-2.3","","89","","","","20","","7","","","","98.12","","","","-3","","NA"
"-80.42","43.65","ELORA RCS","6142286","2012-12-13 00:00","2012","12","13","00:00","-1.3","","-2.6","","91","","","","23","","6","","","","98.16","","","","-4","","NA"
"-80.42","43.65","ELORA RCS","6142286","2012-12-13 01:00","2012","12","13","01:00","-1.9","","-2.7","","94","","","","24","","4","","","","98.18","","","","-3","","NA"
"-80.42","43.65","ELORA RCS","6142286","2012-12-13 02:00","2012","12","13","02:00","-2.4","","-3.0","","96","","","","","","0","","","","98.20","","","","","","NA"
"-80.42","43.65","ELORA RCS","6142286","2012-12-13 03:00","2012","12","13","03:00","-2.9","","-3.7","","94","","","","18","","4","","","","98.19","","","","-4","","NA"
"-80.42","43.65","ELORA RCS","6142286","2012-12-13 04:00","2012","12","13","04:00","-3.1","","-4.0","","93","","","","25","","7","","","","98.22","","","","-6","","NA"
"-80.42","43.65","ELORA RCS","6142286","2012-12-13 05:00","2012","12","13","05:00","-2.9","","-4.1","","91","","","","20","","7","","","","98.25","","","","-6","","NA"
"-80.42","43.65","ELORA RCS","6142286","2012-12-13 06:00","2012","12","13","06:00","-3.3","","-4.7","","90","","","","22","","9","","","","98.22","","","","-7","","NA"
"-80.42","43.65","ELORA RCS","6142286","2012-12-13 07:00","2012","12","13","07:00","-4.0","","-5.0","","93","","","","","","0","","","","98.24","","","","","","NA"
"-80.42","43.65","ELORA RCS","6142286","2012-12-13 08:00","2012","12","13","08:00","-4.0","","-4.9","","93","","","","","","0","","","","98.24","","","","","","NA"
"-80.42","43.65","ELORA RCS","6142286","2012-12-13 09:00","2012","12","13","09:00","-4.5","","-5.4","","93","","","","31","","4","","","","98.26","","","","-6","","NA"
"-80.42","43.65","ELORA RCS","6142286","2012-12-13 10:00","2012","12","13","10:00","-4.7","","-5.5","","94","","","","","","0","","","","98.23","","","","","","NA"
"-80.42","43.65","ELORA RCS","6142286","2012-12-13 11:00","2012","12","13","11:00","-3.8","","-4.7","","93","","","","18","","6","","","","98.23","","","","-6","","NA"
"-80.42","43.65","ELORA RCS","6142286","2012-12-13 12:00","2012","12","13","12:00","-4.0","","-5.2","","91","","","","20","","7","","","","98.23","","","","-7","","NA"
"-80.42","43.65","ELORA RCS","6142286","2012-12-13 13:00","2012","12","13","13:00","-3.2","","-4.6","","90","","","","20","","7","","","","98.20","","","","-6","","NA"
"-80.42","43.65","ELORA RCS","6142286","2012-12-13 14:00","2012","12","13","14:00","-2.1","","-3.7","","89","","","","26","","6","","","","98.22","","","","-4","","NA"
"-80.42","43.65","ELORA RCS","6142286","2012-12-13 15:00","2012","12","13","15:00","0.8","","-1.8","","83","","","","23","","9","","","","98.22","","","","","","NA"
"-80.42","43.65","ELORA RCS","6142286","2012-12-13 16:00","2012","12","13","16:00","2.2","","-1.4","","77","","","","23","","17","","","","98.17","","","","","","NA"
"-80.42","43.65","ELORA RCS","6142286","2012-12-13 17:00","2012","12","13","17:00","3.2","","-1.1","","73","","","","23","","19","","","","98.08","","","","","","NA"
"-80.42","43.65","ELORA RCS","6142286","2012-12-13 18:00","2012","12","13","18:00","3.9","","-0.8","","71","","","","22","","19","","","","98.02","","","","","","NA"
"-80.42","43.65","ELORA RCS","6142286","2012-12-13 19:00","2012","12","13","19:00","4.0","","-1.9","","65","","","","22","","20","","","","97.93","","","","","","NA"
"-80.42","43.65","ELORA RCS","6142286","2012-12-13 20:00","2012","12","13","20:00","4.0","","-1.9","","65","","","","21","","20","","","","97.88","","","","","","NA"
"-80.42","43.65","ELORA RCS","6142286","2012-12-13 21:00","2012","12","13","21:00","2.9","","-2.3","","69","","","","21","","20","","","","97.85","","","","","","NA"
"-80.42","43.65","ELORA RCS","6142286","2012-12-13 22:00","2012","12","13","22:00","1.2","","-1.9","","80","","","","19","","13","","","","97.82","","","","","","NA"
"-80.42","43.65","ELORA RCS","6142286","2012-12-13 23:00","2012","12","13","23:00","0.9","","-1.9","","82","","","","19","","11","","","","97.78","","","","","","NA"
"-80.42","43.65","ELORA RCS","6142286","2012-12-14 00:00","2012","12","14","00:00","0.8","","-1.9","","82","","","","19","","15","","","","97.74","","","","","","NA"
"-80.42","43.65","ELORA RCS","6142286","2012-12-14 01:00","2012","12","14","01:00","0.1","","-2.2","","84","","","","19","","13","","","","97.72","","","","","","NA"
"-80.42","43.65","ELORA RCS","6142286","2012-12-14 02:00","2012","12","14","02:00","0.5","","-2.6","","80","","","","21","","13","","","","97.64","","","","","","NA"
"-80.42","43.65","ELORA RCS","6142286","2012-12-14 03:00","2012","12","14","03:00","0.3","","-2.6","","81","","","","20","","13","","","","97.56","","","","","","NA"
"-80.42","43.65","ELORA RCS","6142286","2012-12-14 04:00","2012","12","14","04:00","0.6","","-2.1","","82","","","","21","","15","","","","97.54","","","","","","NA"
"-80.42","43.65","ELORA RCS","6142286","2012-12-14 05:00","2012","12","14","05:00","0.6","","-1.7","","85","","","","24","","17","","","","97.53","","","","","","NA"
"-80.42","43.65","ELORA RCS","6142286","2012-12-14 06:00","2012","12","14","06:00","0.6","","-1.8","","84","","","","24","","19","","","","97.47","","","","","","NA"
"-80.42","43.65","ELORA RCS","6142286","2012-12-14 07:00","2012","12","14","07:00","0.1","","-2.8","","81","","","","24","","17","","","","97.44","","","","","","NA"
"-80.42","43.65","ELORA RCS","6142286","2012-12-14 08:00","2012","12","14","08:00","0.0","","-3.1","","80","","","","25","","17","","","","97.45","","","","-5","","NA"
"-80.42","43.65","ELORA RCS","6142286","2012-12-14 09:00","2012","12","14","09:00","-0.2","","-3.2","","80","","","","25","","15","","","","97.43","","","","-5","","NA"
"-80.42","43.65","ELORA RCS","6142286","2012-12-14 10:00","2012","12","14","10:00","-0.6","","-3.1","","83","","","","26","","15","","","","97.44","","","","-5","","NA"
"-80.42","43.65","ELORA RCS","6142286","2012-12-14 11:00","2012","12","14","11:00","-0.8","","-2.8","","86","","","","25","","15","","","","97.45","","","","-5","","NA"
"-80.42","43.65","ELORA RCS","6142286","2012-12-14 12:00","2012","12","14","12:00","-1.4","","-3.1","","88","","","","28","","11","","","","97.51","","","","-5","","NA"
"-80.42","43.65","ELORA RCS","6142286","2012-12-14 13:00","2012","12","14","13:00","-1.6","","-3.0","","90","","","","27","","9","","","","97.55","","","","-5","","NA"
"-80.42","43.65","ELORA RCS","6142286","2012-12-14 14:00","2012","12","14","14:00","-0.7","","-2.1","","90","","","","28","","11","","","","97.59","","","","-4","","NA"
"-80.42","43.65","ELORA RCS","6142286","2012-12-14 15:00","2012","12","14","15:00","0.8","","-1.1","","87","","","","29","","13","","","","97.65","","","","","","NA"
"-80.42","43.65","ELORA RCS","6142286","2012-12-14 16:00","2012","12","14","16:00","2.5","","-0.4","","81","","","","29","","15","","","","97.70","","","","","","NA"
"-80.42","43.65","ELORA RCS","6142286","2012-12-14 17:00","2012","12","14","17:00","2.5","","-1.0","","78","","","","31","","20","","","","97.68","","","","","","NA"
"-80.42","43.65","ELORA RCS","6142286","2012-12-14 18:00","2012","12","14","18:00","2.5","","-0.7","","79","","","","31","","17","","","","97.72","","","","","","NA"
"-80.42","43.65","ELORA RCS","6142286","2012-12-14 19:00","2012","12","14","19:00","2.4","","-0.6","","81","","","","31","","15","","","","97.70","","","","","","NA"
"-80.42","43.65","ELORA RCS","6142286","2012-12-14 20:00","2012","12","14","20:00","2.3","","-0.7","","81","","","","31","","13","","","","97.71","","","","","","NA"
"-80.42","43.65","ELORA RCS","6142286","2012-12-14 21:00","2012","12","14","21:00","2.1","","-1.1","","79","","","","31","","13","","","","97.72","","","","","","NA"
"-80.42","43.65","ELORA RCS","6142286","2012-12-14 22:00","2012","12","14","22:00","1.4","","-1.2","","83","","","","30","","7","","","","97.75","","","","","","NA"
"-80.42","43.65","ELORA RCS","6142286","2012-12-14 23:00","2012","12","14","23:00","1.5","","-1.2","","82","","","","32","","6","","","","97.80","","","","","","NA"
"-80.42","43.65","ELORA RCS","6142286","2012-12-15 00:00","2012","12","15","00:00","1.1","","-1.2","","85","","","","34","","4","","","","97.80","","","","","","NA"
"-80.42","43.65","ELORA RCS","6142286","2012-12-15 01:00","2012","12","15","01:00","-0.2","","-1.6","","90","","","","2","","4","","","","97.82","","","","-1","","NA"
"-80.42","43.65","ELORA RCS","6142286","2012-12-15 02:00","2012","12","15","02:00","-0.6","","-2.0","","90","","","","3","","7","","","","97.87","","","","-3","","NA"
"-80.42","43.65","ELORA RCS","6142286","2012-12-15 03:00","2012","12","15","03:00","-1.5","","-2.5","","93","","","","2","","4","","","","97.86","","","","-3","","NA"
"-80.42","43.65","ELORA RCS","6142286","2012-12-15 04:00","2012","12","15","04:00","-1.4","","-2.4","","93","","","","6","","6","","","","97.84","","","","-4","","NA"
"-80.42","43.65","ELORA RCS","6142286","2012-12-15 05:00","2012","12","15","05:00","-2.3","","-3.0","","95","","","","","","0","","","","97.86","","","","","","NA"
"-80.42","43.65","ELORA RCS","6142286","2012-12-15 06:00","2012","12","15","06:00","-2.8","","-3.5","","95","","","","7","","7","","","","97.78","","","","-6","","NA"
"-80.42","43.65","ELORA RCS","6142286","2012-12-15 07:00","2012","12","15","07:00","-3.0","","-3.7","","95","","","","6","","7","","","","97.79","","","","-6","","NA"
"-80.42","43.65","ELORA RCS","6142286","2012-12-15 08:00","2012","12","15","08:00","-2.9","","-3.8","","93","","","","7","","9","","","","97.80","","","","-6","","NA"
"-80.42","43.65","ELORA RCS","6142286","2012-12-15 09:00","2012","12","15","09:00","-3.0","","-4.0","","93","","","","10","","7","","","","97.81","","","","-6","","NA"
"-80.42","43.65","ELORA RCS","6142286","2012-12-15 10:00","2012","12","15","10:00","-3.0","","-3.9","","93","","","","8","","11","","","","97.79","","","","-7","","NA"
"-80.42","43.65","ELORA RCS","6142286","2012-12-15 11:00","2012","12","15","11:00","-2.9","","-3.8","","93","","","","9","","11","","","","97.79","","","","-7","","NA"
"-80.42","43.65","ELORA RCS","6142286","2012-12-15 12:00","2012","12","15","12:00","-2.6","","-3.5","","94","","","","9","","15","","","","97.74","","","","-8","","NA"
"-80.42","43.65","ELORA RCS","6142286","2012-12-15 13:00","2012","12","15","13:00","-2.3","","-3.3","","93","","","","10","","11","","","","97.79","","","","-6","","NA"
"-80.42","43.65","ELORA RCS","6142286","2012-12-15 14:00","2012","12","15","14:00","-0.8","","-1.8","","93","","","","11","","13","","","","97.81","","","","-5","","NA"
"-80.42","43.65","ELORA RCS","6142286","2012-12-15 15:00","2012","12","15","15:00","0.4","","-0.7","","92","","","","11","","19","","","","97.73","","","","","","NA"
"-80.42","43.65","ELORA RCS","6142286","2012-12-15 16:00","2012","12","15","16:00","0.8","","0.0","","94","","","","11","","19","","","","97.69","","","","","","NA"
"-80.42","43.65","ELORA RCS","6142286","2012-12-15 17:00","2012","12","15","17:00","1.5","","-0.1","","89","","","","12","","20","","","","97.59","","","","","","NA"
"-80.42","43.65","ELORA RCS","6142286","2012-12-15 18:00","2012","12","15","18:00","0.6","","-0.2","","94","","","","11","","26","","","","97.44","","","","","","NA"
"-80.42","43.65","ELORA RCS","6142286","2012-12-15 19:00","2012","12","15","19:00","0.1","","-0.5","","96","","","","11","","22","","","","97.39","","","","","","NA"
"-80.42","43.65","ELORA RCS","6142286","2012-12-15 20:00","2012","12","15","20:00","0.0","","-0.4","","97","","","","11","","24","","","","97.31","","","","-6","","NA"
"-80.42","43.65","ELORA RCS","6142286","2012-12-15 21:00","2012","12","15","21:00","-0.1","","-0.5","","97","","","","10","","26","","","","97.24","","","","-6","","NA"
"-80.42","43.65","ELORA RCS","6142286","2012-12-15 22:00","2012","12","15","22:00","-0.1","","-0.4","","98","","","","11","","22","","","","97.33","","","","-6","","NA"
"-80.42","43.65","ELORA RCS","6142286","2012-12-15 23:00","2012","12","15","23:00","0.0","","-0.3","","98","","","","9","","28","","","","97.15","","","","-6","","NA"
"-80.42","43.65","ELORA RCS","6142286","2012-12-16 00:00","2012","12","16","00:00","0.3","","0.0","","98","","","","10","","30","","","","97.02","","","","","","NA"
"-80.42","43.65","ELORA RCS","6142286","2012-12-16 01:00","2012","12","16","01:00","0.5","","0.2","","98","","","","11","","26","","","","97.03","","","","","","NA"
"-80.42","43.65","ELORA RCS","6142286","2012-12-16 02:00","2012","12","16","02:00","0.6","","0.3","","98","","","","10","","33","","","","96.86","","","","","","NA"
"-80.42","43.65","ELORA RCS","6142286","2012-12-16 03:00","2012","12","16","03:00","0.4","","0.1","","98","","","","11","","26","","","","96.78","","","","","","NA"
"-80.42","43.65","ELORA RCS","6142286","2012-12-16 04:00","2012","12","16","04:00","0.7","","0.4","","98","","","","11","","24","","","","96.73","","","","","","NA"
"-80.42","43.65","ELORA RCS","6142286","2012-12-16 05:00","2012","12","16","05:00","1.1","","0.8","","98","","","","10","","30","","","","96.62","","","","","","NA"
"-80.42","43.65","ELORA RCS","6142286","2012-12-16 06:00","2012","12","16","06:00","1.3","","1.0","","98","","","","10","","26","","","","96.47","","","","","","NA"
"-80.42","43.65","ELORA RCS","6142286","2012-12-16 07:00","2012","12","16","07:00","1.3","","1.0","","98","","","","11","","24","","","","96.41","","","","","","NA"
"-80.42","43.65","ELORA RCS","6142286","2012-12-16 08:00","2012","12","16","08:00","1.6","","1.2","","97","","","","11","","28","","","","96.36","","","","","","NA"
"-80.42","43.65","ELORA RCS","6142286","2012-12-16 09:00","2012","12","16","09:00","2.0","","1.5","","96","","","","12","","20","","","","96.30","","","","","","NA"
"-80.42","43.65","ELORA RCS","6142286","2012-12-16 10:00","2012","12","16","10:00","2.2","","1.6","","96","","","","12","","17","","","","96.25","","","","","","NA"
"-80.42","43.65","ELORA RCS","6142286","2012-12-16 11:00","2012","12","16","11:00","2.7","","2.1","","96","","","","12","","17","","","","96.21","","","","","","NA"
"-80.42","43.65","ELORA RCS","6142286","2012-12-16 12:00","2012","12","16","12:00","2.9","","2.1","","94","","","","12","","15","","","","96.18","","","","","","NA"
"-80.42","43.65","ELORA RCS","6142286","2012-12-16 13:00","2012","12","16","13:00","3.0","","2.4","","96","","","","13","","13","","","","96.15","","","","","","NA"
"-80.42","43.65","ELORA RCS","6142286","2012-12-16 14:00","2012","12","16","14:00","3.8","","3.2","","96","","","","15","","17","","","","96.12","","","","","","NA"
"-80.42","43.65","ELORA RCS","6142286","2012-12-16 15:00","2012","12","16","15:00","4.3","","3.6","","95","","","","16","","17","","","","96.10","","","","","","NA"
"-80.42","43.65","ELORA RCS","6142286","2012-12-16 16:00","2012","12","16","16:00","5.1","","4.3","","95","","","","17","","17","","","","96.08","","","","","","NA"
"-80.42","43.65","ELORA RCS","6142286","2012-12-16 17:00","2012","12","16","17:00","5.5","","4.8","","95","","","","16","","11","","","","96.00","","","","","","NA"
"-80.42","43.65","ELORA RCS","6142286","2012-12-16 18:00","2012","12","16","18:00","5.8","","5.2","","96","","","","16","","11","","","","95.95","","","","","","NA"
"-80.42","43.65","ELORA RCS","6142286","2012-12-16 19:00","2012","12","16","19:00","6.0","","5.4","","96","","","","14","","7","","","","95.91","","","","","","NA"
"-80.42","43.65","ELORA RCS","6142286","2012-12-16 20:00","2012","12","16","20:00","6.0","","5.4","","96","","","","15","","11","","","","95.88","","","","","","NA"
"-80.42","43.65","ELORA RCS","6142286","2012-12-16 21:00","2012","12","16","21:00","6.7","","6.2","","97","","","","14","","11","","","","95.88","","","","","","NA"
"-80.42","43.65","ELORA RCS","6142286","2012-12-16 22:00","2012","12","16","22:00","6.3","","5.8","","97","","","","13","","11","","","","95.81","","","","","","NA"
"-80.42","43.65","ELORA RCS","6142286","2012-12-16 23:00","2012","12","16","23:00","7.8","","7.2","","96","","","","19","","17","","","","95.91","","","","","","NA"
"-80.42","43.65","ELORA RCS","6142286","2012-12-17 00:00","2012","12","17","00:00","7.3","","6.7","","96","","","","21","","11","","","","95.91","","","","","","NA"
"-80.42","43.65","ELORA RCS","6142286","2012-12-17 01:00","2012","12","17","01:00","6.7","","6.1","","96","","","","18","","9","","","","95.87","","","","","","NA"
"-80.42","43.65","ELORA RCS","6142286","2012-12-17 02:00","2012","12","17","02:00","6.8","","6.2","","96","","","","19","","11","","","","95.92","","","","","","NA"
"-80.42","43.65","ELORA RCS","6142286","2012-12-17 03:00","2012","12","17","03:00","6.7","","6.1","","96","","","","18","","9","","","","95.91","","","","","","NA"
"-80.42","43.65","ELORA RCS","6142286","2012-12-17 04:00","2012","12","17","04:00","6.7","","6.1","","96","","","","15","","9","","","","95.89","","","","","","NA"
"-80.42","43.65","ELORA RCS","6142286","2012-12-17 05:00","2012","12","17","05:00","5.3","","4.8","","97","","","","16","","9","","","","95.90","","","","","","NA"
"-80.42","43.65","ELORA RCS","6142286","2012-12-17 06:00","2012","12","17","06:00","5.6","","5.1","","97","","","","20","","11","","","","95.91","","","","","","NA"
"-80.42","43.65","ELORA RCS","6142286","2012-12-17 07:00","2012","12","17","07:00","5.8","","5.3","","97","","","","20","","9","","","","95.88","","","","","","NA"
"-80.42","43.65","ELORA RCS","6142286","2012-12-17 08:00","2012","12","17","08:00","5.8","","5.3","","97","","","","19","","11","","","","95.89","","","","","","NA"
"-80.42","43.65","ELORA RCS","6142286","2012-12-17 09:00","2012","12","17","09:00","5.4","","4.9","","97","","","","27","","11","","","","95.91","","","","","","NA"
"-80.42","43.65","ELORA RCS","6142286","2012-12-17 10:00","2012","12","17","10:00","4.7","","4.2","","97","","","","26","","13","","","","95.94","","","","","","NA"
"-80.42","43.65","ELORA RCS","6142286","2012-12-17 11:00","2012","12","17","11:00","4.4","","3.9","","97","","","","26","","13","","","","95.95","","","","","","NA"
"-80.42","43.65","ELORA RCS","6142286","2012-12-17 12:00","2012","12","17","12:00","4.0","","3.5","","97","","","","25","","11","","","","96.01","","","","","","NA"
"-80.42","43.65","ELORA RCS","6142286","2012-12-17 13:00","2012","12","17","13:00","4.0","","3.5","","97","","","","25","","11","","","","96.03","","","","","","NA"
"-80.42","43.65","ELORA RCS","6142286","2012-12-17 14:00","2012","12","17","14:00","4.2","","3.7","","97","","","","27","","13","","","","96.09","","","","","","NA"
"-80.42","43.65","ELORA RCS","6142286","2012-12-17 15:00","2012","12","17","15:00","4.3","","3.8","","97","","","","27","","11","","","","96.13","","","","","","NA"
"-80.42","43.65","ELORA RCS","6142286","2012-12-17 16:00","2012","12","17","16:00","4.5","","3.9","","96","","","","26","","11","","","","96.13","","","","","","NA"
"-80.42","43.65","ELORA RCS","6142286","2012-12-17 17:00","2012","12","17","17:00","4.5","","3.3","","92","","","","26","","9","","","","96.07","","","","","","NA"
"-80.42","43.65","ELORA RCS","6142286","2012-12-17 18:00","2012","12","17","18:00","4.4","","2.9","","90","","","","28","","7","","","","95.99","","","","","","NA"
"-80.42","43.65","ELORA RCS","6142286","2012-12-17 19:00","2012","12","17","19:00","4.4","","2.9","","90","","","","28","","6","","","","95.96","","","","","","NA"
"-80.42","43.65","ELORA RCS","6142286","2012-12-17 20:00","2012","12","17","20:00","4.2","","2.6","","89","","","","26","","4","","","","95.94","","","","","","NA"
"-80.42","43.65","ELORA RCS","6142286","2012-12-17 21:00","2012","12","17","21:00","3.8","","3.0","","95","","","","","","0","","","","95.98","","","","","","NA"
"-80.42","43.65","ELORA RCS","6142286","2012-12-17 22:00","2012","12","17","22:00","3.6","","2.9","","95","","","","","","0","","","","95.98","","","","","","NA"
"-80.42","43.65","ELORA RCS","6142286","2012-12-17 23:00","2012","12","17","23:00","3.3","","2.7","","96","","","","6","","6","","","","95.94","","","","","","NA"
"-80.42","43.65","ELORA RCS","6142286","2012-12-18 00:00","2012","12","18","00:00","3.2","","2.4","","94","","","","4","","7","","","","95.93","","","","","","NA"
"-80.42","43.65","ELORA RCS","6142286","2012-12-18 01:00","2012","12","18","01:00","3.1","","2.1","","93","","","","8","","9","","","","95.96","","","","","","NA"
"-80.42","43.65","ELORA RCS","6142286","2012-12-18 02:00","2012","12","18","02:00","3.1","","1.9","","92","","","","3","","9","","","","95.83","","","","","","NA"
"-80.42","43.65","ELORA RCS","6142286","2012-12-18 03:00","2012","12","18","03:00","2.9","","1.9","","93","","","","4","","9","","","","95.77","","","","","","NA"
"-80.42","43.65","ELORA RCS","6142286","2012-12-18 04:00","2012","12","18","04:00","2.8","","1.7","","92","","","","3","","11","","","","95.74","","","","","","NA"
"-80.42","43.65","ELORA RCS","6142286","2012-12-18 05:00","2012","12","18","05:00","2.7","","1.4","","91","","","","3","","11","","","","95.70","","","","","","NA"
"-80.42","43.65","ELORA RCS","6142286","2012-12-18 06:00","2012","12","18","06:00","2.6","","1.4","","92","","","","4","","11","","","","95.66","","","","","","NA"
"-80.42","43.65","ELORA RCS","6142286","2012-12-18 07:00","2012","12","18","07:00","2.6","","1.4","","92","","","","1","","11","","","","95.64","","","","","","NA"
"-80.42","43.65","ELORA RCS","6142286","2012-12-18 08:00","2012","12","18","08:00","2.4","","1.4","","93","","","","36","","11","","","","95.64","","","","","","NA"
"-80.42","43.65","ELORA RCS","6142286","2012-12-18 09:00","2012","12","18","09:00","2.3","","1.4","","94","","","","1","","11","","","","95.59","","","","","","NA"
"-80.42","43.65","ELORA RCS","6142286","2012-12-18 10:00","2012","12","18","10:00","2.6","","1.5","","92","","","","36","","11","","","","95.57","","","","","","NA"
"-80.42","43.65","ELORA RCS","6142286","2012-12-18 11:00","2012","12","18","11:00","2.6","","1.3","","91","","","","33","","15","","","","95.60","","","","","","NA"
"-80.42","43.65","ELORA RCS","6142286","2012-12-18 12:00","2012","12","18","12:00","2.4","","1.3","","92","","","","32","","15","","","","95.64","","","","","","NA"
"-80.42","43.65","ELORA RCS","6142286","2012-12-18 13:00","2012","12","18","13:00","2.4","","1.1","","91","","","","32","","15","","","","95.68","","","","","","NA"
"-80.42","43.65","ELORA RCS","6142286","2012-12-18 14:00","2012","12","18","14:00","2.5","","1.2","","91","","","","32","","15","","","","95.74","","","","","","NA"
"-80.42","43.65","ELORA RCS","6142286","2012-12-18 15:00","2012","12","18","15:00","3.0","","1.1","","87","","","","32","","17","","","","95.79","","","","","","NA"
"-80.42","43.65","ELORA RCS","6142286","2012-12-18 16:00","2012","12","18","16:00","3.5","","0.9","","83","","","","32","","22","","","","95.83","","","","","","NA"
"-80.42","43.65","ELORA RCS","6142286","2012-12-18 17:00","2012","12","18","17:00","3.9","","1.1","","82","","","","33","","20","","","","95.81","","","","","","NA"
"-80.42","43.65","ELORA RCS","6142286","2012-12-18 18:00","2012","12","18","18:00","3.4","","1.3","","86","","","","32","","19","","","","95.84","","","","","","NA"
"-80.42","43.65","ELORA RCS","6142286","2012-12-18 19:00","2012","12","18","19:00","4.0","","0.4","","77","","","","33","","19","","","","95.85","","","","","","NA"
"-80.42","43.65","ELORA RCS","6142286","2012-12-18 20:00","2012","12","18","20:00","3.5","","0.0","","78","","","","31","","19","","","","95.88","","","","","","NA"
"-80.42","43.65","ELORA RCS","6142286","2012-12-18 21:00","2012","12","18","21:00","3.3","","0.1","","80","","","","30","","15","","","","95.95","","","","","","NA"
"-80.42","43.65","ELORA RCS","6142286","2012-12-18 22:00","2012","12","18","22:00","2.8","","-0.3","","80","","","","31","","17","","","","95.99","","","","","","NA"
"-80.42","43.65","ELORA RCS","6142286","2012-12-18 23:00","2012","12","18","23:00","2.3","","-0.3","","83","","","","29","","13","","","","96.03","","","","","","NA"
"-80.42","43.65","ELORA RCS","6142286","2012-12-19 00:00","2012","12","19","00:00","1.3","","-0.6","","87","","","","28","","15","","","","96.11","","","","","","NA"
"-80.42","43.65","ELORA RCS","6142286","2012-12-19 01:00","2012","12","19","01:00","0.3","","-1.0","","91","","","","28","","13","","","","96.17","","","","","","NA"
"-80.42","43.65","ELORA RCS","6142286","2012-12-19 02:00","2012","12","19","02:00","-0.1","","-1.1","","93","","","","28","","13","","","","96.17","","","","-4","","NA"
"-80.42","43.65","ELORA RCS","6142286","2012-12-19 03:00","2012","12","19","03:00","-0.6","","-1.4","","94","","","","28","","9","","","","96.20","","","","-4","","NA"
"-80.42","43.65","ELORA RCS","6142286","2012-12-19 04:00","2012","12","19","04:00","-0.3","","-1.0","","95","","","","29","","9","","","","96.22","","","","-3","","NA"
"-80.42","43.65","ELORA RCS","6142286","2012-12-19 05:00","2012","12","19","05:00","-0.6","","-1.2","","96","","","","26","","6","","","","96.23","","","","-3","","NA"
"-80.42","43.65","ELORA RCS","6142286","2012-12-19 06:00","2012","12","19","06:00","-1.3","","-1.8","","96","","","","28","","6","","","","96.21","","","","-4","","NA"
"-80.42","43.65","ELORA RCS","6142286","2012-12-19 07:00","2012","12","19","07:00","-1.0","","-1.4","","97","","","","25","","4","","","","96.28","","","","-2","","NA"
"-80.42","43.65","ELORA RCS","6142286","2012-12-19 08:00","2012","12","19","08:00","-0.8","","-1.3","","96","","","","28","","6","","","","96.36","","","","-3","","NA"
"-80.42","43.65","ELORA RCS","6142286","2012-12-19 09:00","2012","12","19","09:00","-0.5","","-1.0","","96","","","","28","","6","","","","96.38","","","","-3","","NA"
"-80.42","43.65","ELORA RCS","6142286","2012-12-19 10:00","2012","12","19","10:00","-0.4","","-1.1","","95","","","","1","","4","","","","96.37","","","","-2","","NA"
"-80.42","43.65","ELORA RCS","6142286","2012-12-19 11:00","2012","12","19","11:00","-0.5","","-1.1","","96","","","","25","","6","","","","96.48","","","","-3","","NA"
"-80.42","43.65","ELORA RCS","6142286","2012-12-19 12:00","2012","12","19","12:00","-0.2","","-0.9","","95","","","","25","","9","","","","96.63","","","","-3","","NA"
"-80.42","43.65","ELORA RCS","6142286","2012-12-19 13:00","2012","12","19","13:00","0.0","","-0.8","","94","","","","30","","4","","","","96.65","","","","-1","","NA"
"-80.42","43.65","ELORA RCS","6142286","2012-12-19 14:00","2012","12","19","14:00","0.2","","-0.6","","94","","","","27","","4","","","","96.74","","","","","","NA"
"-80.42","43.65","ELORA RCS","6142286","2012-12-19 15:00","2012","12","19","15:00","0.6","","-0.4","","93","","","","","","0","","","","96.81","","","","","","NA"
"-80.42","43.65","ELORA RCS","6142286","2012-12-19 16:00","2012","12","19","16:00","1.6","","-0.3","","87","","","","30","","9","","","","96.92","","","","","","NA"
"-80.42","43.65","ELORA RCS","6142286","2012-12-19 17:00","2012","12","19","17:00","2.2","","-1.8","","75","","","","29","","7","","","","97.03","","","","","","NA"
"-80.42","43.65","ELORA RCS","6142286","2012-12-19 18:00","2012","12","19","18:00","2.7","","-1.4","","74","","","","31","","9","","","","97.05","","","","","","NA"
"-80.42","43.65","ELORA RCS","6142286","2012-12-19 19:00","2012","12","19","19:00","2.6","","-2.3","","70","","","","30","","9","","","","97.11","","","","","","NA"
"-80.42","43.65","ELORA RCS","6142286","2012-12-19 20:00","2012","12","19","20:00"
"-80.42","43.65","ELORA RCS","6142286","2012-12-19 21:00","2012","12","19","21:00","2.2","","-1.7","","75","","","","32","","6","","","","97.25","","","","","","NA"
"-80.42","43.65","ELORA RCS","6142286","2012-12-19 22:00","2012","12","19","22:00","1.4","","-1.4","","82","","","","31","","6","","","","97.31","","","","","","NA"
"-80.42","43.65","ELORA RCS","6142286","2012-12-19 23:00","2012","12","19","23:00","0.3","","-2.1","","84","","","","","","0","","","","97.36","","","","","","NA"
"-80.42","43.65","ELORA RCS","6142286","2012-12-20 00:00","2012","12","20","00:00","-0.6","","-2.0","","90","","","","21","","6","","","","97.43","","","","-3","","NA"
"-80.42","43.65","ELORA RCS","6142286","2012-12-20 01:00","2012","12","20","01:00","-1.2","","-2.2","","93","","","","","","0","","","","97.50","","","","","","NA"
"-80.42","43.65","ELORA RCS","6142286","2012-12-20 02:00","2012","12","20","02:00","-1.5","","-2.4","","94","","","","","","0","","","","97.56","","","","","","NA"
"-80.42","43.65","ELORA RCS","6142286","2012-12-20 03:00","2012","12","20","03:00","-2.2","","-2.8","","96","","","","","","0","","","","97.56","","","","","","NA"
"-80.42","43.65","ELORA RCS","6142286","2012-12-20 04:00","2012","12","20","04:00","-2.2","","-2.8","","96","","","","6","","6","","","","97.55","","","","-5","","NA"
"-80.42","43.65","ELORA RCS","6142286","2012-12-20 05:00","2012","12","20","05:00","-2.7","","-3.1","","97","","","","7","","6","","","","97.54","","","","-5","","NA"
"-80.42","43.65","ELORA RCS","6142286","2012-12-20 06:00","2012","12","20","06:00","-2.7","","-3.3","","96","","","","12","","6","","","","97.51","","","","-5","","NA"
"-80.42","43.65","ELORA RCS","6142286","2012-12-20 07:00","2012","12","20","07:00","-3.0","","-3.7","","95","","","","10","","9","","","","97.46","","","","-7","","NA"
"-80.42","43.65","ELORA RCS","6142286","2012-12-20 08:00","2012","12","20","08:00","-2.4","","-3.6","","91","","","","10","","9","","","","97.47","","","","-6","","NA"
"-80.42","43.65","ELORA RCS","6142286","2012-12-20 09:00","2012","12","20","09:00","-1.7","","-2.9","","91","","","","10","","11","","","","97.39","","","","-6","","NA"
"-80.42","43.65","ELORA RCS","6142286","2012-12-20 10:00","2012","12","20","10:00","-0.6","","-1.9","","91","","","","9","","17","","","","97.31","","","","-6","","NA"
"-80.42","43.65","ELORA RCS","6142286","2012-12-20 11:00","2012","12","20","11:00","-0.7","","-1.9","","92","","","","10","","15","","","","97.27","","","","-5","","NA"
"-80.42","43.65","ELORA RCS","6142286","2012-12-20 12:00","2012","12","20","12:00","-0.2","","-1.3","","92","","","","10","","24","","","","97.20","","","","-6","","NA"
"-80.42","43.65","ELORA RCS","6142286","2012-12-20 13:00","2012","12","20","13:00","0.1","","-0.9","","93","","","","9","","28","","","","97.08","","","","","","NA"
"-80.42","43.65","ELORA RCS","6142286","2012-12-20 14:00","2012","12","20","14:00","0.2","","-1.7","","87","","","","11","","20","","","","97.11","","","","","","NA"
"-80.42","43.65","ELORA RCS","6142286","2012-12-20 15:00","2012","12","20","15:00","0.3","","-2.5","","81","","","","10","","32","","","","96.92","","","","","","NA"
"-80.42","43.65","ELORA RCS","6142286","2012-12-20 16:00","2012","12","20","16:00","0.4","","-3.4","","76","","","","10","","33","","","","96.69","","","","","","NA"
"-80.42","43.65","ELORA RCS","6142286","2012-12-20 17:00","2012","12","20","17:00","0.4","","-3.6","","74","","","","10","","39","","","","96.44","","","","","","NA"
"-80.42","43.65","ELORA RCS","6142286","2012-12-20 18:00","2012","12","20","18:00","0.4","","-3.5","","75","","","","10","","48","","","","96.21","","","","","","NA"
"-80.42","43.65","ELORA RCS","6142286","2012-12-20 19:00","2012","12","20","19:00","0.6","","-3.0","","77","","","","11","","35","","","","96.11","","","","","","NA"
"-80.42","43.65","ELORA RCS","6142286","2012-12-20 20:00","2012","12","20","20:00","0.4","","-3.0","","78","","","","11","","35","","","","96.04","","","","","","NA"
"-80.42","43.65","ELORA RCS","6142286","2012-12-20 21:00","2012","12","20","21:00","0.4","","-2.5","","81","","","","11","","41","","","","95.81","","","","","","NA"
"-80.42","43.65","ELORA RCS","6142286","2012-12-20 22:00","2012","12","20","22:00","0.0","","-1.8","","88","","","","10","","37","","","","95.66","","","","-7","","NA"
"-80.42","43.65","ELORA RCS","6142286","2012-12-20 23:00","2012","12","20","23:00","-0.1","","-1.5","","90","","","","10","","37","","","","95.38","","","","-7","","NA"
"-80.42","43.65","ELORA RCS","6142286","2012-12-21 00:00","2012","12","21","00:00","0.1","","-0.9","","93","","","","11","","32","","","","95.28","","","","","","NA"
"-80.42","43.65","ELORA RCS","6142286","2012-12-21 01:00","2012","12","21","01:00","0.6","","-0.1","","95","","","","11","","28","","","","95.16","","","","","","NA"
"-80.42","43.65","ELORA RCS","6142286","2012-12-21 02:00","2012","12","21","02:00","0.6","","0.0","","96","","","","10","","30","","","","95.02","","","","","","NA"
"-80.42","43.65","ELORA RCS","6142286","2012-12-21 03:00","2012","12","21","03:00","1.3","","0.7","","96","","","","11","","24","","","","94.88","","","","","","NA"
"-80.42","43.65","ELORA RCS","6142286","2012-12-21 04:00","2012","12","21","04:00","2.1","","1.5","","96","","","","11","","17","","","","94.78","","","","","","NA"
"-80.42","43.65","ELORA RCS","6142286","2012-12-21 05:00","2012","12","21","05:00","2.9","","2.3","","96","","","","16","","15","","","","94.75","","","","","","NA"
"-80.42","43.65","ELORA RCS","6142286","2012-12-21 06:00","2012","12","21","06:00","3.1","","2.5","","96","","","","17","","11","","","","94.73","","","","","","NA"
"-80.42","43.65","ELORA RCS","6142286","2012-12-21 07:00","2012","12","21","07:00","2.7","","2.1","","96","","","","19","","11","","","","94.74","","","","","","NA"
"-80.42","43.65","ELORA RCS","6142286","2012-12-21 08:00","2012","12","21","08:00","0.8","","-0.1","","94","","","","21","","19","","","","94.81","","","","","","NA"
"-80.42","43.65","ELORA RCS","6142286","2012-12-21 09:00","2012","12","21","09:00","0.3","","-0.2","","96","","","","19","","9","","","","94.76","","","","","","NA"
"-80.42","43.65","ELORA RCS","6142286","2012-12-21 10:00","2012","12","21","10:00","0.3","","-0.4","","95","","","","21","","19","","","","94.68","","","","","","NA"
"-80.42","43.65","ELORA RCS","6142286","2012-12-21 11:00","2012","12","21","11:00","-0.2","","-1.2","","93","","","","19","","11","","","","94.64","","","","-4","","NA"
"-80.42","43.65","ELORA RCS","6142286","2012-12-21 12:00","2012","12","21","12:00","-0.4","","-1.7","","91","","","","18","","11","","","","94.64","","","","-4","","NA"
"-80.42","43.65","ELORA RCS","6142286","2012-12-21 13:00","2012","12","21","13:00","-0.6","","-1.3","","95","","","","13","","6","","","","94.63","","","","-3","","NA"
"-80.42","43.65","ELORA RCS","6142286","2012-12-21 14:00","2012","12","21","14:00","-0.3","","-1.1","","94","","","","12","","6","","","","94.61","","","","-2","","NA"
"-80.42","43.65","ELORA RCS","6142286","2012-12-21 15:00","2012","12","21","15:00","-0.3","","-1.0","","95","","","","7","","7","","","","94.61","","","","-3","","NA"
"-80.42","43.65","ELORA RCS","6142286","2012-12-21 16:00","2012","12","21","16:00","0.1","","-1.0","","92","","","","5","","7","","","","94.61","","","","","","NA"
"-80.42","43.65","ELORA RCS","6142286","2012-12-21 17:00","2012","12","21","17:00","0.5","","-0.9","","90","","","","4","","9","","","","94.61","","","","","","NA"
"-80.42","43.65","ELORA RCS","6142286","2012-12-21 18:00","2012","12","21","18:00","1.3","","-0.8","","86","","","","33","","15","","","","94.60","","","","","","NA"
"-80.42","43.65","ELORA RCS","6142286","2012-12-21 19:00","2012","12","21","19:00","0.9","","-1.0","","87","","","","33","","15","","","","94.61","","","","","","NA"
"-80.42","43.65","ELORA RCS","6142286","2012-12-21 20:00","2012","12","21","20:00","0.1","","-0.9","","93","","","","30","","15","","","","94.62","","","","","","NA"
"-80.42","43.65","ELORA RCS","6142286","2012-12-21 21:00","2012","12","21","21:00","-0.1","","-1.0","","94","","","","31","","24","","","","94.68","","","","-6","","NA"
"-80.42","43.65","ELORA RCS","6142286","2012-12-21 22:00","2012","12","21","22:00","-0.6","","-2.3","","88","","","","32","","35","","","","94.77","","","","-8","","NA"
"-80.42","43.65","ELORA RCS","6142286","2012-12-21 23:00","2012","12","21","23:00","-1.4","","-3.1","","88","","","","33","","33","","","","94.90","","","","-9","","NA"
"-80.42","43.65","ELORA RCS","6142286","2012-12-22 00:00","2012","12","22","00:00","-2.4","","-4.4","","86","","","","32","","39","","","","95.02","","","","-11","","NA"
"-80.42","43.65","ELORA RCS","6142286","2012-12-22 01:00","2012","12","22","01:00","-2.8","","-4.8","","86","","","","32","","41","","","","95.12","","","","-11","","NA"
"-80.42","43.65","ELORA RCS","6142286","2012-12-22 02:00","2012","12","22","02:00","-3.0","","-4.8","","87","","","","32","","35","","","","95.23","","","","-11","","NA"
"-80.42","43.65","ELORA RCS","6142286","2012-12-22 03:00","2012","12","22","03:00","-3.3","","-5.2","","87","","","","32","","37","","","","95.31","","","","-12","","NA"
"-80.42","43.65","ELORA RCS","6142286","2012-12-22 04:00","2012","12","22","04:00","-3.3","","-5.3","","86","","","","32","","39","","","","95.39","","","","-12","","NA"
"-80.42","43.65","ELORA RCS","6142286","2012-12-22 05:00","2012","12","22","05:00","-3.4","","-5.4","","86","","","","32","","35","","","","95.47","","","","-11","","NA"
"-80.42","43.65","ELORA RCS","6142286","2012-12-22 06:00","2012","12","22","06:00","-3.2","","-6.2","","80","","","","32","","41","","","","95.57","","","","-12","","NA"
"-80.42","43.65","ELORA RCS","6142286","2012-12-22 07:00","2012","12","22","07:00","-3.3","","-6.0","","82","","","","32","","44","","","","95.70","","","","-12","","NA"
"-80.42","43.65","ELORA RCS","6142286","2012-12-22 08:00","2012","12","22","08:00","-3.6","","-5.5","","87","","","","32","","33","","","","95.84","","","","-12","","NA"
"-80.42","43.65","ELORA RCS","6142286","2012-12-22 09:00","2012","12","22","09:00","-3.4","","-6.2","","81","","","","32","","41","","","","95.93","","","","-12","","NA"
"-80.42","43.65","ELORA RCS","6142286","2012-12-22 10:00","2012","12","22","10:00","-3.3","","-6.3","","80","","","","31","","46","","","","95.98","","","","-12","","NA"
"-80.42","43.65","ELORA RCS","6142286","2012-12-22 11:00","2012","12","22","11:00","-3.3","","-6.2","","80","","","","32","","39","","","","96.08","","","","-12","","NA"
"-80.42","43.65","ELORA RCS","6142286","2012-12-22 12:00","2012","12","22","12:00","-3.3","","-6.5","","78","","","","31","","48","","","","96.19","","","","-12","","NA"
"-80.42","43.65","ELORA RCS","6142286","2012-12-22 13:00","2012","12","22","13:00","-3.2","","-6.6","","77","","","","31","","43","","","","96.30","","","","-12","","NA"
"-80.42","43.65","ELORA RCS","6142286","2012-12-22 14:00","2012","12","22","14:00","-3.0","","-6.3","","78","","","","32","","43","","","","96.38","","","","-12","","NA"
"-80.42","43.65","ELORA RCS","6142286","2012-12-22 15:00","2012","12","22","15:00","-2.7","","-6.7","","74","","","","31","","43","","","","96.44","","","","-11","","NA"
"-80.42","43.65","ELORA RCS","6142286","2012-12-22 16:00","2012","12","22","16:00","-2.3","","-6.1","","75","","","","31","","41","","","","96.49","","","","-11","","NA"
"-80.42","43.65","ELORA RCS","6142286","2012-12-22 17:00","2012","12","22","17:00","-2.1","","-6.6","","71","","","","31","","44","","","","96.49","","","","-11","","NA"
"-80.42","43.65","ELORA RCS","6142286","2012-12-22 18:00","2012","12","22","18:00","-1.9","","-6.2","","72","","","","31","","41","","","","96.51","","","","-10","","NA"
"-80.42","43.65","ELORA RCS","6142286","2012-12-22 19:00","2012","12","22","19:00","-1.6","","-6.2","","71","","","","31","","41","","","","96.53","","","","-10","","NA"
"-80.42","43.65","ELORA RCS","6142286","2012-12-22 20:00","2012","12","22","20:00","-1.7","","-5.2","","77","","","","30","","33","","","","96.59","","","","-9","","NA"
"-80.42","43.65","ELORA RCS","6142286","2012-12-22 21:00","2012","12","22","21:00","-1.9","","-4.7","","81","","","","29","","33","","","","96.66","","","","-9","","NA"
"-80.42","43.65","ELORA RCS","6142286","2012-12-22 22:00","2012","12","22","22:00","-2.3","","-5.7","","77","","","","29","","32","","","","96.71","","","","-10","","NA"
"-80.42","43.65","ELORA RCS","6142286","2012-12-22 23:00","2012","12","22","23:00","-2.3","","-5.5","","79","","","","29","","24","","","","96.77","","","","-9","","NA"
"-80.42","43.65","ELORA RCS","6142286","2012-12-23 00:00","2012","12","23","00:00","-2.1","","-5.2","","79","","","","29","","26","","","","96.78","","","","-9","","NA"
"-80.42","43.65","ELORA RCS","6142286","2012-12-23 01:00","2012","12","23","01:00","-2.1","","-5.2","","79","","","","28","","22","","","","96.80","","","","-8","","NA"
"-80.42","43.65","ELORA RCS","6142286","2012-12-23 02:00","2012","12","23","02:00","-2.0","","-4.4","","84","","","","28","","19","","","","96.80","","","","-8","","NA"
"-80.42","43.65","ELORA RCS","6142286","2012-12-23 03:00","2012","12","23","03:00","-2.0","","-3.6","","89","","","","27","","17","","","","96.77","","","","-7","","NA"
"-80.42","43.65","ELORA RCS","6142286","2012-12-23 04:00","2012","12","23","04:00","-2.2","","-3.4","","91","","","","26","","20","","","","96.76","","","","-8","","NA"
"-80.42","43.65","ELORA RCS","6142286","2012-12-23 05:00","2012","12","23","05:00","-2.3","","-3.9","","89","","","","27","","20","","","","96.72","","","","-8","","NA"
"-80.42","43.65","ELORA RCS","6142286","2012-12-23 06:00","2012","12","23","06:00","-2.4","","-4.7","","84","","","","26","","20","","","","96.67","","","","-8","","NA"
"-80.42","43.65","ELORA RCS","6142286","2012-12-23 07:00","2012","12","23","07:00","-2.5","","-4.4","","87","","","","25","","15","","","","96.64","","","","-7","","NA"
"-80.42","43.65","ELORA RCS","6142286","2012-12-23 08:00","2012","12","23","08:00","-2.4","","-4.1","","88","","","","24","","15","","","","96.62","","","","-7","","NA"
"-80.42","43.65","ELORA RCS","6142286","2012-12-23 09:00","2012","12","23","09:00","-2.9","","-4.7","","87","","","","24","","19","","","","96.56","","","","-9","","NA"
"-80.42","43.65","ELORA RCS","6142286","2012-12-23 10:00","2012","12","23","10:00","-3.2","","-4.8","","89","","","","25","","17","","","","96.50","","","","-9","","NA"
"-80.42","43.65","ELORA RCS","6142286","2012-12-23 11:00","2012","12","23","11:00","-3.4","","-4.7","","91","","","","24","","19","","","","96.47","","","","-9","","NA"
"-80.42","43.65","ELORA RCS","6142286","2012-12-23 12:00","2012","12","23","12:00","-3.2","","-4.5","","91","","","","25","","19","","","","96.46","","","","-9","","NA"
"-80.42","43.65","ELORA RCS","6142286","2012-12-23 13:00","2012","12","23","13:00","-3.2","","-4.3","","92","","","","24","","19","","","","96.43","","","","-9","","NA"
"-80.42","43.65","ELORA RCS","6142286","2012-12-23 14:00","2012","12","23","14:00","-2.5","","-3.7","","91","","","","25","","20","","","","96.41","","","","-8","","NA"
"-80.42","43.65","ELORA RCS","6142286","2012-12-23 15:00","2012","12","23","15:00","-1.9","","-3.5","","89","","","","26","","20","","","","96.44","","","","-8","","NA"
"-80.42","43.65","ELORA RCS","6142286","2012-12-23 16:00","2012","12","23","16:00","-1.5","","-3.8","","84","","","","28","","22","","","","96.43","","","","-7","","NA"
"-80.42","43.65","ELORA RCS","6142286","2012-12-23 17:00","2012","12","23","17:00","-0.7","","-3.6","","81","","","","28","","24","","","","96.39","","","","-7","","NA"
"-80.42","43.65","ELORA RCS","6142286","2012-12-23 18:00","2012","12","23","18:00","-0.6","","-3.3","","82","","","","28","","24","","","","96.37","","","","-7","","NA"
"-80.42","43.65","ELORA RCS","6142286","2012-12-23 19:00","2012","12","23","19:00","-0.7","","-3.7","","80","","","","30","","26","","","","96.37","","","","-7","","NA"
"-80.42","43.65","ELORA RCS","6142286","2012-12-23 20:00","2012","12","23","20:00","-1.1","","-4.6","","77","","","","30","","33","","","","96.47","","","","-8","","NA"
"-80.42","43.65","ELORA RCS","6142286","2012-12-23 21:00","2012","12","23","21:00","-1.9","","-6.0","","74","","","","31","","30","","","","96.56","","","","-9","","NA"
"-80.42","43.65","ELORA RCS","6142286","2012-12-23 22:00","2012","12","23","22:00","-2.7","","-5.8","","79","","","","31","","26","","","","96.62","","","","-10","","NA"
"-80.42","43.65","ELORA RCS","6142286","2012-12-23 23:00","2012","12","23","23:00","-3.4","","-6.4","","80","","","","31","","24","","","","96.73","","","","-10","","NA"
"-80.42","43.65","ELORA RCS","6142286","2012-12-24 00:00","2012","12","24","00:00","-3.7","","-6.7","","80","","","","31","","24","","","","96.81","","","","-11","","NA"
"-80.42","43.65","ELORA RCS","6142286","2012-12-24 01:00","2012","12","24","01:00","-3.6","","-6.4","","81","","","","31","","17","","","","96.88","","","","-9","","NA"
"-80.42","43.65","ELORA RCS","6142286","2012-12-24 02:00","2012","12","24","02:00","-3.5","","-6.9","","77","","","","30","","22","","","","96.93","","","","-10","","NA"
"-80.42","43.65","ELORA RCS","6142286","2012-12-24 03:00","2012","12","24","03:00","-3.5","","-7.2","","75","","","","31","","24","","","","96.96","","","","-10","","NA"
"-80.42","43.65","ELORA RCS","6142286","2012-12-24 04:00","2012","12","24","04:00","-3.4","","-7.0","","76","","","","30","","24","","","","97.00","","","","-10","","NA"
"-80.42","43.65","ELORA RCS","6142286","2012-12-24 05:00","2012","12","24","05:00","-3.4","","-7.1","","76","","","","29","","19","","","","96.98","","","","-9","","NA"
"-80.42","43.65","ELORA RCS","6142286","2012-12-24 06:00","2012","12","24","06:00","-3.3","","-7.0","","76","","","","28","","19","","","","96.95","","","","-9","","NA"
"-80.42","43.65","ELORA RCS","6142286","2012-12-24 07:00","2012","12","24","07:00","-3.3","","-7.1","","75","","","","26","","17","","","","96.98","","","","-9","","NA"
"-80.42","43.65","ELORA RCS","6142286","2012-12-24 08:00","2012","12","24","08:00","-3.3","","-7.4","","73","","","","28","","17","","","","97.03","","","","-9","","NA"
"-80.42","43.65","ELORA RCS","6142286","2012-12-24 09:00","2012","12","24","09:00","-3.5","","-7.4","","74","","","","32","","13","","","","97.02","","","","-8","","NA"
"-80.42","43.65","ELORA RCS","6142286","2012-12-24 10:00","2012","12","24","10:00","-3.6","","-7.7","","73","","","","30","","11","","","","97.04","","","","-8","","NA"
"-80.42","43.65","ELORA RCS","6142286","2012-12-24 11:00","2012","12","24","11:00","-3.7","","-7.2","","77","","","","34","","9","","","","97.02","","","","-7","","NA"
"-80.42","43.65","ELORA RCS","6142286","2012-12-24 12:00","2012","12","24","12:00","-3.8","","-7.3","","77","","","","5","","6","","","","97.00","","","","-6","","NA"
"-80.42","43.65","ELORA RCS","6142286","2012-12-24 13:00","2012","12","24","13:00","-3.9","","-7.2","","78","","","","20","","6","","","","97.07","","","","-7","","NA"
"-80.42","43.65","ELORA RCS","6142286","2012-12-24 14:00","2012","12","24","14:00","-4.0","","-7.4","","77","","","","16","","4","","","","97.06","","","","-6","","NA"
"-80.42","43.65","ELORA RCS","6142286","2012-12-24 15:00","2012","12","24","15:00","-3.8","","-7.4","","76","","","","18","","9","","","","97.12","","","","-8","","NA"
"-80.42","43.65","ELORA RCS","6142286","2012-12-24 16:00","2012","12","24","16:00","-3.2","","-7.3","","73","","","","16","","9","","","","97.06","","","","-7","","NA"
"-80.42","43.65","ELORA RCS","6142286","2012-12-24 17:00","2012","12","24","17:00","-2.6","","-6.9","","72","","","","17","","13","","","","96.99","","","","-7","","NA"
"-80.42","43.65","ELORA RCS","6142286","2012-12-24 18:00","2012","12","24","18:00","-2.4","","-6.9","","71","","","","12","","9","","","","96.84","","","","-6","","NA"
"-80.42","43.65","ELORA RCS","6142286","2012-12-24 19:00","2012","12","24","19:00","-2.1","","-6.3","","73","","","","8","","15","","","","96.75","","","","-7","","NA"
"-80.42","43.65","ELORA RCS","6142286","2012-12-24 20:00","2012","12","24","20:00","-2.1","","-6.4","","72","","","","8","","19","","","","96.72","","","","-8","","NA"
"-80.42","43.65","ELORA RCS","6142286","2012-12-24 21:00","2012","12","24","21:00","-2.1","","-6.0","","75","","","","10","","15","","","","96.77","","","","-7","","NA"
"-80.42","43.65","ELORA RCS","6142286","2012-12-24 22:00","2012","12","24","22:00","-3.0","","-6.6","","76","","","","10","","11","","","","96.72","","","","-7","","NA"
"-80.42","43.65","ELORA RCS","6142286","2012-12-24 23:00","2012","12","24","23:00","-2.7","","-6.0","","78","","","","9","","11","","","","96.71","","","","-7","","NA"
"-80.42","43.65","ELORA RCS","6142286","2012-12-25 00:00","2012","12","25","00:00","-2.5","","-5.5","","80","","","","5","","13","","","","96.69","","","","-7","","NA"
"-80.42","43.65","ELORA RCS","6142286","2012-12-25 01:00","2012","12","25","01:00","-2.4","","-5.2","","81","","","","5","","17","","","","96.62","","","","-8","","NA"
"-80.42","43.65","ELORA RCS","6142286","2012-12-25 02:00","2012","12","25","02:00","-2.2","","-4.8","","82","","","","6","","15","","","","96.65","","","","-7","","NA"
"-80.42","43.65","ELORA RCS","6142286","2012-12-25 03:00","2012","12","25","03:00","-2.2","","-4.7","","83","","","","6","","13","","","","96.71","","","","-7","","NA"
"-80.42","43.65","ELORA RCS","6142286","2012-12-25 04:00","2012","12","25","04:00","-2.1","","-4.7","","82","","","","3","","15","","","","96.75","","","","-7","","NA"
"-80.42","43.65","ELORA RCS","6142286","2012-12-25 05:00","2012","12","25","05:00","-2.6","","-4.1","","89","","","","2","","13","","","","96.81","","","","-7","","NA"
"-80.42","43.65","ELORA RCS","6142286","2012-12-25 06:00","2012","12","25","06:00","-3.0","","-4.5","","89","","","","3","","11","","","","96.83","","","","-7","","NA"
"-80.42","43.65","ELORA RCS","6142286","2012-12-25 07:00","2012","12","25","07:00","-3.9","","-5.3","","90","","","","2","","11","","","","96.90","","","","-8","","NA"
"-80.42","43.65","ELORA RCS","6142286","2012-12-25 08:00","2012","12","25","08:00","-3.1","","-4.7","","89","","","","3","","13","","","","97.00","","","","-8","","NA"
"-80.42","43.65","ELORA RCS","6142286","2012-12-25 09:00","2012","12","25","09:00","-3.3","","-4.8","","89","","","","3","","13","","","","97.09","","","","-8","","NA"
"-80.42","43.65","ELORA RCS","6142286","2012-12-25 10:00","2012","12","25","10:00","-2.9","","-4.5","","89","","","","3","","11","","","","97.18","","","","-7","","NA"
"-80.42","43.65","ELORA RCS","6142286","2012-12-25 11:00","2012","12","25","11:00","-2.8","","-4.3","","89","","","","3","","7","","","","97.31","","","","-6","","NA"
"-80.42","43.65","ELORA RCS","6142286","2012-12-25 12:00","2012","12","25","12:00","-2.7","","-4.2","","89","","","","5","","6","","","","97.43","","","","-5","","NA"
"-80.42","43.65","ELORA RCS","6142286","2012-12-25 13:00","2012","12","25","13:00","-2.7","","-4.0","","91","","","","34","","6","","","","97.51","","","","-5","","NA"
"-80.42","43.65","ELORA RCS","6142286","2012-12-25 14:00","2012","12","25","14:00","-2.5","","-3.8","","91","","","","29","","6","","","","97.63","","","","-5","","NA"
"-80.42","43.65","ELORA RCS","6142286","2012-12-25 15:00","2012","12","25","15:00","-2.2","","-4.1","","87","","","","33","","4","","","","97.71","","","","-4","","NA"
"-80.42","43.65","ELORA RCS","6142286","2012-12-25 16:00","2012","12","25","16:00","-1.5","","-3.5","","86","","","","34","","9","","","","97.72","","","","-5","","NA"
"-80.42","43.65","ELORA RCS","6142286","2012-12-25 17:00","2012","12","25","17:00","-0.7","","-3.7","","80","","","","36","","15","","","","97.67","","","","-5","","NA"
"-80.42","43.65","ELORA RCS","6142286","2012-12-25 18:00","2012","12","25","18:00","-0.6","","-4.2","","77","","","","2","","9","","","","97.69","","","","-4","","NA"
"-80.42","43.65","ELORA RCS","6142286","2012-12-25 19:00","2012","12","25","19:00","-1.0","","-3.5","","83","","","","30","","11","","","","97.76","","","","-5","","NA"
"-80.42","43.65","ELORA RCS","6142286","2012-12-25 20:00","2012","12","25","20:00","-1.2","","-3.7","","83","","","","33","","9","","","","97.79","","","","-4","","NA"
"-80.42","43.65","ELORA RCS","6142286","2012-12-25 21:00","2012","12","25","21:00","-1.3","","-3.8","","83","","","","31","","9","","","","97.88","","","","-5","","NA"
"-80.42","43.65","ELORA RCS","6142286","2012-12-25 22:00","2012","12","25","22:00","-1.5","","-4.0","","83","","","","34","","9","","","","97.88","","","","-5","","NA"
"-80.42","43.65","ELORA RCS","6142286","2012-12-25 23:00","2012","12","25","23:00","-1.7","","-4.2","","83","","","","36","","11","","","","97.91","","","","-6","","NA"
"-80.42","43.65","ELORA RCS","6142286","2012-12-26 00:00","2012","12","26","00:00","-1.8","","-4.8","","80","","","","2","","11","","","","98.02","","","","-6","","NA"
"-80.42","43.65","ELORA RCS","6142286","2012-12-26 01:00","2012","12","26","01:00","-2.1","","-4.8","","82","","","","3","","4","","","","98.06","","","","-4","","NA"
"-80.42","43.65","ELORA RCS","6142286","2012-12-26 02:00","2012","12","26","02:00","-2.2","","-5.1","","80","","","","2","","9","","","","98.04","","","","-6","","NA"
"-80.42","43.65","ELORA RCS","6142286","2012-12-26 03:00","2012","12","26","03:00","-2.5","","-5.6","","79","","","","2","","7","","","","98.09","","","","-5","","NA"
"-80.42","43.65","ELORA RCS","6142286","2012-12-26 04:00","2012","12","26","04:00","-3.0","","-6.3","","78","","","","1","","11","","","","98.05","","","","-7","","NA"
"-80.42","43.65","ELORA RCS","6142286","2012-12-26 05:00","2012","12","26","05:00","-3.3","","-6.6","","78","","","","3","","13","","","","98.01","","","","-8","","NA"
"-80.42","43.65","ELORA RCS","6142286","2012-12-26 06:00","2012","12","26","06:00","-3.4","","-6.7","","78","","","","2","","9","","","","98.02","","","","-7","","NA"
"-80.42","43.65","ELORA RCS","6142286","2012-12-26 07:00","2012","12","26","07:00","-3.1","","-6.3","","79","","","","7","","13","","","","98.02","","","","-8","","NA"
"-80.42","43.65","ELORA RCS","6142286","2012-12-26 08:00","2012","12","26","08:00","-3.1","","-6.3","","79","","","","6","","17","","","","97.95","","","","-9","","NA"
"-80.42","43.65","ELORA RCS","6142286","2012-12-26 09:00","2012","12","26","09:00","-3.3","","-6.3","","80","","","","6","","13","","","","97.84","","","","-8","","NA"
"-80.42","43.65","ELORA RCS","6142286","2012-12-26 10:00","2012","12","26","10:00","-3.5","","-6.2","","82","","","","7","","15","","","","97.85","","","","-9","","NA"
"-80.42","43.65","ELORA RCS","6142286","2012-12-26 11:00","2012","12","26","11:00","-3.6","","-6.8","","78","","","","7","","19","","","","97.70","","","","-10","","NA"
"-80.42","43.65","ELORA RCS","6142286","2012-12-26 12:00","2012","12","26","12:00","-3.8","","-6.8","","80","","","","7","","20","","","","97.71","","","","-10","","NA"
"-80.42","43.65","ELORA RCS","6142286","2012-12-26 13:00","2012","12","26","13:00","-4.4","","-6.5","","85","","","","8","","24","","","","97.65","","","","-11","","NA"
"-80.42","43.65","ELORA RCS","6142286","2012-12-26 14:00","2012","12","26","14:00","-4.8","","-6.9","","85","","","","9","","22","","","","97.65","","","","-12","","NA"
"-80.42","43.65","ELORA RCS","6142286","2012-12-26 15:00","2012","12","26","15:00","-5.6","","-8.4","","81","","","","8","","28","","","","97.58","","","","-14","","NA"
"-80.42","43.65","ELORA RCS","6142286","2012-12-26 16:00","2012","12","26","16:00","-6.1","","-9.6","","76","","","","8","","28","","","","97.50","","","","-14","","NA"
"-80.42","43.65","ELORA RCS","6142286","2012-12-26 17:00","2012","12","26","17:00","-6.3","","-9.6","","77","","","","7","","24","","","","97.29","","","","-14","","NA"
"-80.42","43.65","ELORA RCS","6142286","2012-12-26 18:00","2012","12","26","18:00","-6.5","","-11.0","","70","","","","8","","33","","","","97.12","","","","-15","","NA"
"-80.42","43.65","ELORA RCS","6142286","2012-12-26 19:00","2012","12","26","19:00","-6.3","","-10.6","","72","","","","7","","30","","","","97.08","","","","-15","","NA"
"-80.42","43.65","ELORA RCS","6142286","2012-12-26 20:00","2012","12","26","20:00","-6.9","","-11.2","","71","","","","7","","30","","","","96.95","","","","-15","","NA"
"-80.42","43.65","ELORA RCS","6142286","2012-12-26 21:00","2012","12","26","21:00","-6.8","","-10.8","","73","","","","7","","24","","","","96.93","","","","-14","","NA"
"-80.42","43.65","ELORA RCS","6142286","2012-12-26 22:00","2012","12","26","22:00","-6.9","","-11.0","","73","","","","6","","28","","","","96.88","","","","-15","","NA"
"-80.42","43.65","ELORA RCS","6142286","2012-12-26 23:00","2012","12","26","23:00","-6.5","","-10.7","","72","","","","7","","20","","","","96.87","","","","-13","","NA"
"-80.42","43.65","ELORA RCS","6142286","2012-12-27 00:00","2012","12","27","00:00","-6.2","","-10.8","","70","","","","5","","28","","","","96.82","","","","-14","","NA"
"-80.42","43.65","ELORA RCS","6142286","2012-12-27 01:00","2012","12","27","01:00","-6.7","","-9.2","","82","","","","4","","32","","","","96.77","","","","-15","","NA"
"-80.42","43.65","ELORA RCS","6142286","2012-12-27 02:00","2012","12","27","02:00","-6.6","","-8.3","","88","","","","5","","30","","","","96.69","","","","-15","","NA"
"-80.42","43.65","ELORA RCS","6142286","2012-12-27 03:00","2012","12","27","03:00","-6.4","","-8.3","","86","","","","5","","32","","","","96.53","","","","-15","","NA"
"-80.42","43.65","ELORA RCS","6142286","2012-12-27 04:00","2012","12","27","04:00","-6.0","","-7.6","","88","","","","5","","32","","","","96.50","","","","-15","","NA"
"-80.42","43.65","ELORA RCS","6142286","2012-12-27 05:00","2012","12","27","05:00","-6.2","","-7.9","","88","","","","4","","24","","","","96.45","","","","-14","","NA"
"-80.42","43.65","ELORA RCS","6142286","2012-12-27 06:00","2012","12","27","06:00","-6.3","","-8.2","","86","","","","4","","26","","","","96.40","","","","-14","","NA"
"-80.42","43.65","ELORA RCS","6142286","2012-12-27 07:00","2012","12","27","07:00","-5.8","","-7.6","","87","","","","4","","22","","","","96.39","","","","-13","","NA"
"-80.42","43.65","ELORA RCS","6142286","2012-12-27 08:00","2012","12","27","08:00","-6.5","","-8.3","","87","","","","3","","24","","","","96.42","","","","-14","","NA"
"-80.42","43.65","ELORA RCS","6142286","2012-12-27 09:00","2012","12","27","09:00","-7.0","","-9.1","","85","","","","3","","24","","","","96.45","","","","-15","","NA"
"-80.42","43.65","ELORA RCS","6142286","2012-12-27 10:00","2012","12","27","10:00","-6.6","","-8.5","","86","","","","2","","20","","","","96.49","","","","-14","","NA"
"-80.42","43.65","ELORA RCS","6142286","2012-12-27 11:00","2012","12","27","11:00","-5.9","","-7.8","","86","","","","1","","19","","","","96.55","","","","-13","","NA"
"-80.42","43.65","ELORA RCS","6142286","2012-12-27 12:00","2012","12","27","12:00","-5.6","","-7.6","","86","","","","1","","15","","","","96.61","","","","-11","","NA"
"-80.42","43.65","ELORA RCS","6142286","2012-12-27 13:00","2012","12","27","13:00","-5.5","","-7.6","","85","","","","1","","17","","","","96.62","","","","-12","","NA"
"-80.42","43.65","ELORA RCS","6142286","2012-12-27 14:00","2012","12","27","14:00","-5.0","","-7.6","","82","","","","1","","20","","","","96.67","","","","-12","","NA"
"-80.42","43.65","ELORA RCS","6142286","2012-12-27 15:00","2012","12","27","15:00","-4.3","","-7.1","","81","","","","2","","24","","","","96.77","","","","-11","","NA"
"-80.42","43.65","ELORA RCS","6142286","2012-12-27 16:00","2012","12","27","16:00","-3.5","","-6.7","","78","","","","36","","19","","","","96.80","","","","-9","","NA"
"-80.42","43.65","ELORA RCS","6142286","2012-12-27 17:00","2012","12","27","17:00","-3.1","","-6.4","","78","","","","35","","20","","","","96.76","","","","-9","","NA"
"-80.42","43.65","ELORA RCS","6142286","2012-12-27 18:00","2012","12","27","18:00","-3.0","","-6.4","","77","","","","35","","20","","","","96.74","","","","-9","","NA"
"-80.42","43.65","ELORA RCS","6142286","2012-12-27 19:00","2012","12","27","19:00","-3.1","","-6.4","","78","","","","34","","22","","","","96.76","","","","-9","","NA"
"-80.42","43.65","ELORA RCS","6142286","2012-12-27 20:00","2012","12","27","20:00","-3.2","","-6.3","","79","","","","32","","22","","","","96.79","","","","-10","","NA"
"-80.42","43.65","ELORA RCS","6142286","2012-12-27 21:00","2012","12","27","21:00","-4.3","","-6.8","","83","","","","33","","26","","","","96.84","","","","-12","","NA"
"-80.42","43.65","ELORA RCS","6142286","2012-12-27 22:00","2012","12","27","22:00","-5.2","","-7.1","","86","","","","33","","26","","","","96.96","","","","-13","","NA"
"-80.42","43.65","ELORA RCS","6142286","2012-12-27 23:00","2012","12","27","23:00","-6.5","","-8.2","","88","","","","32","","22","","","","97.00","","","","-14","","NA"
"-80.42","43.65","ELORA RCS","6142286","2012-12-28 00:00","2012","12","28","00:00","-6.2","","-7.8","","88","","","","33","","26","","","","97.08","","","","-14","","NA"
"-80.42","43.65","ELORA RCS","6142286","2012-12-28 01:00","2012","12","28","01:00","-6.5","","-7.8","","90","","","","33","","24","","","","97.17","","","","-14","","NA"
"-80.42","43.65","ELORA RCS","6142286","2012-12-28 02:00","2012","12","28","02:00","-6.6","","-7.4","","94","","","","33","","24","","","","97.19","","","","-14","","NA"
"-80.42","43.65","ELORA RCS","6142286","2012-12-28 03:00","2012","12","28","03:00","-6.3","","-7.0","","95","","","","33","","17","","","","97.19","","","","-13","","NA"
"-80.42","43.65","ELORA RCS","6142286","2012-12-28 04:00","2012","12","28","04:00","-6.2","","-7.5","","90","","","","32","","19","","","","97.25","","","","-13","","NA"
"-80.42","43.65","ELORA RCS","6142286","2012-12-28 05:00","2012","12","28","05:00","-6.5","","-7.6","","92","","","","32","","17","","","","97.23","","","","-13","","NA"
"-80.42","43.65","ELORA RCS","6142286","2012-12-28 06:00","2012","12","28","06:00","-6.5","","-7.6","","92","","","","32","","15","","","","97.22","","","","-12","","NA"
"-80.42","43.65","ELORA RCS","6142286","2012-12-28 07:00","2012","12","28","07:00","-6.6","","-7.5","","93","","","","32","","13","","","","97.24","","","","-12","","NA"
"-80.42","43.65","ELORA RCS","6142286","2012-12-28 08:00","2012","12","28","08:00","-6.8","","-7.5","","95","","","","32","","15","","","","97.30","","","","-13","","NA"
"-80.42","43.65","ELORA RCS","6142286","2012-12-28 09:00","2012","12","28","09:00","-6.8","","-7.5","","95","","","","33","","11","","","","97.35","","","","-12","","NA"
"-80.42","43.65","ELORA RCS","6142286","2012-12-28 10:00","2012","12","28","10:00","-6.8","","-7.6","","94","","","","33","","11","","","","97.35","","","","-12","","NA"
"-80.42","43.65","ELORA RCS","6142286","2012-12-28 11:00","2012","12","28","11:00","-6.9","","-7.7","","94","","","","32","","9","","","","97.36","","","","-11","","NA"
"-80.42","43.65","ELORA RCS","6142286","2012-12-28 12:00","2012","12","28","12:00","-7.0","","-7.8","","94","","","","33","","11","","","","97.37","","","","-12","","NA"
"-80.42","43.65","ELORA RCS","6142286","2012-12-28 13:00","2012","12","28","13:00","-6.3","","-7.0","","95","","","","32","","7","","","","97.37","","","","-10","","NA"
"-80.42","43.65","ELORA RCS","6142286","2012-12-28 14:00","2012","12","28","14:00","-5.9","","-6.6","","95","","","","31","","9","","","","97.36","","","","-10","","NA"
"-80.42","43.65","ELORA RCS","6142286","2012-12-28 15:00","2012","12","28","15:00","-5.5","","-6.2","","95","","","","29","","7","","","","97.42","","","","-9","","NA"
"-80.42","43.65","ELORA RCS","6142286","2012-12-28 16:00","2012","12","28","16:00","-5.1","","-6.0","","93","","","","31","","11","","","","97.40","","","","-10","","NA"
"-80.42","43.65","ELORA RCS","6142286","2012-12-28 17:00","2012","12","28","17:00","-4.1","","-6.8","","81","","","","32","","11","","","","97.32","","","","-9","","NA"
"-80.42","43.65","ELORA RCS","6142286","2012-12-28 18:00","2012","12","28","18:00","-3.3","","-6.0","","82","","","","26","","11","","","","97.32","","","","-8","","NA"
"-80.42","43.65","ELORA RCS","6142286","2012-12-28 19:00","2012","12","28","19:00","-3.0","","-5.5","","83","","","","26","","19","","","","97.32","","","","-9","","NA"
"-80.42","43.65","ELORA RCS","6142286","2012-12-28 20:00","2012","12","28","20:00","-3.0","","-5.2","","85","","","","25","","17","","","","97.29","","","","-9","","NA"
"-80.42","43.65","ELORA RCS","6142286","2012-12-28 21:00","2012","12","28","21:00","-3.2","","-5.7","","83","","","","23","","7","","","","97.17","","","","-6","","NA"
"-80.42","43.65","ELORA RCS","6142286","2012-12-28 22:00","2012","12","28","22:00","-3.9","","-5.9","","86","","","","22","","6","","","","97.15","","","","-7","","NA"
"-80.42","43.65","ELORA RCS","6142286","2012-12-28 23:00","2012","12","28","23:00","-3.9","","-5.7","","87","","","","17","","4","","","","97.15","","","","-6","","NA"
"-80.42","43.65","ELORA RCS","6142286","2012-12-29 00:00","2012","12","29","00:00","-3.9","","-6.3","","83","","","","19","","6","","","","97.18","","","","-7","","NA"
"-80.42","43.65","ELORA RCS","6142286","2012-12-29 01:00","2012","12","29","01:00","-5.3","","-8.5","","78","","","","21","","6","","","","97.16","","","","-8","","NA"
"-80.42","43.65","ELORA RCS","6142286","2012-12-29 02:00","2012","12","29","02:00","-5.9","","-8.7","","81","","","","25","","4","","","","97.11","","","","-8","","NA"
"-80.42","43.65","ELORA RCS","6142286","2012-12-29 03:00","2012","12","29","03:00","-7.9","","-9.5","","88","","","","","","0","","","","97.07","","","","","","NA"
"-80.42","43.65","ELORA RCS","6142286","2012-12-29 04:00","2012","12","29","04:00","-8.5","","-9.5","","92","","","","11","","4","","","","97.08","","","","-11","","NA"
"-80.42","43.65","ELORA RCS","6142286","2012-12-29 05:00","2012","12","29","05:00","-7.0","","-8.2","","91","","","","8","","4","","","","97.03","","","","-9","","NA"
"-80.42","43.65","ELORA RCS","6142286","2012-12-29 06:00","2012","12","29","06:00","-6.4","","-7.1","","95","","","","7","","7","","","","96.92","","","","-10","","NA"
"-80.42","43.65","ELORA RCS","6142286","2012-12-29 07:00","2012","12","29","07:00","-6.5","","-7.4","","93","","","","7","","6","","","","96.83","","","","-9","","NA"
"-80.42","43.65","ELORA RCS","6142286","2012-12-29 08:00","2012","12","29","08:00","-5.8","","-7.0","","91","","","","6","","6","","","","96.80","","","","-9","","NA"
"-80.42","43.65","ELORA RCS","6142286","2012-12-29 09:00","2012","12","29","09:00","-5.2","","-6.7","","89","","","","8","","9","","","","96.67","","","","-9","","NA"
"-80.42","43.65","ELORA RCS","6142286","2012-12-29 10:00","2012","12","29","10:00","-5.2","","-6.1","","93","","","","9","","7","","","","96.65","","","","-8","","NA"
"-80.42","43.65","ELORA RCS","6142286","2012-12-29 11:00","2012","12","29","11:00","-4.9","","-5.8","","93","","","","8","","7","","","","96.60","","","","-8","","NA"
"-80.42","43.65","ELORA RCS","6142286","2012-12-29 12:00","2012","12","29","12:00","-4.7","","-5.7","","93","","","","7","","9","","","","96.54","","","","-9","","NA"
"-80.42","43.65","ELORA RCS","6142286","2012-12-29 13:00","2012","12","29","13:00","-4.7","","-5.8","","92","","","","7","","13","","","","96.48","","","","-10","","NA"
"-80.42","43.65","ELORA RCS","6142286","2012-12-29 14:00","2012","12","29","14:00","-5.0","","-6.4","","90","","","","4","","15","","","","96.36","","","","-11","","NA"
"-80.42","43.65","ELORA RCS","6142286","2012-12-29 15:00","2012","12","29","15:00","-5.0","","-6.6","","89","","","","4","","15","","","","96.34","","","","-11","","NA"
"-80.42","43.65","ELORA RCS","6142286","2012-12-29 16:00","2012","12","29","16:00","-5.0","","-6.6","","89","","","","4","","13","","","","96.34","","","","-10","","NA"
"-80.42","43.65","ELORA RCS","6142286","2012-12-29 17:00","2012","12","29","17:00","-5.1","","-6.6","","89","","","","4","","11","","","","96.30","","","","-10","","NA"
"-80.42","43.65","ELORA RCS","6142286","2012-12-29 18:00","2012","12","29","18:00","-4.9","","-6.5","","89","","","","3","","11","","","","96.24","","","","-9","","NA"
"-80.42","43.65","ELORA RCS","6142286","2012-12-29 19:00","2012","12","29","19:00","-4.5","","-6.4","","87","","","","2","","13","","","","96.22","","","","-10","","NA"
"-80.42","43.65","ELORA RCS","6142286","2012-12-29 20:00","2012","12","29","20:00","-4.7","","-7.2","","83","","","","2","","17","","","","96.26","","","","-11","","NA"
"-80.42","43.65","ELORA RCS","6142286","2012-12-29 21:00","2012","12","29","21:00","-4.7","","-7.1","","83","","","","1","","9","","","","96.29","","","","-9","","NA"
"-80.42","43.65","ELORA RCS","6142286","2012-12-29 22:00","2012","12","29","22:00","-5.1","","-7.7","","82","","","","35","","9","","","","96.36","","","","-9","","NA"
"-80.42","43.65","ELORA RCS","6142286","2012-12-29 23:00","2012","12","29","23:00","-5.4","","-7.2","","87","","","","30","","7","","","","96.42","","","","-9","","NA"
"-80.42","43.65","ELORA RCS","6142286","2012-12-30 00:00","2012","12","30","00:00","-6.0","","-7.5","","89","","","","30","","9","","","","96.45","","","","-10","","NA"
"-80.42","43.65","ELORA RCS","6142286","2012-12-30 01:00","2012","12","30","01:00","-6.8","","-7.8","","93","","","","30","","11","","","","96.49","","","","-12","","NA"
"-80.42","43.65","ELORA RCS","6142286","2012-12-30 02:00","2012","12","30","02:00","-4.8","","-6.0","","91","","","","30","","13","","","","96.49","","","","-10","","NA"
"-80.42","43.65","ELORA RCS","6142286","2012-12-30 03:00","2012","12","30","03:00","-5.5","","-7.8","","84","","","","32","","22","","","","96.56","","","","-13","","NA"
"-80.42","43.65","ELORA RCS","6142286","2012-12-30 04:00","2012","12","30","04:00","-6.2","","-8.4","","84","","","","31","","22","","","","96.62","","","","-13","","NA"
"-80.42","43.65","ELORA RCS","6142286","2012-12-30 05:00","2012","12","30","05:00","-7.2","","-9.2","","86","","","","33","","22","","","","96.68","","","","-15","","NA"
"-80.42","43.65","ELORA RCS","6142286","2012-12-30 06:00","2012","12","30","06:00","-8.3","","-10.2","","86","","","","33","","19","","","","96.71","","","","-16","","NA"
"-80.42","43.65","ELORA RCS","6142286","2012-12-30 07:00","2012","12","30","07:00","-7.5","","-9.4","","86","","","","31","","17","","","","96.80","","","","-14","","NA"
"-80.42","43.65","ELORA RCS","6142286","2012-12-30 08:00","2012","12","30","08:00","-7.9","","-9.6","","88","","","","32","","20","","","","96.92","","","","-15","","NA"
"-80.42","43.65","ELORA RCS","6142286","2012-12-30 09:00","2012","12","30","09:00","-7.6","","-9.4","","87","","","","35","","19","","","","96.96","","","","-15","","NA"
"-80.42","43.65","ELORA RCS","6142286","2012-12-30 10:00","2012","12","30","10:00","-7.3","","-9.0","","88","","","","28","","15","","","","97.03","","","","-13","","NA"
"-80.42","43.65","ELORA RCS","6142286","2012-12-30 11:00","2012","12","30","11:00","-7.3","","-8.7","","90","","","","29","","15","","","","97.13","","","","-13","","NA"
"-80.42","43.65","ELORA RCS","6142286","2012-12-30 12:00","2012","12","30","12:00","-6.5","","-8.4","","86","","","","32","","19","","","","97.26","","","","-13","","NA"
"-80.42","43.65","ELORA RCS","6142286","2012-12-30 13:00","2012","12","30","13:00","-7.7","","-9.7","","86","","","","32","","15","","","","97.34","","","","-14","","NA"
"-80.42","43.65","ELORA RCS","6142286","2012-12-30 14:00","2012","12","30","14:00","-8.3","","-10.4","","85","","","","31","","13","","","","97.46","","","","-14","","NA"
"-80.42","43.65","ELORA RCS","6142286","2012-12-30 15:00","2012","12","30","15:00","-7.3","","-9.7","","83","","","","31","","15","","","","97.58","","","","-13","","NA"
"-80.42","43.65","ELORA RCS","6142286","2012-12-30 16:00","2012","12","30","16:00","-6.2","","-9.1","","80","","","","30","","13","","","","97.64","","","","-12","","NA"
"-80.42","43.65","ELORA RCS","6142286","2012-12-30 17:00","2012","12","30","17:00","-4.9","","-9.3","","71","","","","36","","13","","","","97.59","","","","-10","","NA"
"-80.42","43.65","ELORA RCS","6142286","2012-12-30 18:00","2012","12","30","18:00","-4.5","","-8.8","","72","","","","26","","15","","","","97.62","","","","-10","","NA"
"-80.42","43.65","ELORA RCS","6142286","2012-12-30 19:00","2012","12","30","19:00","-4.2","","-8.7","","71","","","","26","","15","","","","97.60","","","","-10","","NA"
"-80.42","43.65","ELORA RCS","6142286","2012-12-30 20:00","2012","12","30","20:00","-4.2","","-8.4","","72","","","","25","","11","","","","97.64","","","","-9","","NA"
"-80.42","43.65","ELORA RCS","6142286","2012-12-30 21:00","2012","12","30","21:00","-4.4","","-7.0","","82","","","","23","","13","","","","97.68","","","","-9","","NA"
"-80.42","43.65","ELORA RCS","6142286","2012-12-30 22:00","2012","12","30","22:00","-3.7","","-5.9","","85","","","","25","","19","","","","97.65","","","","-10","","NA"
"-80.42","43.65","ELORA RCS","6142286","2012-12-30 23:00","2012","12","30","23:00","-3.8","","-6.2","","83","","","","24","","19","","","","97.64","","","","-10","","NA"
"-80.42","43.65","ELORA RCS","6142286","2012-12-31 00:00","2012","12","31","00:00","-3.8","","-6.2","","83","","","","23","","17","","","","97.60","","","","-10","","NA"
"-80.42","43.65","ELORA RCS","6142286","2012-12-31 01:00","2012","12","31","01:00","-3.8","","-6.4","","82","","","","23","","19","","","","97.61","","","","-10","","NA"
"-80.42","43.65","ELORA RCS","6142286","2012-12-31 02:00","2012","12","31","02:00","-3.8","","-6.1","","84","","","","24","","26","","","","97.57","","","","-11","","NA"
"-80.42","43.65","ELORA RCS","6142286","2012-12-31 03:00","2012","12","31","03:00","-4.2","","-6.2","","86","","","","24","","24","","","","97.57","","","","-11","","NA"
"-80.42","43.65","ELORA RCS","6142286","2012-12-31 04:00","2012","12","31","04:00","-4.9","","-7.0","","85","","","","24","","26","","","","97.55","","","","-12","","NA"
"-80.42","43.65","ELORA RCS","6142286","2012-12-31 05:00","2012","12","31","05:00","-5.4","","-7.2","","87","","","","24","","24","","","","97.47","","","","-13","","NA"
"-80.42","43.65","ELORA RCS","6142286","2012-12-31 06:00","2012","12","31","06:00","-5.9","","-7.4","","89","","","","23","","19","","","","97.41","","","","-13","","NA"
"-80.42","43.65","ELORA RCS","6142286","2012-12-31 07:00","2012","12","31","07:00","-6.2","","-7.7","","89","","","","23","","20","","","","97.36","","","","-13","","NA"
"-80.42","43.65","ELORA RCS","6142286","2012-12-31 08:00","2012","12","31","08:00","-6.7","","-8.3","","88","","","","23","","20","","","","97.29","","","","-14","","NA"
"-80.42","43.65","ELORA RCS","6142286","2012-12-31 09:00","2012","12","31","09:00","-6.8","","-8.1","","90","","","","23","","17","","","","97.25","","","","-13","","NA"
"-80.42","43.65","ELORA RCS","6142286","2012-12-31 10:00","2012","12","31","10:00","-6.6","","-7.7","","92","","","","23","","15","","","","97.16","","","","-13","","NA"
"-80.42","43.65","ELORA RCS","6142286","2012-12-31 11:00","2012","12","31","11:00","-7.3","","-8.4","","92","","","","21","","13","","","","97.07","","","","-13","","NA"
"-80.42","43.65","ELORA RCS","6142286","2012-12-31 12:00","2012","12","31","12:00","-8.0","","-8.8","","94","","","","21","","11","","","","97.02","","","","-13","","NA"
"-80.42","43.65","ELORA RCS","6142286","2012-12-31 13:00","2012","12","31","13:00","-7.2","","-8.5","","90","","","","23","","15","","","","96.95","","","","-13","","NA"
"-80.42","43.65","ELORA RCS","6142286","2012-12-31 14:00","2012","12","31","14:00","-6.4","","-8.1","","88","","","","24","","17","","","","96.88","","","","-13","","NA"
"-80.42","43.65","ELORA RCS","6142286","2012-12-31 15:00","2012","12","31","15:00","-5.5","","-7.8","","84","","","","24","","15","","","","96.85","","","","-11","","NA"
"-80.42","43.65","ELORA RCS","6142286","2012-12-31 16:00","2012","12","31","16:00","-3.4","","-6.0","","82","","","","25","","32","","","","96.77","","","","-11","","NA"
"-80.42","43.65","ELORA RCS","6142286","2012-12-31 17:00","2012","12","31","17:00","-2.8","","-5.6","","81","","","","25","","28","","","","96.69","","","","-10","","NA"
"-80.42","43.65","ELORA RCS","6142286","2012-12-31 18:00","2012","12","31","18:00","-2.1","","-5.0","","80","","","","24","","28","","","","96.58","","","","-9","","NA"
"-80.42","43.65","ELORA RCS","6142286","2012-12-31 19:00","2012","12","31","19:00","-2.1","","-4.6","","83","","","","24","","26","","","","96.50","","","","-9","","NA"
"-80.42","43.65","ELORA RCS","6142286","2012-12-31 20:00","2012","12","31","20:00","-1.8","","-4.3","","83","","","","24","","28","","","","96.47","","","","-9","","NA"
"-80.42","43.65","ELORA RCS","6142286","2012-12-31 21:00","2012","12","31","21:00","-1.7","","-4.1","","84","","","","25","","28","","","","96.50","","","","-8","","NA"
"-80.42","43.65","ELORA RCS","6142286","2012-12-31 22:00","2012","12","31","22:00","-1.7","","-3.9","","85","","","","25","","28","","","","96.52","","","","-8","","NA"
"-80.42","43.65","ELORA RCS","6142286","2012-12-31 23:00","2012","12","31","23:00","-1.6","","-3.9","","84","","","","26","","26","","","","96.53","","","","-8","","NA"
