"Longitude (x)","Latitude (y)","Station Name","Climate ID","Date/Time (UTC)","Year","Month","Day","Time (UTC)","Temp (°C)","Temp Flag","Dew Point Temp (°C)","Dew Point Temp Flag","Rel Hum (%)","Rel Hum Flag","Precip. Amount (mm)","Precip. Amount Flag","Wind Dir (10s deg)","Wind Dir Flag","Wind Spd (km/h)","Wind Spd Flag","Visibility (km)","Visibility Flag","Stn Press (kPa)","Stn Press Flag","Hmdx","Hmdx Flag","Wind Chill","Wind Chill Flag","Weather"
"-79.22","43.25","PORT WELLER (AUT)","6136699","2012-12-01 00:00","2012","12","01","00:00","-0.3","","-0.9","","96","","","","8","","41","","","","101.82","","","","-8","","NA"
"-79.22","43.25","PORT WELLER (AUT)","6136699","2012-12-01 01:00","2012","12","01","01:00","-0.1","","-0.8","","95","","","","8","","37","","","","101.84","","","","-7","","NA"
"-79.22","43.25","PORT WELLER (AUT)","6136699","2012-12-01 02:00","2012","12","01","02:00","0.4","","-0.5","","94","","","","9","","32","","","","101.85","","","","","","NA"
"-79.22","43.25","PORT WELLER (AUT)","6136699","2012-12-01 03:00","2012","12","01","03:00","0.4","","-0.9","","91","","","","8","","30","","","","101.80","","","","","","NA"
"-79.22","43.25","PORT WELLER (AUT)","6136699","2012-12-01 04:00","2012","12","01","04:00","0.5","","-1.3","","88","","","","9","","33","","","","101.76","","","","","","NA"
"-79.22","43.25","PORT WELLER (AUT)","6136699","2012-12-01 05:00","2012","12","01","05:00","0.7","","-1.1","","88","","","","9","","28","","","","101.77","","","","","","NA"
"-79.22","43.25","PORT WELLER (AUT)","6136699","2012-12-01 06:00","2012","12","01","06:00","0.9","","-0.8","","88","","","","8","","30","","","","101.68","","","","","","NA"
"-79.22","43.25","PORT WELLER (AUT)","6136699","2012-12-01 07:00","2012","12","01","07:00","0.9","","-0.7","","89","","","","8","","30","","","","101.68","","","","","","NA"
"-79.22","43.25","PORT WELLER (AUT)","6136699","2012-12-01 08:00","2012","12","01","08:00","0.9","","-0.5","","90","","","","8","","30","","","","101.72","","","","","","NA"
"-79.22","43.25","PORT WELLER (AUT)","6136699","2012-12-01 09:00","2012","12","01","09:00","0.9","","-0.7","","89","","","","9","","24","","","","101.72","","","","","","NA"
"-79.22","43.25","PORT WELLER (AUT)","6136699","2012-12-01 10:00","2012","12","01","10:00","1.0","","-0.6","","89","","","","9","","24","","","","101.73","","","","","","NA"
"-79.22","43.25","PORT WELLER (AUT)","6136699","2012-12-01 11:00","2012","12","01","11:00","1.1","","-0.4","","90","","","","8","","22","","","","101.81","","","","","","NA"
"-79.22","43.25","PORT WELLER (AUT)","6136699","2012-12-01 12:00","2012","12","01","12:00","1.3","","-0.1","","90","","","","8","","32","","","","101.81","","","","","","NA"
"-79.22","43.25","PORT WELLER (AUT)","6136699","2012-12-01 13:00","2012","12","01","13:00","1.1","","-0.6","","88","","","","8","","28","","","","101.80","","","","","","NA"
"-79.22","43.25","PORT WELLER (AUT)","6136699","2012-12-01 14:00","2012","12","01","14:00","1.1","","-0.9","","86","","","","9","","24","","","","101.74","","","","","","NA"
"-79.22","43.25","PORT WELLER (AUT)","6136699","2012-12-01 15:00","2012","12","01","15:00","1.6","","-1.1","","82","","","","8","","19","","","","101.76","","","","","","NA"
"-79.22","43.25","PORT WELLER (AUT)","6136699","2012-12-01 16:00","2012","12","01","16:00","2.1","","-1.5","","77","","","","8","","15","","","","101.68","","","","","","NA"
"-79.22","43.25","PORT WELLER (AUT)","6136699","2012-12-01 17:00","2012","12","01","17:00","2.6","","-1.1","","77","","","","6","","9","","","","101.61","","","","","","NA"
"-79.22","43.25","PORT WELLER (AUT)","6136699","2012-12-01 18:00","2012","12","01","18:00","2.9","","-1.2","","74","","","","6","","6","","","","101.54","","","","","","NA"
"-79.22","43.25","PORT WELLER (AUT)","6136699","2012-12-01 19:00","2012","12","01","19:00","3.5","","-0.3","","76","","","","9","","6","","","","101.49","","","","","","NA"
"-79.22","43.25","PORT WELLER (AUT)","6136699","2012-12-01 20:00","2012","12","01","20:00","4.0","","-0.8","","71","","","","8","","4","","","","101.46","","","","","","NA"
"-79.22","43.25","PORT WELLER (AUT)","6136699","2012-12-01 21:00","2012","12","01","21:00","4.0","","0.2","","76","","","","9","","11","","","","101.42","","","","","","NA"
"-79.22","43.25","PORT WELLER (AUT)","6136699","2012-12-01 22:00","2012","12","01","22:00","4.3","","0.3","","75","","","","8","","7","","","","101.39","","","","","","NA"
"-79.22","43.25","PORT WELLER (AUT)","6136699","2012-12-01 23:00","2012","12","01","23:00","4.4","","0.5","","76","","","","10","","11","","","","101.32","","","","","","NA"
"-79.22","43.25","PORT WELLER (AUT)","6136699","2012-12-02 00:00","2012","12","02","00:00","4.6","","1.1","","78","","","","3","","9","","","","101.32","","","","","","NA"
"-79.22","43.25","PORT WELLER (AUT)","6136699","2012-12-02 01:00","2012","12","02","01:00","4.9","","1.8","","80","","","","10","","9","","","","101.25","","","","","","NA"
"-79.22","43.25","PORT WELLER (AUT)","6136699","2012-12-02 02:00","2012","12","02","02:00","4.2","","0.8","","79","","","","15","","4","","","","101.18","","","","","","NA"
"-79.22","43.25","PORT WELLER (AUT)","6136699","2012-12-02 03:00","2012","12","02","03:00","4.5","","0.8","","77","","","","19","","6","","","","101.08","","","","","","NA"
"-79.22","43.25","PORT WELLER (AUT)","6136699","2012-12-02 04:00","2012","12","02","04:00","4.8","","2.1","","83","","","","","","0","","","","101.03","","","","","","NA"
"-79.22","43.25","PORT WELLER (AUT)","6136699","2012-12-02 05:00","2012","12","02","05:00","5.4","","3.3","","86","","","","33","","4","","","","101.03","","","","","","NA"
"-79.22","43.25","PORT WELLER (AUT)","6136699","2012-12-02 06:00","2012","12","02","06:00","5.3","","3.5","","88","","","","10","","4","","","","100.95","","","","","","NA"
"-79.22","43.25","PORT WELLER (AUT)","6136699","2012-12-02 07:00","2012","12","02","07:00","11.1","","4.1","","62","","","","18","","26","","","","100.85","","","","","","NA"
"-79.22","43.25","PORT WELLER (AUT)","6136699","2012-12-02 08:00","2012","12","02","08:00","11.5","","4.5","","62","","","","18","","32","","","","100.77","","","","","","NA"
"-79.22","43.25","PORT WELLER (AUT)","6136699","2012-12-02 09:00","2012","12","02","09:00","12.7","","4.8","","59","","","","19","","24","","","","100.72","","","","","","NA"
"-79.22","43.25","PORT WELLER (AUT)","6136699","2012-12-02 10:00","2012","12","02","10:00","12.1","","4.9","","61","","","","20","","17","","","","100.71","","","","","","NA"
"-79.22","43.25","PORT WELLER (AUT)","6136699","2012-12-02 11:00","2012","12","02","11:00","11.6","","6.0","","68","","","","19","","22","","","","100.64","","","","","","NA"
"-79.22","43.25","PORT WELLER (AUT)","6136699","2012-12-02 12:00","2012","12","02","12:00","11.2","","6.7","","74","","","","19","","22","","","","100.60","","","","","","NA"
"-79.22","43.25","PORT WELLER (AUT)","6136699","2012-12-02 13:00","2012","12","02","13:00","11.3","","7.1","","75","","","","19","","24","","","","100.55","","","","","","NA"
"-79.22","43.25","PORT WELLER (AUT)","6136699","2012-12-02 14:00","2012","12","02","14:00","10.1","","8.4","","89","","","","19","","20","","","","100.55","","","","","","NA"
"-79.22","43.25","PORT WELLER (AUT)","6136699","2012-12-02 15:00","2012","12","02","15:00","10.7","","8.9","","89","","","","19","","26","","","","100.49","","","","","","NA"
"-79.22","43.25","PORT WELLER (AUT)","6136699","2012-12-02 16:00","2012","12","02","16:00","10.6","","8.8","","89","","","","19","","22","","","","100.42","","","","","","NA"
"-79.22","43.25","PORT WELLER (AUT)","6136699","2012-12-02 17:00","2012","12","02","17:00","10.6","","9.1","","90","","","","20","","19","","","","100.32","","","","","","NA"
"-79.22","43.25","PORT WELLER (AUT)","6136699","2012-12-02 18:00","2012","12","02","18:00","10.2","","9.0","","92","","","","21","","19","","","","100.26","","","","","","NA"
"-79.22","43.25","PORT WELLER (AUT)","6136699","2012-12-02 19:00","2012","12","02","19:00","10.4","","9.1","","92","","","","22","","24","","","","100.19","","","","","","NA"
"-79.22","43.25","PORT WELLER (AUT)","6136699","2012-12-02 20:00","2012","12","02","20:00","10.1","","9.0","","93","","","","22","","17","","","","100.26","","","","","","NA"
"-79.22","43.25","PORT WELLER (AUT)","6136699","2012-12-02 21:00","2012","12","02","21:00","9.8","","8.8","","93","","","","22","","15","","","","100.30","","","","","","NA"
"-79.22","43.25","PORT WELLER (AUT)","6136699","2012-12-02 22:00","2012","12","02","22:00","9.5","","8.6","","94","","","","22","","13","","","","100.33","","","","","","NA"
"-79.22","43.25","PORT WELLER (AUT)","6136699","2012-12-02 23:00","2012","12","02","23:00","9.2","","8.4","","95","","","","23","","13","","","","100.43","","","","","","NA"
"-79.22","43.25","PORT WELLER (AUT)","6136699","2012-12-03 00:00","2012","12","03","00:00","8.7","","7.9","","95","","","","23","","9","","","","100.56","","","","","","NA"
"-79.22","43.25","PORT WELLER (AUT)","6136699","2012-12-03 01:00","2012","12","03","01:00","8.3","","7.6","","95","","","","25","","7","","","","100.66","","","","","","NA"
"-79.22","43.25","PORT WELLER (AUT)","6136699","2012-12-03 02:00","2012","12","03","02:00","7.8","","7.1","","95","","","","29","","15","","","","100.75","","","","","","NA"
"-79.22","43.25","PORT WELLER (AUT)","6136699","2012-12-03 03:00","2012","12","03","03:00","7.6","","6.1","","90","","","","30","","20","","","","100.86","","","","","","NA"
"-79.22","43.25","PORT WELLER (AUT)","6136699","2012-12-03 04:00","2012","12","03","04:00","7.3","","5.6","","89","","","","28","","19","","","","100.91","","","","","","NA"
"-79.22","43.25","PORT WELLER (AUT)","6136699","2012-12-03 05:00","2012","12","03","05:00","7.1","","5.0","","86","","","","27","","17","","","","101.00","","","","","","NA"
"-79.22","43.25","PORT WELLER (AUT)","6136699","2012-12-03 06:00","2012","12","03","06:00","7.3","","4.6","","83","","","","28","","22","","","","101.06","","","","","","NA"
"-79.22","43.25","PORT WELLER (AUT)","6136699","2012-12-03 07:00","2012","12","03","07:00","6.7","","4.6","","86","","","","30","","17","","","","101.07","","","","","","NA"
"-79.22","43.25","PORT WELLER (AUT)","6136699","2012-12-03 08:00","2012","12","03","08:00","6.3","","4.9","","91","","","","32","","11","","","","101.16","","","","","","NA"
"-79.22","43.25","PORT WELLER (AUT)","6136699","2012-12-03 09:00","2012","12","03","09:00","5.5","","4.3","","92","","","","34","","7","","","","101.20","","","","","","NA"
"-79.22","43.25","PORT WELLER (AUT)","6136699","2012-12-03 10:00","2012","12","03","10:00","6.0","","4.7","","91","","","","24","","4","","","","101.25","","","","","","NA"
"-79.22","43.25","PORT WELLER (AUT)","6136699","2012-12-03 11:00","2012","12","03","11:00","5.9","","4.3","","89","","","","21","","4","","","","101.26","","","","","","NA"
"-79.22","43.25","PORT WELLER (AUT)","6136699","2012-12-03 12:00","2012","12","03","12:00","5.8","","4.3","","90","","","","19","","6","","","","101.32","","","","","","NA"
"-79.22","43.25","PORT WELLER (AUT)","6136699","2012-12-03 13:00","2012","12","03","13:00","6.0","","4.3","","89","","","","21","","4","","","","101.36","","","","","","NA"
"-79.22","43.25","PORT WELLER (AUT)","6136699","2012-12-03 14:00","2012","12","03","14:00","6.5","","4.2","","85","","","","","","0","","","","101.36","","","","","","NA"
"-79.22","43.25","PORT WELLER (AUT)","6136699","2012-12-03 15:00","2012","12","03","15:00","7.3","","3.8","","78","","","","14","","6","","","","101.34","","","","","","NA"
"-79.22","43.25","PORT WELLER (AUT)","6136699","2012-12-03 16:00","2012","12","03","16:00","8.1","","4.4","","77","","","","10","","6","","","","101.33","","","","","","NA"
"-79.22","43.25","PORT WELLER (AUT)","6136699","2012-12-03 17:00","2012","12","03","17:00","7.9","","4.9","","81","","","","4","","11","","","","101.22","","","","","","NA"
"-79.22","43.25","PORT WELLER (AUT)","6136699","2012-12-03 18:00","2012","12","03","18:00","7.3","","4.9","","85","","","","4","","19","","","","101.14","","","","","","NA"
"-79.22","43.25","PORT WELLER (AUT)","6136699","2012-12-03 19:00","2012","12","03","19:00","7.1","","5.1","","87","","","","6","","20","","","","101.07","","","","","","NA"
"-79.22","43.25","PORT WELLER (AUT)","6136699","2012-12-03 20:00","2012","12","03","20:00","6.8","","5.1","","89","","","","7","","20","","","","101.08","","","","","","NA"
"-79.22","43.25","PORT WELLER (AUT)","6136699","2012-12-03 21:00","2012","12","03","21:00","6.7","","5.4","","91","","","","7","","19","","","","101.05","","","","","","NA"
"-79.22","43.25","PORT WELLER (AUT)","6136699","2012-12-03 22:00","2012","12","03","22:00","6.7","","5.7","","93","","","","8","","13","","","","101.08","","","","","","NA"
"-79.22","43.25","PORT WELLER (AUT)","6136699","2012-12-03 23:00","2012","12","03","23:00","6.9","","5.6","","91","","","","8","","22","","","","101.02","","","","","","NA"
"-79.22","43.25","PORT WELLER (AUT)","6136699","2012-12-04 00:00","2012","12","04","00:00","7.8","","6.0","","88","","","","10","","15","","","","100.95","","","","","","NA"
"-79.22","43.25","PORT WELLER (AUT)","6136699","2012-12-04 01:00","2012","12","04","01:00","7.8","","6.4","","91","","","","12","","6","","","","100.89","","","","","","NA"
"-79.22","43.25","PORT WELLER (AUT)","6136699","2012-12-04 02:00","2012","12","04","02:00","7.3","","5.9","","91","","","","24","","4","","","","100.87","","","","","","NA"
"-79.22","43.25","PORT WELLER (AUT)","6136699","2012-12-04 03:00","2012","12","04","03:00","7.1","","5.9","","92","","","","25","","6","","","","100.78","","","","","","NA"
"-79.22","43.25","PORT WELLER (AUT)","6136699","2012-12-04 04:00","2012","12","04","04:00","7.0","","6.0","","93","","","","17","","4","","","","100.69","","","","","","NA"
"-79.22","43.25","PORT WELLER (AUT)","6136699","2012-12-04 05:00","2012","12","04","05:00","6.9","","6.0","","94","","","","25","","6","","","","100.68","","","","","","NA"
"-79.22","43.25","PORT WELLER (AUT)","6136699","2012-12-04 06:00","2012","12","04","06:00","6.9","","6.1","","95","","","","","","0","","","","100.62","","","","","","NA"
"-79.22","43.25","PORT WELLER (AUT)","6136699","2012-12-04 07:00","2012","12","04","07:00","11.0","","10.4","","96","","","","24","","6","","","","100.57","","","","","","NA"
"-79.22","43.25","PORT WELLER (AUT)","6136699","2012-12-04 08:00","2012","12","04","08:00","15.6","","11.5","","77","","","","19","","20","","","","100.54","","","","","","NA"
"-79.22","43.25","PORT WELLER (AUT)","6136699","2012-12-04 09:00","2012","12","04","09:00","15.3","","10.5","","73","","","","20","","20","","","","100.50","","","","","","NA"
"-79.22","43.25","PORT WELLER (AUT)","6136699","2012-12-04 10:00","2012","12","04","10:00","15.6","","10.4","","71","","","","19","","22","","","","100.45","","","","","","NA"
"-79.22","43.25","PORT WELLER (AUT)","6136699","2012-12-04 11:00","2012","12","04","11:00","15.5","","10.2","","71","","","","19","","22","","","","100.42","","","","","","NA"
"-79.22","43.25","PORT WELLER (AUT)","6136699","2012-12-04 12:00","2012","12","04","12:00","14.6","","9.4","","71","","","","20","","15","","","","100.42","","","","","","NA"
"-79.22","43.25","PORT WELLER (AUT)","6136699","2012-12-04 13:00","2012","12","04","13:00","14.7","","9.1","","69","","","","20","","15","","","","100.42","","","","","","NA"
"-79.22","43.25","PORT WELLER (AUT)","6136699","2012-12-04 14:00","2012","12","04","14:00","15.4","","9.3","","67","","","","20","","17","","","","100.42","","","","","","NA"
"-79.22","43.25","PORT WELLER (AUT)","6136699","2012-12-04 15:00","2012","12","04","15:00","16.5","","9.3","","62","","","","20","","17","","","","100.41","","","","","","NA"
"-79.22","43.25","PORT WELLER (AUT)","6136699","2012-12-04 16:00","2012","12","04","16:00","17.3","","9.6","","61","","","","21","","20","","","","100.34","","","","","","NA"
"-79.22","43.25","PORT WELLER (AUT)","6136699","2012-12-04 17:00","2012","12","04","17:00","15.5","","9.5","","67","","","","22","","19","","","","100.27","","","","","","NA"
"-79.22","43.25","PORT WELLER (AUT)","6136699","2012-12-04 18:00","2012","12","04","18:00","12.4","","9.5","","82","","","","23","","11","","","","100.26","","","","","","NA"
"-79.22","43.25","PORT WELLER (AUT)","6136699","2012-12-04 19:00","2012","12","04","19:00","11.8","","9.8","","88","","","","23","","11","","","","100.23","","","","","","NA"
"-79.22","43.25","PORT WELLER (AUT)","6136699","2012-12-04 20:00","2012","12","04","20:00","10.6","","9.6","","94","","","","23","","9","","","","100.26","","","","","","NA"
"-79.22","43.25","PORT WELLER (AUT)","6136699","2012-12-04 21:00","2012","12","04","21:00","10.0","","9.4","","96","","","","23","","7","","","","100.26","","","","","","NA"
"-79.22","43.25","PORT WELLER (AUT)","6136699","2012-12-04 22:00","2012","12","04","22:00","10.0","","9.5","","97","","","","23","","7","","","","100.34","","","","","","NA"
"-79.22","43.25","PORT WELLER (AUT)","6136699","2012-12-04 23:00","2012","12","04","23:00","9.9","","9.4","","97","","","","23","","9","","","","100.35","","","","","","NA"
"-79.22","43.25","PORT WELLER (AUT)","6136699","2012-12-05 00:00","2012","12","05","00:00","8.5","","7.5","","93","","","","25","","11","","","","100.40","","","","","","NA"
"-79.22","43.25","PORT WELLER (AUT)","6136699","2012-12-05 01:00","2012","12","05","01:00","8.9","","7.5","","91","","","","22","","7","","","","100.41","","","","","","NA"
"-79.22","43.25","PORT WELLER (AUT)","6136699","2012-12-05 02:00","2012","12","05","02:00","8.9","","6.4","","84","","","","23","","13","","","","100.45","","","","","","NA"
"-79.22","43.25","PORT WELLER (AUT)","6136699","2012-12-05 03:00","2012","12","05","03:00","8.0","","5.8","","86","","","","24","","11","","","","100.46","","","","","","NA"
"-79.22","43.25","PORT WELLER (AUT)","6136699","2012-12-05 04:00","2012","12","05","04:00","7.4","","5.4","","87","","","","24","","13","","","","100.51","","","","","","NA"
"-79.22","43.25","PORT WELLER (AUT)","6136699","2012-12-05 05:00","2012","12","05","05:00","7.1","","5.1","","87","","","","25","","13","","","","100.54","","","","","","NA"
"-79.22","43.25","PORT WELLER (AUT)","6136699","2012-12-05 06:00","2012","12","05","06:00","7.1","","4.2","","82","","","","25","","20","","","","100.61","","","","","","NA"
"-79.22","43.25","PORT WELLER (AUT)","6136699","2012-12-05 07:00","2012","12","05","07:00","6.8","","4.2","","83","","","","26","","26","","","","100.66","","","","","","NA"
"-79.22","43.25","PORT WELLER (AUT)","6136699","2012-12-05 08:00","2012","12","05","08:00","6.8","","3.7","","81","","","","28","","28","","","","100.78","","","","","","NA"
"-79.22","43.25","PORT WELLER (AUT)","6136699","2012-12-05 09:00","2012","12","05","09:00","5.7","","1.7","","75","","","","31","","44","","","","100.89","","","","","","NA"
"-79.22","43.25","PORT WELLER (AUT)","6136699","2012-12-05 10:00","2012","12","05","10:00","4.6","","-0.4","","70","","","","30","","39","","","","100.98","","","","","","NA"
"-79.22","43.25","PORT WELLER (AUT)","6136699","2012-12-05 11:00","2012","12","05","11:00","4.0","","-1.5","","67","","","","30","","39","","","","101.08","","","","","","NA"
"-79.22","43.25","PORT WELLER (AUT)","6136699","2012-12-05 12:00","2012","12","05","12:00","3.6","","-2.6","","64","","","","29","","44","","","","101.18","","","","","","NA"
"-79.22","43.25","PORT WELLER (AUT)","6136699","2012-12-05 13:00","2012","12","05","13:00","3.1","","-3.2","","63","","","","29","","44","","","","101.24","","","","","","NA"
"-79.22","43.25","PORT WELLER (AUT)","6136699","2012-12-05 14:00","2012","12","05","14:00","3.2","","-2.6","","66","","","","28","","37","","","","101.31","","","","","","NA"
"-79.22","43.25","PORT WELLER (AUT)","6136699","2012-12-05 15:00","2012","12","05","15:00","3.1","","-2.5","","67","","","","30","","37","","","","101.39","","","","","","NA"
"-79.22","43.25","PORT WELLER (AUT)","6136699","2012-12-05 16:00","2012","12","05","16:00","2.3","","-3.1","","67","","","","31","","44","","","","101.47","","","","","","NA"
"-79.22","43.25","PORT WELLER (AUT)","6136699","2012-12-05 17:00","2012","12","05","17:00","3.1","","-4.1","","59","","","","30","","43","","","","101.48","","","","","","NA"
"-79.22","43.25","PORT WELLER (AUT)","6136699","2012-12-05 18:00","2012","12","05","18:00","2.7","","-5.3","","56","","","","30","","35","","","","101.52","","","","","","NA"
"-79.22","43.25","PORT WELLER (AUT)","6136699","2012-12-05 19:00","2012","12","05","19:00","2.6","","-5.4","","56","","","","32","","33","","","","101.58","","","","","","NA"
"-79.22","43.25","PORT WELLER (AUT)","6136699","2012-12-05 20:00","2012","12","05","20:00","2.7","","-3.5","","64","","","","33","","35","","","","101.63","","","","","","NA"
"-79.22","43.25","PORT WELLER (AUT)","6136699","2012-12-05 21:00","2012","12","05","21:00","1.4","","-3.2","","71","","","","34","","37","","","","101.77","","","","","","NA"
"-79.22","43.25","PORT WELLER (AUT)","6136699","2012-12-05 22:00","2012","12","05","22:00","0.9","","-5.5","","62","","","","33","","37","","","","101.83","","","","","","NA"
"-79.22","43.25","PORT WELLER (AUT)","6136699","2012-12-05 23:00","2012","12","05","23:00","0.8","","-5.2","","64","","","","34","","30","","","","101.93","","","","","","NA"
"-79.22","43.25","PORT WELLER (AUT)","6136699","2012-12-06 00:00","2012","12","06","00:00","0.2","","-5.8","","64","","","","34","","22","","","","101.95","","","","","","NA"
"-79.22","43.25","PORT WELLER (AUT)","6136699","2012-12-06 01:00","2012","12","06","01:00","0.0","","-6.3","","63","","","","35","","17","","","","101.94","","","","-5","","NA"
"-79.22","43.25","PORT WELLER (AUT)","6136699","2012-12-06 02:00","2012","12","06","02:00","-0.3","","-8.2","","55","","","","36","","11","","","","101.90","","","","-4","","NA"
"-79.22","43.25","PORT WELLER (AUT)","6136699","2012-12-06 03:00","2012","12","06","03:00","-0.4","","-7.5","","59","","","","34","","7","","","","101.90","","","","-3","","NA"
"-79.22","43.25","PORT WELLER (AUT)","6136699","2012-12-06 04:00","2012","12","06","04:00","-0.4","","-7.8","","57","","","","36","","9","","","","101.91","","","","-4","","NA"
"-79.22","43.25","PORT WELLER (AUT)","6136699","2012-12-06 05:00","2012","12","06","05:00","-0.7","","-7.8","","59","","","","32","","6","","","","101.96","","","","-3","","NA"
"-79.22","43.25","PORT WELLER (AUT)","6136699","2012-12-06 06:00","2012","12","06","06:00","-0.5","","-7.8","","58","","","","35","","6","","","","101.99","","","","-3","","NA"
"-79.22","43.25","PORT WELLER (AUT)","6136699","2012-12-06 07:00","2012","12","06","07:00","-0.7","","-7.7","","59","","","","33","","6","","","","101.97","","","","-3","","NA"
"-79.22","43.25","PORT WELLER (AUT)","6136699","2012-12-06 08:00","2012","12","06","08:00","-0.8","","-6.8","","64","","","","17","","7","","","","101.99","","","","-3","","NA"
"-79.22","43.25","PORT WELLER (AUT)","6136699","2012-12-06 09:00","2012","12","06","09:00","-1.2","","-5.3","","74","","","","16","","11","","","","101.90","","","","-5","","NA"
"-79.22","43.25","PORT WELLER (AUT)","6136699","2012-12-06 10:00","2012","12","06","10:00","-1.5","","-5.3","","75","","","","14","","7","","","","101.86","","","","-4","","NA"
"-79.22","43.25","PORT WELLER (AUT)","6136699","2012-12-06 11:00","2012","12","06","11:00","-1.2","","-5.8","","71","","","","15","","7","","","","101.89","","","","-4","","NA"
"-79.22","43.25","PORT WELLER (AUT)","6136699","2012-12-06 12:00","2012","12","06","12:00","-1.1","","-5.9","","70","","","","13","","7","","","","101.89","","","","-4","","NA"
"-79.22","43.25","PORT WELLER (AUT)","6136699","2012-12-06 13:00","2012","12","06","13:00","-1.5","","-5.5","","74","","","","13","","9","","","","101.84","","","","-5","","NA"
"-79.22","43.25","PORT WELLER (AUT)","6136699","2012-12-06 14:00","2012","12","06","14:00","-1.2","","-5.6","","72","","","","14","","15","","","","101.81","","","","-6","","NA"
"-79.22","43.25","PORT WELLER (AUT)","6136699","2012-12-06 15:00","2012","12","06","15:00","-0.1","","-6.7","","61","","","","14","","15","","","","101.79","","","","-5","","NA"
"-79.22","43.25","PORT WELLER (AUT)","6136699","2012-12-06 16:00","2012","12","06","16:00","0.3","","-7.3","","57","","","","11","","17","","","","101.65","","","","","","NA"
"-79.22","43.25","PORT WELLER (AUT)","6136699","2012-12-06 17:00","2012","12","06","17:00","0.7","","-6.7","","58","","","","13","","11","","","","101.47","","","","","","NA"
"-79.22","43.25","PORT WELLER (AUT)","6136699","2012-12-06 18:00","2012","12","06","18:00","1.6","","-6.7","","54","","","","9","","7","","","","101.32","","","","","","NA"
"-79.22","43.25","PORT WELLER (AUT)","6136699","2012-12-06 19:00","2012","12","06","19:00","2.6","","-6.9","","50","","","","10","","7","","","","101.23","","","","","","NA"
"-79.22","43.25","PORT WELLER (AUT)","6136699","2012-12-06 20:00","2012","12","06","20:00","2.7","","-4.4","","59","","","","6","","11","","","","101.14","","","","","","NA"
"-79.22","43.25","PORT WELLER (AUT)","6136699","2012-12-06 21:00","2012","12","06","21:00","3.2","","-4.6","","57","","","","9","","13","","","","101.08","","","","","","NA"
"-79.22","43.25","PORT WELLER (AUT)","6136699","2012-12-06 22:00","2012","12","06","22:00","3.3","","-4.5","","57","","","","8","","19","","","","100.98","","","","","","NA"
"-79.22","43.25","PORT WELLER (AUT)","6136699","2012-12-06 23:00","2012","12","06","23:00","3.5","","-3.6","","60","","","","8","","22","","","","100.93","","","","","","NA"
"-79.22","43.25","PORT WELLER (AUT)","6136699","2012-12-07 00:00","2012","12","07","00:00","3.7","","-3.4","","60","","","","7","","13","","","","100.89","","","","","","NA"
"-79.22","43.25","PORT WELLER (AUT)","6136699","2012-12-07 01:00","2012","12","07","01:00","2.7","","-4.3","","60","","","","14","","4","","","","100.86","","","","","","NA"
"-79.22","43.25","PORT WELLER (AUT)","6136699","2012-12-07 02:00","2012","12","07","02:00","2.6","","-3.7","","63","","","","19","","6","","","","100.77","","","","","","NA"
"-79.22","43.25","PORT WELLER (AUT)","6136699","2012-12-07 03:00","2012","12","07","03:00","2.2","","-2.5","","71","","","","22","","4","","","","100.73","","","","","","NA"
"-79.22","43.25","PORT WELLER (AUT)","6136699","2012-12-07 04:00","2012","12","07","04:00","2.3","","-3.0","","68","","","","21","","6","","","","100.69","","","","","","NA"
"-79.22","43.25","PORT WELLER (AUT)","6136699","2012-12-07 05:00","2012","12","07","05:00","2.6","","-2.5","","69","","","","17","","7","","","","100.66","","","","","","NA"
"-79.22","43.25","PORT WELLER (AUT)","6136699","2012-12-07 06:00","2012","12","07","06:00","2.4","","-2.6","","70","","","","22","","6","","","","100.63","","","","","","NA"
"-79.22","43.25","PORT WELLER (AUT)","6136699","2012-12-07 07:00","2012","12","07","07:00","2.5","","-1.8","","73","","","","","","0","","","","100.65","","","","","","NA"
"-79.22","43.25","PORT WELLER (AUT)","6136699","2012-12-07 08:00","2012","12","07","08:00","2.9","","-1.4","","73","","","","16","","6","","","","100.60","","","","","","NA"
"-79.22","43.25","PORT WELLER (AUT)","6136699","2012-12-07 09:00","2012","12","07","09:00","3.8","","-1.4","","69","","","","19","","7","","","","100.53","","","","","","NA"
"-79.22","43.25","PORT WELLER (AUT)","6136699","2012-12-07 10:00","2012","12","07","10:00","4.7","","-0.6","","68","","","","17","","7","","","","100.49","","","","","","NA"
"-79.22","43.25","PORT WELLER (AUT)","6136699","2012-12-07 11:00","2012","12","07","11:00","5.4","","0.1","","69","","","","18","","15","","","","100.46","","","","","","NA"
"-79.22","43.25","PORT WELLER (AUT)","6136699","2012-12-07 12:00","2012","12","07","12:00","5.3","","0.1","","69","","","","19","","9","","","","100.48","","","","","","NA"
"-79.22","43.25","PORT WELLER (AUT)","6136699","2012-12-07 13:00","2012","12","07","13:00","5.0","","2.0","","81","","","","17","","4","","","","100.51","","","","","","NA"
"-79.22","43.25","PORT WELLER (AUT)","6136699","2012-12-07 14:00","2012","12","07","14:00","6.1","","2.0","","75","","","","18","","7","","","","100.48","","","","","","NA"
"-79.22","43.25","PORT WELLER (AUT)","6136699","2012-12-07 15:00","2012","12","07","15:00","7.1","","2.2","","71","","","","20","","6","","","","100.50","","","","","","NA"
"-79.22","43.25","PORT WELLER (AUT)","6136699","2012-12-07 16:00","2012","12","07","16:00","6.6","","3.2","","79","","","","25","","6","","","","100.53","","","","","","NA"
"-79.22","43.25","PORT WELLER (AUT)","6136699","2012-12-07 17:00","2012","12","07","17:00","7.1","","3.9","","80","","","","26","","7","","","","100.48","","","","","","NA"
"-79.22","43.25","PORT WELLER (AUT)","6136699","2012-12-07 18:00","2012","12","07","18:00","7.8","","3.2","","73","","","","26","","4","","","","100.41","","","","","","NA"
"-79.22","43.25","PORT WELLER (AUT)","6136699","2012-12-07 19:00","2012","12","07","19:00","7.6","","3.5","","75","","","","","","0","","","","100.34","","","","","","NA"
"-79.22","43.25","PORT WELLER (AUT)","6136699","2012-12-07 20:00","2012","12","07","20:00","7.0","","4.0","","81","","","","","","0","","","","100.34","","","","","","NA"
"-79.22","43.25","PORT WELLER (AUT)","6136699","2012-12-07 21:00","2012","12","07","21:00","7.2","","4.4","","82","","","","23","","4","","","","100.42","","","","","","NA"
"-79.22","43.25","PORT WELLER (AUT)","6136699","2012-12-07 22:00","2012","12","07","22:00","7.0","","4.5","","84","","","","19","","4","","","","100.43","","","","","","NA"
"-79.22","43.25","PORT WELLER (AUT)","6136699","2012-12-07 23:00","2012","12","07","23:00","7.1","","4.4","","83","","","","","","0","","","","100.47","","","","","","NA"
"-79.22","43.25","PORT WELLER (AUT)","6136699","2012-12-08 00:00","2012","12","08","00:00","6.2","","4.9","","91","","","","9","","6","","","","100.48","","","","","","NA"
"-79.22","43.25","PORT WELLER (AUT)","6136699","2012-12-08 01:00","2012","12","08","01:00","6.4","","5.0","","91","","","","4","","9","","","","100.49","","","","","","NA"
"-79.22","43.25","PORT WELLER (AUT)","6136699","2012-12-08 02:00","2012","12","08","02:00","6.3","","4.9","","91","","","","8","","7","","","","100.46","","","","","","NA"
"-79.22","43.25","PORT WELLER (AUT)","6136699","2012-12-08 03:00","2012","12","08","03:00","6.2","","5.2","","93","","","","7","","9","","","","100.41","","","","","","NA"
"-79.22","43.25","PORT WELLER (AUT)","6136699","2012-12-08 04:00","2012","12","08","04:00","5.9","","4.4","","90","","","","12","","6","","","","100.39","","","","","","NA"
"-79.22","43.25","PORT WELLER (AUT)","6136699","2012-12-08 05:00","2012","12","08","05:00","5.7","","4.2","","90","","","","13","","6","","","","100.36","","","","","","NA"
"-79.22","43.25","PORT WELLER (AUT)","6136699","2012-12-08 06:00","2012","12","08","06:00","5.9","","4.6","","91","","","","10","","7","","","","100.27","","","","","","NA"
"-79.22","43.25","PORT WELLER (AUT)","6136699","2012-12-08 07:00","2012","12","08","07:00","5.9","","4.8","","93","","","","11","","6","","","","100.24","","","","","","NA"
"-79.22","43.25","PORT WELLER (AUT)","6136699","2012-12-08 08:00","2012","12","08","08:00","5.7","","4.9","","95","","","","12","","6","","","","100.18","","","","","","NA"
"-79.22","43.25","PORT WELLER (AUT)","6136699","2012-12-08 09:00","2012","12","08","09:00","5.7","","5.0","","95","","","","11","","7","","","","100.15","","","","","","NA"
"-79.22","43.25","PORT WELLER (AUT)","6136699","2012-12-08 10:00","2012","12","08","10:00","5.8","","5.1","","95","","","","8","","6","","","","100.10","","","","","","NA"
"-79.22","43.25","PORT WELLER (AUT)","6136699","2012-12-08 11:00","2012","12","08","11:00","5.8","","5.2","","96","","","","7","","6","","","","100.06","","","","","","NA"
"-79.22","43.25","PORT WELLER (AUT)","6136699","2012-12-08 12:00","2012","12","08","12:00","6.0","","5.5","","97","","","","6","","13","","","","100.04","","","","","","NA"
"-79.22","43.25","PORT WELLER (AUT)","6136699","2012-12-08 13:00","2012","12","08","13:00","6.0","","5.5","","97","","","","6","","11","","","","99.99","","","","","","NA"
"-79.22","43.25","PORT WELLER (AUT)","6136699","2012-12-08 14:00","2012","12","08","14:00","6.2","","5.7","","97","","","","6","","15","","","","99.95","","","","","","NA"
"-79.22","43.25","PORT WELLER (AUT)","6136699","2012-12-08 15:00","2012","12","08","15:00","6.3","","5.8","","97","","","","3","","7","","","","99.99","","","","","","NA"
"-79.22","43.25","PORT WELLER (AUT)","6136699","2012-12-08 16:00","2012","12","08","16:00","6.4","","6.0","","97","","","","2","","9","","","","99.97","","","","","","NA"
"-79.22","43.25","PORT WELLER (AUT)","6136699","2012-12-08 17:00","2012","12","08","17:00","6.7","","6.2","","97","","","","35","","4","","","","99.92","","","","","","NA"
"-79.22","43.25","PORT WELLER (AUT)","6136699","2012-12-08 18:00","2012","12","08","18:00","6.3","","5.8","","97","","","","31","","15","","","","99.98","","","","","","NA"
"-79.22","43.25","PORT WELLER (AUT)","6136699","2012-12-08 19:00","2012","12","08","19:00","5.9","","5.4","","97","","","","32","","19","","","","100.00","","","","","","NA"
"-79.22","43.25","PORT WELLER (AUT)","6136699","2012-12-08 20:00","2012","12","08","20:00","5.8","","5.0","","95","","","","31","","20","","","","100.08","","","","","","NA"
"-79.22","43.25","PORT WELLER (AUT)","6136699","2012-12-08 21:00","2012","12","08","21:00","4.8","","3.5","","91","","","","32","","37","","","","100.26","","","","","","NA"
"-79.22","43.25","PORT WELLER (AUT)","6136699","2012-12-08 22:00","2012","12","08","22:00","4.7","","2.4","","85","","","","32","","32","","","","100.40","","","","","","NA"
"-79.22","43.25","PORT WELLER (AUT)","6136699","2012-12-08 23:00","2012","12","08","23:00","4.8","","2.0","","82","","","","32","","32","","","","100.54","","","","","","NA"
"-79.22","43.25","PORT WELLER (AUT)","6136699","2012-12-09 00:00","2012","12","09","00:00","4.8","","1.1","","77","","","","32","","32","","","","100.68","","","","","","NA"
"-79.22","43.25","PORT WELLER (AUT)","6136699","2012-12-09 01:00","2012","12","09","01:00","4.3","","0.0","","74","","","","32","","37","","","","100.81","","","","","","NA"
"-79.22","43.25","PORT WELLER (AUT)","6136699","2012-12-09 02:00","2012","12","09","02:00","3.8","","-0.3","","75","","","","33","","32","","","","100.93","","","","","","NA"
"-79.22","43.25","PORT WELLER (AUT)","6136699","2012-12-09 03:00","2012","12","09","03:00","3.2","","-0.9","","74","","","","33","","28","","","","101.05","","","","","","NA"
"-79.22","43.25","PORT WELLER (AUT)","6136699","2012-12-09 04:00","2012","12","09","04:00","2.8","","-1.5","","73","","","","34","","28","","","","101.15","","","","","","NA"
"-79.22","43.25","PORT WELLER (AUT)","6136699","2012-12-09 05:00","2012","12","09","05:00","2.1","","-2.3","","73","","","","33","","28","","","","101.22","","","","","","NA"
"-79.22","43.25","PORT WELLER (AUT)","6136699","2012-12-09 06:00","2012","12","09","06:00","1.9","","-2.3","","74","","","","34","","17","","","","101.29","","","","","","NA"
"-79.22","43.25","PORT WELLER (AUT)","6136699","2012-12-09 07:00","2012","12","09","07:00","1.6","","-2.7","","73","","","","2","","19","","","","101.39","","","","","","NA"
"-79.22","43.25","PORT WELLER (AUT)","6136699","2012-12-09 08:00","2012","12","09","08:00","0.5","","-4.5","","69","","","","2","","20","","","","101.49","","","","","","NA"
"-79.22","43.25","PORT WELLER (AUT)","6136699","2012-12-09 09:00","2012","12","09","09:00","0.4","","-5.1","","67","","","","1","","22","","","","101.56","","","","","","NA"
"-79.22","43.25","PORT WELLER (AUT)","6136699","2012-12-09 10:00","2012","12","09","10:00","0.2","","-5.9","","64","","","","1","","24","","","","101.52","","","","","","NA"
"-79.22","43.25","PORT WELLER (AUT)","6136699","2012-12-09 11:00","2012","12","09","11:00","0.2","","-6.3","","62","","","","2","","22","","","","101.52","","","","","","NA"
"-79.22","43.25","PORT WELLER (AUT)","6136699","2012-12-09 12:00","2012","12","09","12:00","0.1","","-6.4","","62","","","","3","","15","","","","101.58","","","","","","NA"
"-79.22","43.25","PORT WELLER (AUT)","6136699","2012-12-09 13:00","2012","12","09","13:00","0.3","","-5.6","","65","","","","5","","19","","","","101.56","","","","","","NA"
"-79.22","43.25","PORT WELLER (AUT)","6136699","2012-12-09 14:00","2012","12","09","14:00","0.3","","-5.0","","68","","","","5","","22","","","","101.57","","","","","","NA"
"-79.22","43.25","PORT WELLER (AUT)","6136699","2012-12-09 15:00","2012","12","09","15:00","0.6","","-2.7","","79","","","","6","","22","","","","101.56","","","","","","NA"
"-79.22","43.25","PORT WELLER (AUT)","6136699","2012-12-09 16:00","2012","12","09","16:00","0.7","","-3.0","","76","","","","9","","20","","","","101.44","","","","","","NA"
"-79.22","43.25","PORT WELLER (AUT)","6136699","2012-12-09 17:00","2012","12","09","17:00","1.2","","-3.4","","71","","","","10","","19","","","","101.26","","","","","","NA"
"-79.22","43.25","PORT WELLER (AUT)","6136699","2012-12-09 18:00","2012","12","09","18:00","1.9","","-2.5","","73","","","","9","","20","","","","101.15","","","","","","NA"
"-79.22","43.25","PORT WELLER (AUT)","6136699","2012-12-09 19:00","2012","12","09","19:00","2.5","","-1.2","","77","","","","8","","30","","","","101.04","","","","","","NA"
"-79.22","43.25","PORT WELLER (AUT)","6136699","2012-12-09 20:00","2012","12","09","20:00","2.9","","-1.1","","75","","","","8","","41","","","","100.94","","","","","","NA"
"-79.22","43.25","PORT WELLER (AUT)","6136699","2012-12-09 21:00","2012","12","09","21:00","3.1","","-0.6","","77","","","","8","","37","","","","100.83","","","","","","NA"
"-79.22","43.25","PORT WELLER (AUT)","6136699","2012-12-09 22:00","2012","12","09","22:00","2.6","","0.4","","85","","","","8","","39","","","","100.71","","","","","","NA"
"-79.22","43.25","PORT WELLER (AUT)","6136699","2012-12-09 23:00","2012","12","09","23:00","2.2","","0.8","","90","","","","9","","37","","","","100.50","","","","","","NA"
"-79.22","43.25","PORT WELLER (AUT)","6136699","2012-12-10 00:00","2012","12","10","00:00","2.5","","1.7","","94","","","","9","","33","","","","100.42","","","","","","NA"
"-79.22","43.25","PORT WELLER (AUT)","6136699","2012-12-10 01:00","2012","12","10","01:00","2.7","","1.6","","92","","","","9","","30","","","","100.19","","","","","","NA"
"-79.22","43.25","PORT WELLER (AUT)","6136699","2012-12-10 02:00","2012","12","10","02:00","2.8","","1.6","","92","","","","9","","24","","","","100.02","","","","","","NA"
"-79.22","43.25","PORT WELLER (AUT)","6136699","2012-12-10 03:00","2012","12","10","03:00","3.1","","1.9","","92","","","","9","","15","","","","99.91","","","","","","NA"
"-79.22","43.25","PORT WELLER (AUT)","6136699","2012-12-10 04:00","2012","12","10","04:00","3.3","","2.5","","94","","","","10","","19","","","","99.74","","","","","","NA"
"-79.22","43.25","PORT WELLER (AUT)","6136699","2012-12-10 05:00","2012","12","10","05:00","3.8","","3.1","","95","","","","8","","13","","","","99.63","","","","","","NA"
"-79.22","43.25","PORT WELLER (AUT)","6136699","2012-12-10 06:00","2012","12","10","06:00","4.4","","3.7","","95","","","","8","","19","","","","99.51","","","","","","NA"
"-79.22","43.25","PORT WELLER (AUT)","6136699","2012-12-10 07:00","2012","12","10","07:00","4.4","","3.8","","96","","","","9","","13","","","","99.39","","","","","","NA"
"-79.22","43.25","PORT WELLER (AUT)","6136699","2012-12-10 08:00","2012","12","10","08:00","4.5","","4.0","","97","","","","10","","9","","","","99.27","","","","","","NA"
"-79.22","43.25","PORT WELLER (AUT)","6136699","2012-12-10 09:00","2012","12","10","09:00","4.9","","4.4","","97","","","","9","","4","","","","99.11","","","","","","NA"
"-79.22","43.25","PORT WELLER (AUT)","6136699","2012-12-10 10:00","2012","12","10","10:00","5.9","","5.5","","97","","","","33","","6","","","","99.03","","","","","","NA"
"-79.22","43.25","PORT WELLER (AUT)","6136699","2012-12-10 11:00","2012","12","10","11:00","5.6","","5.2","","97","","","","23","","4","","","","98.92","","","","","","NA"
"-79.22","43.25","PORT WELLER (AUT)","6136699","2012-12-10 12:00","2012","12","10","12:00","6.1","","5.8","","98","","","","28","","15","","","","98.98","","","","","","NA"
"-79.22","43.25","PORT WELLER (AUT)","6136699","2012-12-10 13:00","2012","12","10","13:00","5.6","","5.3","","98","","","","25","","9","","","","98.99","","","","","","NA"
"-79.22","43.25","PORT WELLER (AUT)","6136699","2012-12-10 14:00","2012","12","10","14:00","6.1","","5.8","","98","","","","26","","24","","","","99.13","","","","","","NA"
"-79.22","43.25","PORT WELLER (AUT)","6136699","2012-12-10 15:00","2012","12","10","15:00","6.2","","4.8","","91","","","","25","","19","","","","99.20","","","","","","NA"
"-79.22","43.25","PORT WELLER (AUT)","6136699","2012-12-10 16:00","2012","12","10","16:00","6.1","","3.7","","85","","","","25","","20","","","","99.24","","","","","","NA"
"-79.22","43.25","PORT WELLER (AUT)","6136699","2012-12-10 17:00","2012","12","10","17:00","5.9","","3.7","","86","","","","24","","11","","","","99.13","","","","","","NA"
"-79.22","43.25","PORT WELLER (AUT)","6136699","2012-12-10 18:00","2012","12","10","18:00","5.9","","3.5","","85","","","","25","","11","","","","99.16","","","","","","NA"
"-79.22","43.25","PORT WELLER (AUT)","6136699","2012-12-10 19:00","2012","12","10","19:00","5.9","","2.9","","81","","","","27","","33","","","","99.17","","","","","","NA"
"-79.22","43.25","PORT WELLER (AUT)","6136699","2012-12-10 20:00","2012","12","10","20:00","5.5","","2.3","","80","","","","28","","33","","","","99.22","","","","","","NA"
"-79.22","43.25","PORT WELLER (AUT)","6136699","2012-12-10 21:00","2012","12","10","21:00","5.2","","1.3","","76","","","","29","","32","","","","99.30","","","","","","NA"
"-79.22","43.25","PORT WELLER (AUT)","6136699","2012-12-10 22:00","2012","12","10","22:00","4.8","","0.7","","75","","","","27","","26","","","","99.38","","","","","","NA"
"-79.22","43.25","PORT WELLER (AUT)","6136699","2012-12-10 23:00","2012","12","10","23:00","4.8","","0.9","","76","","","","26","","19","","","","99.45","","","","","","NA"
"-79.22","43.25","PORT WELLER (AUT)","6136699","2012-12-11 00:00","2012","12","11","00:00","4.4","","-0.5","","70","","","","30","","32","","","","99.53","","","","","","NA"
"-79.22","43.25","PORT WELLER (AUT)","6136699","2012-12-11 01:00","2012","12","11","01:00","3.9","","-0.7","","72","","","","31","","32","","","","99.61","","","","","","NA"
"-79.22","43.25","PORT WELLER (AUT)","6136699","2012-12-11 02:00","2012","12","11","02:00","3.4","","-1.5","","70","","","","30","","35","","","","99.67","","","","","","NA"
"-79.22","43.25","PORT WELLER (AUT)","6136699","2012-12-11 03:00","2012","12","11","03:00","2.9","","-1.6","","72","","","","31","","33","","","","99.73","","","","","","NA"
"-79.22","43.25","PORT WELLER (AUT)","6136699","2012-12-11 04:00","2012","12","11","04:00","2.3","","-2.6","","70","","","","31","","37","","","","99.81","","","","","","NA"
"-79.22","43.25","PORT WELLER (AUT)","6136699","2012-12-11 05:00","2012","12","11","05:00","1.9","","-2.8","","71","","","","31","","30","","","","99.90","","","","","","NA"
"-79.22","43.25","PORT WELLER (AUT)","6136699","2012-12-11 06:00","2012","12","11","06:00","1.6","","-3.6","","68","","","","31","","22","","","","99.98","","","","","","NA"
"-79.22","43.25","PORT WELLER (AUT)","6136699","2012-12-11 07:00","2012","12","11","07:00","1.2","","-4.4","","66","","","","30","","22","","","","100.01","","","","","","NA"
"-79.22","43.25","PORT WELLER (AUT)","6136699","2012-12-11 08:00","2012","12","11","08:00","0.5","","-4.5","","69","","","","31","","28","","","","100.10","","","","","","NA"
"-79.22","43.25","PORT WELLER (AUT)","6136699","2012-12-11 09:00","2012","12","11","09:00","0.2","","-4.3","","72","","","","32","","24","","","","100.16","","","","","","NA"
"-79.22","43.25","PORT WELLER (AUT)","6136699","2012-12-11 10:00","2012","12","11","10:00","0.1","","-4.5","","71","","","","30","","20","","","","100.26","","","","","","NA"
"-79.22","43.25","PORT WELLER (AUT)","6136699","2012-12-11 11:00","2012","12","11","11:00","0.0","","-4.0","","74","","","","32","","19","","","","100.32","","","","-5","","NA"
"-79.22","43.25","PORT WELLER (AUT)","6136699","2012-12-11 12:00","2012","12","11","12:00","0.0","","-5.5","","66","","","","28","","24","","","","100.41","","","","-6","","NA"
"-79.22","43.25","PORT WELLER (AUT)","6136699","2012-12-11 13:00","2012","12","11","13:00","-0.3","","-3.9","","77","","","","33","","13","","","","100.47","","","","-4","","NA"
"-79.22","43.25","PORT WELLER (AUT)","6136699","2012-12-11 14:00","2012","12","11","14:00","-0.4","","-4.4","","74","","","","32","","13","","","","100.57","","","","-5","","NA"
"-79.22","43.25","PORT WELLER (AUT)","6136699","2012-12-11 15:00","2012","12","11","15:00","-0.8","","-3.4","","83","","","","35","","9","","","","100.65","","","","-4","","NA"
"-79.22","43.25","PORT WELLER (AUT)","6136699","2012-12-11 16:00","2012","12","11","16:00","-1.1","","-2.9","","88","","","","7","","7","","","","100.70","","","","-4","","NA"
"-79.22","43.25","PORT WELLER (AUT)","6136699","2012-12-11 17:00","2012","12","11","17:00","-1.3","","-2.8","","90","","","","9","","7","","","","100.69","","","","-4","","NA"
"-79.22","43.25","PORT WELLER (AUT)","6136699","2012-12-11 18:00","2012","12","11","18:00","-0.9","","-3.0","","86","","","","8","","9","","","","100.68","","","","-4","","NA"
"-79.22","43.25","PORT WELLER (AUT)","6136699","2012-12-11 19:00","2012","12","11","19:00","-0.5","","-3.1","","83","","","","8","","4","","","","100.73","","","","-2","","NA"
"-79.22","43.25","PORT WELLER (AUT)","6136699","2012-12-11 20:00","2012","12","11","20:00","0.1","","-2.9","","80","","","","","","0","","","","100.77","","","","","","NA"
"-79.22","43.25","PORT WELLER (AUT)","6136699","2012-12-11 21:00","2012","12","11","21:00","0.4","","-2.6","","80","","","","7","","4","","","","100.82","","","","","","NA"
"-79.22","43.25","PORT WELLER (AUT)","6136699","2012-12-11 22:00","2012","12","11","22:00","0.2","","-2.8","","80","","","","13","","4","","","","100.87","","","","","","NA"
"-79.22","43.25","PORT WELLER (AUT)","6136699","2012-12-11 23:00","2012","12","11","23:00","0.1","","-2.8","","81","","","","16","","6","","","","100.94","","","","","","NA"
"-79.22","43.25","PORT WELLER (AUT)","6136699","2012-12-12 00:00","2012","12","12","00:00","1.3","","-4.1","","67","","","","25","","15","","","","101.02","","","","","","NA"
"-79.22","43.25","PORT WELLER (AUT)","6136699","2012-12-12 01:00","2012","12","12","01:00","1.2","","-4.0","","68","","","","26","","15","","","","101.00","","","","","","NA"
"-79.22","43.25","PORT WELLER (AUT)","6136699","2012-12-12 02:00","2012","12","12","02:00","0.5","","-4.2","","71","","","","18","","9","","","","101.06","","","","","","NA"
"-79.22","43.25","PORT WELLER (AUT)","6136699","2012-12-12 03:00","2012","12","12","03:00","0.7","","-4.4","","69","","","","18","","9","","","","101.09","","","","","","NA"
"-79.22","43.25","PORT WELLER (AUT)","6136699","2012-12-12 04:00","2012","12","12","04:00","0.5","","-3.3","","76","","","","16","","9","","","","101.11","","","","","","NA"
"-79.22","43.25","PORT WELLER (AUT)","6136699","2012-12-12 05:00","2012","12","12","05:00","0.9","","-4.1","","69","","","","19","","9","","","","101.17","","","","","","NA"
"-79.22","43.25","PORT WELLER (AUT)","6136699","2012-12-12 06:00","2012","12","12","06:00","1.9","","-3.3","","68","","","","26","","28","","","","101.19","","","","","","NA"
"-79.22","43.25","PORT WELLER (AUT)","6136699","2012-12-12 07:00","2012","12","12","07:00","1.4","","-3.6","","69","","","","25","","17","","","","101.24","","","","","","NA"
"-79.22","43.25","PORT WELLER (AUT)","6136699","2012-12-12 08:00","2012","12","12","08:00","0.9","","-3.9","","70","","","","25","","15","","","","101.32","","","","","","NA"
"-79.22","43.25","PORT WELLER (AUT)","6136699","2012-12-12 09:00","2012","12","12","09:00","1.2","","-3.4","","71","","","","25","","22","","","","101.35","","","","","","NA"
"-79.22","43.25","PORT WELLER (AUT)","6136699","2012-12-12 10:00","2012","12","12","10:00","1.3","","-3.7","","69","","","","25","","20","","","","101.38","","","","","","NA"
"-79.22","43.25","PORT WELLER (AUT)","6136699","2012-12-12 11:00","2012","12","12","11:00","1.5","","-3.3","","70","","","","25","","19","","","","101.43","","","","","","NA"
"-79.22","43.25","PORT WELLER (AUT)","6136699","2012-12-12 12:00","2012","12","12","12:00","1.3","","-3.4","","71","","","","24","","13","","","","101.52","","","","","","NA"
"-79.22","43.25","PORT WELLER (AUT)","6136699","2012-12-12 13:00","2012","12","12","13:00","1.1","","-2.9","","75","","","","23","","13","","","","101.56","","","","","","NA"
"-79.22","43.25","PORT WELLER (AUT)","6136699","2012-12-12 14:00","2012","12","12","14:00","1.8","","-2.8","","71","","","","23","","11","","","","101.57","","","","","","NA"
"-79.22","43.25","PORT WELLER (AUT)","6136699","2012-12-12 15:00","2012","12","12","15:00","3.2","","-2.2","","68","","","","23","","13","","","","101.61","","","","","","NA"
"-79.22","43.25","PORT WELLER (AUT)","6136699","2012-12-12 16:00","2012","12","12","16:00","4.2","","-1.5","","66","","","","23","","15","","","","101.66","","","","","","NA"
"-79.22","43.25","PORT WELLER (AUT)","6136699","2012-12-12 17:00","2012","12","12","17:00","4.7","","-1.1","","66","","","","23","","15","","","","101.66","","","","","","NA"
"-79.22","43.25","PORT WELLER (AUT)","6136699","2012-12-12 18:00","2012","12","12","18:00","5.2","","-0.7","","66","","","","25","","15","","","","101.69","","","","","","NA"
"-79.22","43.25","PORT WELLER (AUT)","6136699","2012-12-12 19:00","2012","12","12","19:00","5.7","","-1.2","","61","","","","23","","13","","","","101.68","","","","","","NA"
"-79.22","43.25","PORT WELLER (AUT)","6136699","2012-12-12 20:00","2012","12","12","20:00","5.0","","-0.7","","67","","","","24","","13","","","","101.75","","","","","","NA"
"-79.22","43.25","PORT WELLER (AUT)","6136699","2012-12-12 21:00","2012","12","12","21:00","5.1","","-0.7","","66","","","","26","","22","","","","101.78","","","","","","NA"
"-79.22","43.25","PORT WELLER (AUT)","6136699","2012-12-12 22:00","2012","12","12","22:00","4.3","","-1.2","","67","","","","27","","19","","","","101.80","","","","","","NA"
"-79.22","43.25","PORT WELLER (AUT)","6136699","2012-12-12 23:00","2012","12","12","23:00","3.4","","-0.5","","76","","","","20","","6","","","","101.87","","","","","","NA"
"-79.22","43.25","PORT WELLER (AUT)","6136699","2012-12-13 00:00","2012","12","13","00:00","2.8","","-0.5","","79","","","","23","","6","","","","101.87","","","","","","NA"
"-79.22","43.25","PORT WELLER (AUT)","6136699","2012-12-13 01:00","2012","12","13","01:00","2.7","","0.0","","82","","","","23","","6","","","","101.93","","","","","","NA"
"-79.22","43.25","PORT WELLER (AUT)","6136699","2012-12-13 02:00","2012","12","13","02:00","2.2","","-0.5","","82","","","","22","","6","","","","101.94","","","","","","NA"
"-79.22","43.25","PORT WELLER (AUT)","6136699","2012-12-13 03:00","2012","12","13","03:00","1.8","","-1.0","","82","","","","19","","6","","","","101.94","","","","","","NA"
"-79.22","43.25","PORT WELLER (AUT)","6136699","2012-12-13 04:00","2012","12","13","04:00","1.9","","-0.8","","82","","","","19","","6","","","","101.97","","","","","","NA"
"-79.22","43.25","PORT WELLER (AUT)","6136699","2012-12-13 05:00","2012","12","13","05:00","1.8","","-0.4","","85","","","","21","","6","","","","102.01","","","","","","NA"
"-79.22","43.25","PORT WELLER (AUT)","6136699","2012-12-13 06:00","2012","12","13","06:00","1.9","","-0.5","","84","","","","21","","7","","","","101.95","","","","","","NA"
"-79.22","43.25","PORT WELLER (AUT)","6136699","2012-12-13 07:00","2012","12","13","07:00","2.0","","-0.9","","81","","","","19","","7","","","","101.93","","","","","","NA"
"-79.22","43.25","PORT WELLER (AUT)","6136699","2012-12-13 08:00","2012","12","13","08:00","1.5","","-1.6","","80","","","","18","","7","","","","101.97","","","","","","NA"
"-79.22","43.25","PORT WELLER (AUT)","6136699","2012-12-13 09:00","2012","12","13","09:00","1.6","","-1.9","","78","","","","19","","7","","","","101.95","","","","","","NA"
"-79.22","43.25","PORT WELLER (AUT)","6136699","2012-12-13 10:00","2012","12","13","10:00","1.9","","-1.5","","78","","","","20","","7","","","","102.00","","","","","","NA"
"-79.22","43.25","PORT WELLER (AUT)","6136699","2012-12-13 11:00","2012","12","13","11:00","2.2","","-1.9","","74","","","","19","","9","","","","102.01","","","","","","NA"
"-79.22","43.25","PORT WELLER (AUT)","6136699","2012-12-13 12:00","2012","12","13","12:00","1.8","","-1.3","","80","","","","16","","7","","","","102.00","","","","","","NA"
"-79.22","43.25","PORT WELLER (AUT)","6136699","2012-12-13 13:00","2012","12","13","13:00","2.7","","-1.6","","73","","","","19","","15","","","","101.98","","","","","","NA"
"-79.22","43.25","PORT WELLER (AUT)","6136699","2012-12-13 14:00","2012","12","13","14:00","4.0","","-1.5","","67","","","","19","","11","","","","101.96","","","","","","NA"
"-79.22","43.25","PORT WELLER (AUT)","6136699","2012-12-13 15:00","2012","12","13","15:00","5.4","","-0.5","","66","","","","19","","13","","","","101.94","","","","","","NA"
"-79.22","43.25","PORT WELLER (AUT)","6136699","2012-12-13 16:00","2012","12","13","16:00","6.3","","-1.6","","57","","","","22","","13","","","","101.91","","","","","","NA"
"-79.22","43.25","PORT WELLER (AUT)","6136699","2012-12-13 17:00","2012","12","13","17:00","6.8","","-2.7","","51","","","","23","","13","","","","101.79","","","","","","NA"
"-79.22","43.25","PORT WELLER (AUT)","6136699","2012-12-13 18:00","2012","12","13","18:00","7.1","","-2.3","","51","","","","22","","13","","","","101.75","","","","","","NA"
"-79.22","43.25","PORT WELLER (AUT)","6136699","2012-12-13 19:00","2012","12","13","19:00","7.4","","-3.3","","47","","","","21","","11","","","","101.67","","","","","","NA"
"-79.22","43.25","PORT WELLER (AUT)","6136699","2012-12-13 20:00","2012","12","13","20:00","7.1","","-3.5","","47","","","","21","","15","","","","101.61","","","","","","NA"
"-79.22","43.25","PORT WELLER (AUT)","6136699","2012-12-13 21:00","2012","12","13","21:00","6.0","","-2.2","","56","","","","22","","13","","","","101.60","","","","","","NA"
"-79.22","43.25","PORT WELLER (AUT)","6136699","2012-12-13 22:00","2012","12","13","22:00","4.7","","-2.4","","60","","","","20","","9","","","","101.56","","","","","","NA"
"-79.22","43.25","PORT WELLER (AUT)","6136699","2012-12-13 23:00","2012","12","13","23:00","4.0","","-2.2","","64","","","","20","","9","","","","101.53","","","","","","NA"
"-79.22","43.25","PORT WELLER (AUT)","6136699","2012-12-14 00:00","2012","12","14","00:00","3.6","","-2.0","","67","","","","20","","7","","","","101.49","","","","","","NA"
"-79.22","43.25","PORT WELLER (AUT)","6136699","2012-12-14 01:00","2012","12","14","01:00","3.6","","-2.5","","64","","","","20","","7","","","","101.43","","","","","","NA"
"-79.22","43.25","PORT WELLER (AUT)","6136699","2012-12-14 02:00","2012","12","14","02:00","4.3","","-1.6","","65","","","","19","","13","","","","101.33","","","","","","NA"
"-79.22","43.25","PORT WELLER (AUT)","6136699","2012-12-14 03:00","2012","12","14","03:00","4.8","","-1.8","","62","","","","20","","9","","","","101.26","","","","","","NA"
"-79.22","43.25","PORT WELLER (AUT)","6136699","2012-12-14 04:00","2012","12","14","04:00","5.4","","-2.9","","55","","","","20","","15","","","","101.19","","","","","","NA"
"-79.22","43.25","PORT WELLER (AUT)","6136699","2012-12-14 05:00","2012","12","14","05:00","5.1","","-2.3","","59","","","","21","","17","","","","101.18","","","","","","NA"
"-79.22","43.25","PORT WELLER (AUT)","6136699","2012-12-14 06:00","2012","12","14","06:00","5.0","","-1.5","","63","","","","22","","17","","","","101.14","","","","","","NA"
"-79.22","43.25","PORT WELLER (AUT)","6136699","2012-12-14 07:00","2012","12","14","07:00","5.0","","-1.3","","64","","","","23","","13","","","","101.17","","","","","","NA"
"-79.22","43.25","PORT WELLER (AUT)","6136699","2012-12-14 08:00","2012","12","14","08:00","5.0","","-1.9","","61","","","","22","","19","","","","101.14","","","","","","NA"
"-79.22","43.25","PORT WELLER (AUT)","6136699","2012-12-14 09:00","2012","12","14","09:00","4.8","","-1.4","","64","","","","22","","19","","","","101.11","","","","","","NA"
"-79.22","43.25","PORT WELLER (AUT)","6136699","2012-12-14 10:00","2012","12","14","10:00","4.8","","-0.3","","70","","","","23","","15","","","","101.10","","","","","","NA"
"-79.22","43.25","PORT WELLER (AUT)","6136699","2012-12-14 11:00","2012","12","14","11:00","4.6","","0.2","","73","","","","24","","15","","","","101.14","","","","","","NA"
"-79.22","43.25","PORT WELLER (AUT)","6136699","2012-12-14 12:00","2012","12","14","12:00","4.1","","-0.4","","72","","","","25","","13","","","","101.16","","","","","","NA"
"-79.22","43.25","PORT WELLER (AUT)","6136699","2012-12-14 13:00","2012","12","14","13:00","3.8","","-0.9","","71","","","","25","","13","","","","101.19","","","","","","NA"
"-79.22","43.25","PORT WELLER (AUT)","6136699","2012-12-14 14:00","2012","12","14","14:00","4.1","","-0.9","","70","","","","25","","17","","","","101.25","","","","","","NA"
"-79.22","43.25","PORT WELLER (AUT)","6136699","2012-12-14 15:00","2012","12","14","15:00","4.6","","-0.3","","70","","","","26","","26","","","","101.32","","","","","","NA"
"-79.22","43.25","PORT WELLER (AUT)","6136699","2012-12-14 16:00","2012","12","14","16:00","5.1","","0.4","","72","","","","26","","20","","","","101.35","","","","","","NA"
"-79.22","43.25","PORT WELLER (AUT)","6136699","2012-12-14 17:00","2012","12","14","17:00","5.5","","0.4","","70","","","","26","","19","","","","101.32","","","","","","NA"
"-79.22","43.25","PORT WELLER (AUT)","6136699","2012-12-14 18:00","2012","12","14","18:00","6.2","","0.1","","65","","","","27","","19","","","","101.30","","","","","","NA"
"-79.22","43.25","PORT WELLER (AUT)","6136699","2012-12-14 19:00","2012","12","14","19:00","6.4","","0.7","","67","","","","29","","17","","","","101.31","","","","","","NA"
"-79.22","43.25","PORT WELLER (AUT)","6136699","2012-12-14 20:00","2012","12","14","20:00","6.7","","1.6","","70","","","","27","","11","","","","101.29","","","","","","NA"
"-79.22","43.25","PORT WELLER (AUT)","6136699","2012-12-14 21:00","2012","12","14","21:00","6.0","","1.6","","73","","","","30","","17","","","","101.33","","","","","","NA"
"-79.22","43.25","PORT WELLER (AUT)","6136699","2012-12-14 22:00","2012","12","14","22:00","4.9","","0.8","","75","","","","34","","24","","","","101.36","","","","","","NA"
"-79.22","43.25","PORT WELLER (AUT)","6136699","2012-12-14 23:00","2012","12","14","23:00","4.7","","0.1","","72","","","","33","","19","","","","101.44","","","","","","NA"
"-79.22","43.25","PORT WELLER (AUT)","6136699","2012-12-15 00:00","2012","12","15","00:00","4.6","","0.2","","73","","","","32","","13","","","","101.48","","","","","","NA"
"-79.22","43.25","PORT WELLER (AUT)","6136699","2012-12-15 01:00","2012","12","15","01:00","4.3","","0.0","","74","","","","32","","6","","","","101.46","","","","","","NA"
"-79.22","43.25","PORT WELLER (AUT)","6136699","2012-12-15 02:00","2012","12","15","02:00","3.2","","0.3","","81","","","","","","0","","","","101.50","","","","","","NA"
"-79.22","43.25","PORT WELLER (AUT)","6136699","2012-12-15 03:00","2012","12","15","03:00","2.5","","0.0","","84","","","","","","0","","","","101.53","","","","","","NA"
"-79.22","43.25","PORT WELLER (AUT)","6136699","2012-12-15 04:00","2012","12","15","04:00","2.2","","0.7","","90","","","","18","","4","","","","101.50","","","","","","NA"
"-79.22","43.25","PORT WELLER (AUT)","6136699","2012-12-15 05:00","2012","12","15","05:00","1.8","","-0.2","","87","","","","","","0","","","","101.53","","","","","","NA"
"-79.22","43.25","PORT WELLER (AUT)","6136699","2012-12-15 06:00","2012","12","15","06:00","4.0","","0.6","","78","","","","5","","17","","","","101.46","","","","","","NA"
"-79.22","43.25","PORT WELLER (AUT)","6136699","2012-12-15 07:00","2012","12","15","07:00","3.9","","0.5","","78","","","","6","","19","","","","101.46","","","","","","NA"
"-79.22","43.25","PORT WELLER (AUT)","6136699","2012-12-15 08:00","2012","12","15","08:00","1.7","","-0.1","","88","","","","12","","7","","","","101.49","","","","","","NA"
"-79.22","43.25","PORT WELLER (AUT)","6136699","2012-12-15 09:00","2012","12","15","09:00","1.4","","-0.1","","90","","","","12","","6","","","","101.47","","","","","","NA"
"-79.22","43.25","PORT WELLER (AUT)","6136699","2012-12-15 10:00","2012","12","15","10:00","1.6","","0.0","","89","","","","11","","7","","","","101.49","","","","","","NA"
"-79.22","43.25","PORT WELLER (AUT)","6136699","2012-12-15 11:00","2012","12","15","11:00","2.0","","0.1","","87","","","","9","","13","","","","101.48","","","","","","NA"
"-79.22","43.25","PORT WELLER (AUT)","6136699","2012-12-15 12:00","2012","12","15","12:00","1.4","","-0.3","","88","","","","11","","9","","","","101.48","","","","","","NA"
"-79.22","43.25","PORT WELLER (AUT)","6136699","2012-12-15 13:00","2012","12","15","13:00","1.7","","0.0","","88","","","","11","","11","","","","101.47","","","","","","NA"
"-79.22","43.25","PORT WELLER (AUT)","6136699","2012-12-15 14:00","2012","12","15","14:00","2.4","","-0.1","","84","","","","10","","15","","","","101.52","","","","","","NA"
"-79.22","43.25","PORT WELLER (AUT)","6136699","2012-12-15 15:00","2012","12","15","15:00","2.6","","0.1","","84","","","","9","","20","","","","101.49","","","","","","NA"
"-79.22","43.25","PORT WELLER (AUT)","6136699","2012-12-15 16:00","2012","12","15","16:00","3.5","","0.3","","80","","","","9","","22","","","","101.41","","","","","","NA"
"-79.22","43.25","PORT WELLER (AUT)","6136699","2012-12-15 17:00","2012","12","15","17:00","3.7","","0.4","","79","","","","9","","28","","","","101.29","","","","","","NA"
"-79.22","43.25","PORT WELLER (AUT)","6136699","2012-12-15 18:00","2012","12","15","18:00","3.9","","0.1","","76","","","","9","","22","","","","101.18","","","","","","NA"
"-79.22","43.25","PORT WELLER (AUT)","6136699","2012-12-15 19:00","2012","12","15","19:00","4.3","","0.5","","76","","","","10","","22","","","","101.05","","","","","","NA"
"-79.22","43.25","PORT WELLER (AUT)","6136699","2012-12-15 20:00","2012","12","15","20:00","4.6","","0.2","","73","","","","9","","20","","","","101.00","","","","","","NA"
"-79.22","43.25","PORT WELLER (AUT)","6136699","2012-12-15 21:00","2012","12","15","21:00","4.5","","0.6","","76","","","","9","","22","","","","100.93","","","","","","NA"
"-79.22","43.25","PORT WELLER (AUT)","6136699","2012-12-15 22:00","2012","12","15","22:00","4.4","","0.4","","75","","","","8","","28","","","","100.85","","","","","","NA"
"-79.22","43.25","PORT WELLER (AUT)","6136699","2012-12-15 23:00","2012","12","15","23:00","3.8","","0.7","","80","","","","9","","20","","","","100.95","","","","","","NA"
"-79.22","43.25","PORT WELLER (AUT)","6136699","2012-12-16 00:00","2012","12","16","00:00","3.5","","0.7","","82","","","","8","","39","","","","100.72","","","","","","NA"
"-79.22","43.25","PORT WELLER (AUT)","6136699","2012-12-16 01:00","2012","12","16","01:00","3.5","","0.6","","81","","","","10","","26","","","","100.67","","","","","","NA"
"-79.22","43.25","PORT WELLER (AUT)","6136699","2012-12-16 02:00","2012","12","16","02:00","3.7","","0.5","","80","","","","10","","19","","","","100.61","","","","","","NA"
"-79.22","43.25","PORT WELLER (AUT)","6136699","2012-12-16 03:00","2012","12","16","03:00","3.9","","0.7","","80","","","","9","","20","","","","100.49","","","","","","NA"
"-79.22","43.25","PORT WELLER (AUT)","6136699","2012-12-16 04:00","2012","12","16","04:00","3.9","","0.5","","78","","","","10","","20","","","","100.40","","","","","","NA"
"-79.22","43.25","PORT WELLER (AUT)","6136699","2012-12-16 05:00","2012","12","16","05:00","4.1","","0.6","","78","","","","9","","17","","","","100.32","","","","","","NA"
"-79.22","43.25","PORT WELLER (AUT)","6136699","2012-12-16 06:00","2012","12","16","06:00","4.3","","0.9","","79","","","","8","","24","","","","100.17","","","","","","NA"
"-79.22","43.25","PORT WELLER (AUT)","6136699","2012-12-16 07:00","2012","12","16","07:00","4.2","","0.6","","77","","","","8","","15","","","","100.11","","","","","","NA"
"-79.22","43.25","PORT WELLER (AUT)","6136699","2012-12-16 08:00","2012","12","16","08:00","4.4","","1.4","","81","","","","7","","22","","","","100.01","","","","","","NA"
"-79.22","43.25","PORT WELLER (AUT)","6136699","2012-12-16 09:00","2012","12","16","09:00","4.7","","1.7","","81","","","","7","","20","","","","99.97","","","","","","NA"
"-79.22","43.25","PORT WELLER (AUT)","6136699","2012-12-16 10:00","2012","12","16","10:00","4.7","","2.1","","83","","","","8","","20","","","","99.95","","","","","","NA"
"-79.22","43.25","PORT WELLER (AUT)","6136699","2012-12-16 11:00","2012","12","16","11:00","4.6","","2.1","","84","","","","9","","11","","","","99.90","","","","","","NA"
"-79.22","43.25","PORT WELLER (AUT)","6136699","2012-12-16 12:00","2012","12","16","12:00","5.1","","3.0","","86","","","","8","","17","","","","99.85","","","","","","NA"
"-79.22","43.25","PORT WELLER (AUT)","6136699","2012-12-16 13:00","2012","12","16","13:00","7.6","","2.7","","71","","","","15","","11","","","","99.78","","","","","","NA"
"-79.22","43.25","PORT WELLER (AUT)","6136699","2012-12-16 14:00","2012","12","16","14:00","9.0","","2.8","","65","","","","16","","26","","","","99.72","","","","","","NA"
"-79.22","43.25","PORT WELLER (AUT)","6136699","2012-12-16 15:00","2012","12","16","15:00","8.2","","4.0","","75","","","","16","","13","","","","99.74","","","","","","NA"
"-79.22","43.25","PORT WELLER (AUT)","6136699","2012-12-16 16:00","2012","12","16","16:00","9.3","","4.0","","69","","","","17","","22","","","","99.69","","","","","","NA"
"-79.22","43.25","PORT WELLER (AUT)","6136699","2012-12-16 17:00","2012","12","16","17:00","10.8","","4.6","","65","","","","18","","22","","","","99.58","","","","","","NA"
"-79.22","43.25","PORT WELLER (AUT)","6136699","2012-12-16 18:00","2012","12","16","18:00","12.4","","4.9","","60","","","","18","","26","","","","99.50","","","","","","NA"
"-79.22","43.25","PORT WELLER (AUT)","6136699","2012-12-16 19:00","2012","12","16","19:00","12.9","","4.5","","57","","","","19","","22","","","","99.47","","","","","","NA"
"-79.22","43.25","PORT WELLER (AUT)","6136699","2012-12-16 20:00","2012","12","16","20:00","13.0","","5.0","","58","","","","18","","24","","","","99.46","","","","","","NA"
"-79.22","43.25","PORT WELLER (AUT)","6136699","2012-12-16 21:00","2012","12","16","21:00","11.4","","4.7","","63","","","","18","","24","","","","99.46","","","","","","NA"
"-79.22","43.25","PORT WELLER (AUT)","6136699","2012-12-16 22:00","2012","12","16","22:00","10.5","","5.3","","70","","","","17","","24","","","","99.43","","","","","","NA"
"-79.22","43.25","PORT WELLER (AUT)","6136699","2012-12-16 23:00","2012","12","16","23:00","10.1","","5.6","","74","","","","16","","24","","","","99.46","","","","","","NA"
"-79.22","43.25","PORT WELLER (AUT)","6136699","2012-12-17 00:00","2012","12","17","00:00","10.0","","5.8","","75","","","","17","","20","","","","99.49","","","","","","NA"
"-79.22","43.25","PORT WELLER (AUT)","6136699","2012-12-17 01:00","2012","12","17","01:00","9.8","","5.7","","76","","","","16","","24","","","","99.46","","","","","","NA"
"-79.22","43.25","PORT WELLER (AUT)","6136699","2012-12-17 02:00","2012","12","17","02:00","9.6","","5.7","","77","","","","15","","24","","","","99.46","","","","","","NA"
"-79.22","43.25","PORT WELLER (AUT)","6136699","2012-12-17 03:00","2012","12","17","03:00","9.4","","6.1","","80","","","","16","","24","","","","99.47","","","","","","NA"
"-79.22","43.25","PORT WELLER (AUT)","6136699","2012-12-17 04:00","2012","12","17","04:00","9.1","","5.9","","80","","","","17","","24","","","","99.48","","","","","","NA"
"-79.22","43.25","PORT WELLER (AUT)","6136699","2012-12-17 05:00","2012","12","17","05:00","8.5","","5.8","","83","","","","18","","20","","","","99.47","","","","","","NA"
"-79.22","43.25","PORT WELLER (AUT)","6136699","2012-12-17 06:00","2012","12","17","06:00","9.3","","6.5","","83","","","","17","","19","","","","99.44","","","","","","NA"
"-79.22","43.25","PORT WELLER (AUT)","6136699","2012-12-17 07:00","2012","12","17","07:00","9.0","","6.1","","82","","","","18","","19","","","","99.44","","","","","","NA"
"-79.22","43.25","PORT WELLER (AUT)","6136699","2012-12-17 08:00","2012","12","17","08:00","9.6","","6.9","","83","","","","18","","22","","","","99.49","","","","","","NA"
"-79.22","43.25","PORT WELLER (AUT)","6136699","2012-12-17 09:00","2012","12","17","09:00","8.1","","6.4","","89","","","","18","","19","","","","99.44","","","","","","NA"
"-79.22","43.25","PORT WELLER (AUT)","6136699","2012-12-17 10:00","2012","12","17","10:00","8.5","","5.8","","83","","","","21","","9","","","","99.50","","","","","","NA"
"-79.22","43.25","PORT WELLER (AUT)","6136699","2012-12-17 11:00","2012","12","17","11:00","8.7","","6.1","","84","","","","19","","11","","","","99.50","","","","","","NA"
"-79.22","43.25","PORT WELLER (AUT)","6136699","2012-12-17 12:00","2012","12","17","12:00","8.0","","5.3","","83","","","","22","","11","","","","99.55","","","","","","NA"
"-79.22","43.25","PORT WELLER (AUT)","6136699","2012-12-17 13:00","2012","12","17","13:00","7.7","","5.0","","83","","","","23","","9","","","","99.60","","","","","","NA"
"-79.22","43.25","PORT WELLER (AUT)","6136699","2012-12-17 14:00","2012","12","17","14:00","7.1","","4.6","","84","","","","23","","7","","","","99.64","","","","","","NA"
"-79.22","43.25","PORT WELLER (AUT)","6136699","2012-12-17 15:00","2012","12","17","15:00","7.5","","3.6","","76","","","","26","","26","","","","99.70","","","","","","NA"
"-79.22","43.25","PORT WELLER (AUT)","6136699","2012-12-17 16:00","2012","12","17","16:00","7.1","","4.0","","81","","","","28","","26","","","","99.73","","","","","","NA"
"-79.22","43.25","PORT WELLER (AUT)","6136699","2012-12-17 17:00","2012","12","17","17:00","7.2","","4.7","","84","","","","25","","7","","","","99.66","","","","","","NA"
"-79.22","43.25","PORT WELLER (AUT)","6136699","2012-12-17 18:00","2012","12","17","18:00","7.5","","3.8","","77","","","","23","","4","","","","99.56","","","","","","NA"
"-79.22","43.25","PORT WELLER (AUT)","6136699","2012-12-17 19:00","2012","12","17","19:00","7.3","","3.6","","77","","","","27","","4","","","","99.54","","","","","","NA"
"-79.22","43.25","PORT WELLER (AUT)","6136699","2012-12-17 20:00","2012","12","17","20:00","6.7","","4.1","","83","","","","33","","6","","","","99.50","","","","","","NA"
"-79.22","43.25","PORT WELLER (AUT)","6136699","2012-12-17 21:00","2012","12","17","21:00","6.4","","4.2","","86","","","","3","","6","","","","99.50","","","","","","NA"
"-79.22","43.25","PORT WELLER (AUT)","6136699","2012-12-17 22:00","2012","12","17","22:00","6.2","","4.0","","86","","","","10","","6","","","","99.52","","","","","","NA"
"-79.22","43.25","PORT WELLER (AUT)","6136699","2012-12-17 23:00","2012","12","17","23:00","6.1","","4.2","","88","","","","6","","11","","","","99.46","","","","","","NA"
"-79.22","43.25","PORT WELLER (AUT)","6136699","2012-12-18 00:00","2012","12","18","00:00","6.5","","3.8","","83","","","","10","","9","","","","99.46","","","","","","NA"
"-79.22","43.25","PORT WELLER (AUT)","6136699","2012-12-18 01:00","2012","12","18","01:00","6.1","","4.4","","89","","","","7","","13","","","","99.43","","","","","","NA"
"-79.22","43.25","PORT WELLER (AUT)","6136699","2012-12-18 02:00","2012","12","18","02:00","5.9","","4.7","","92","","","","6","","11","","","","99.34","","","","","","NA"
"-79.22","43.25","PORT WELLER (AUT)","6136699","2012-12-18 03:00","2012","12","18","03:00","5.9","","4.9","","93","","","","7","","15","","","","99.27","","","","","","NA"
"-79.22","43.25","PORT WELLER (AUT)","6136699","2012-12-18 04:00","2012","12","18","04:00","5.9","","5.0","","94","","","","6","","15","","","","99.20","","","","","","NA"
"-79.22","43.25","PORT WELLER (AUT)","6136699","2012-12-18 05:00","2012","12","18","05:00","5.8","","5.2","","96","","","","5","","11","","","","99.14","","","","","","NA"
"-79.22","43.25","PORT WELLER (AUT)","6136699","2012-12-18 06:00","2012","12","18","06:00","5.9","","5.3","","96","","","","36","","11","","","","99.08","","","","","","NA"
"-79.22","43.25","PORT WELLER (AUT)","6136699","2012-12-18 07:00","2012","12","18","07:00","5.8","","5.3","","97","","","","35","","19","","","","99.06","","","","","","NA"
"-79.22","43.25","PORT WELLER (AUT)","6136699","2012-12-18 08:00","2012","12","18","08:00","5.6","","5.1","","97","","","","33","","20","","","","99.04","","","","","","NA"
"-79.22","43.25","PORT WELLER (AUT)","6136699","2012-12-18 09:00","2012","12","18","09:00","5.6","","4.9","","95","","","","32","","19","","","","98.99","","","","","","NA"
"-79.22","43.25","PORT WELLER (AUT)","6136699","2012-12-18 10:00","2012","12","18","10:00","5.6","","4.8","","95","","","","32","","22","","","","98.97","","","","","","NA"
"-79.22","43.25","PORT WELLER (AUT)","6136699","2012-12-18 11:00","2012","12","18","11:00","5.5","","4.7","","95","","","","34","","22","","","","98.96","","","","","","NA"
"-79.22","43.25","PORT WELLER (AUT)","6136699","2012-12-18 12:00","2012","12","18","12:00","5.6","","4.7","","94","","","","34","","24","","","","98.99","","","","","","NA"
"-79.22","43.25","PORT WELLER (AUT)","6136699","2012-12-18 13:00","2012","12","18","13:00","5.4","","4.5","","94","","","","31","","30","","","","99.05","","","","","","NA"
"-79.22","43.25","PORT WELLER (AUT)","6136699","2012-12-18 14:00","2012","12","18","14:00","5.4","","4.3","","93","","","","31","","33","","","","99.10","","","","","","NA"
"-79.22","43.25","PORT WELLER (AUT)","6136699","2012-12-18 15:00","2012","12","18","15:00","5.4","","4.0","","91","","","","30","","30","","","","99.17","","","","","","NA"
"-79.22","43.25","PORT WELLER (AUT)","6136699","2012-12-18 16:00","2012","12","18","16:00","5.6","","3.7","","88","","","","30","","28","","","","99.22","","","","","","NA"
"-79.22","43.25","PORT WELLER (AUT)","6136699","2012-12-18 17:00","2012","12","18","17:00","5.8","","3.1","","83","","","","28","","32","","","","99.21","","","","","","NA"
"-79.22","43.25","PORT WELLER (AUT)","6136699","2012-12-18 18:00","2012","12","18","18:00","6.1","","2.8","","79","","","","28","","32","","","","99.24","","","","","","NA"
"-79.22","43.25","PORT WELLER (AUT)","6136699","2012-12-18 19:00","2012","12","18","19:00","6.3","","2.7","","78","","","","28","","30","","","","99.28","","","","","","NA"
"-79.22","43.25","PORT WELLER (AUT)","6136699","2012-12-18 20:00","2012","12","18","20:00","6.1","","2.7","","79","","","","28","","30","","","","99.34","","","","","","NA"
"-79.22","43.25","PORT WELLER (AUT)","6136699","2012-12-18 21:00","2012","12","18","21:00","5.8","","2.4","","79","","","","29","","19","","","","99.42","","","","","","NA"
"-79.22","43.25","PORT WELLER (AUT)","6136699","2012-12-18 22:00","2012","12","18","22:00","5.9","","2.6","","79","","","","27","","26","","","","99.48","","","","","","NA"
"-79.22","43.25","PORT WELLER (AUT)","6136699","2012-12-18 23:00","2012","12","18","23:00","5.9","","1.6","","74","","","","29","","28","","","","99.54","","","","","","NA"
"-79.22","43.25","PORT WELLER (AUT)","6136699","2012-12-19 00:00","2012","12","19","00:00","5.8","","1.7","","75","","","","29","","22","","","","99.62","","","","","","NA"
"-79.22","43.25","PORT WELLER (AUT)","6136699","2012-12-19 01:00","2012","12","19","01:00","5.6","","1.9","","77","","","","27","","32","","","","99.68","","","","","","NA"
"-79.22","43.25","PORT WELLER (AUT)","6136699","2012-12-19 02:00","2012","12","19","02:00","5.1","","1.4","","77","","","","28","","32","","","","99.72","","","","","","NA"
"-79.22","43.25","PORT WELLER (AUT)","6136699","2012-12-19 03:00","2012","12","19","03:00","4.2","","1.4","","82","","","","25","","19","","","","99.75","","","","","","NA"
"-79.22","43.25","PORT WELLER (AUT)","6136699","2012-12-19 04:00","2012","12","19","04:00","3.8","","1.0","","82","","","","25","","19","","","","99.80","","","","","","NA"
"-79.22","43.25","PORT WELLER (AUT)","6136699","2012-12-19 05:00","2012","12","19","05:00","3.3","","0.4","","81","","","","25","","17","","","","99.81","","","","","","NA"
"-79.22","43.25","PORT WELLER (AUT)","6136699","2012-12-19 06:00","2012","12","19","06:00","3.0","","0.2","","82","","","","25","","17","","","","99.79","","","","","","NA"
"-79.22","43.25","PORT WELLER (AUT)","6136699","2012-12-19 07:00","2012","12","19","07:00","3.0","","0.6","","84","","","","26","","20","","","","99.84","","","","","","NA"
"-79.22","43.25","PORT WELLER (AUT)","6136699","2012-12-19 08:00","2012","12","19","08:00","3.6","","0.8","","82","","","","28","","28","","","","99.92","","","","","","NA"
"-79.22","43.25","PORT WELLER (AUT)","6136699","2012-12-19 09:00","2012","12","19","09:00","3.5","","0.7","","82","","","","29","","24","","","","99.96","","","","","","NA"
"-79.22","43.25","PORT WELLER (AUT)","6136699","2012-12-19 10:00","2012","12","19","10:00","3.6","","0.7","","81","","","","28","","20","","","","99.98","","","","","","NA"
"-79.22","43.25","PORT WELLER (AUT)","6136699","2012-12-19 11:00","2012","12","19","11:00","3.9","","0.9","","81","","","","29","","20","","","","100.03","","","","","","NA"
"-79.22","43.25","PORT WELLER (AUT)","6136699","2012-12-19 12:00","2012","12","19","12:00","4.1","","1.0","","80","","","","29","","22","","","","100.17","","","","","","NA"
"-79.22","43.25","PORT WELLER (AUT)","6136699","2012-12-19 13:00","2012","12","19","13:00","4.2","","0.9","","79","","","","29","","24","","","","100.26","","","","","","NA"
"-79.22","43.25","PORT WELLER (AUT)","6136699","2012-12-19 14:00","2012","12","19","14:00","4.4","","0.2","","74","","","","30","","15","","","","100.33","","","","","","NA"
"-79.22","43.25","PORT WELLER (AUT)","6136699","2012-12-19 15:00","2012","12","19","15:00","4.6","","-0.3","","70","","","","29","","19","","","","100.43","","","","","","NA"
"-79.22","43.25","PORT WELLER (AUT)","6136699","2012-12-19 16:00","2012","12","19","16:00","4.9","","-0.4","","69","","","","29","","15","","","","100.48","","","","","","NA"
"-79.22","43.25","PORT WELLER (AUT)","6136699","2012-12-19 17:00","2012","12","19","17:00","5.1","","0.3","","71","","","","27","","13","","","","100.54","","","","","","NA"
"-79.22","43.25","PORT WELLER (AUT)","6136699","2012-12-19 18:00","2012","12","19","18:00","5.4","","-0.3","","67","","","","28","","19","","","","100.63","","","","","","NA"
"-79.22","43.25","PORT WELLER (AUT)","6136699","2012-12-19 19:00","2012","12","19","19:00","5.2","","-1.1","","64","","","","26","","9","","","","100.67","","","","","","NA"
"-79.22","43.25","PORT WELLER (AUT)","6136699","2012-12-19 20:00","2012","12","19","20:00","5.4","","-1.3","","62","","","","29","","13","","","","100.75","","","","","","NA"
"-79.22","43.25","PORT WELLER (AUT)","6136699","2012-12-19 21:00","2012","12","19","21:00","5.3","","-0.2","","68","","","","28","","9","","","","100.81","","","","","","NA"
"-79.22","43.25","PORT WELLER (AUT)","6136699","2012-12-19 22:00","2012","12","19","22:00","5.3","","1.6","","77","","","","26","","9","","","","100.90","","","","","","NA"
"-79.22","43.25","PORT WELLER (AUT)","6136699","2012-12-19 23:00","2012","12","19","23:00","5.5","","1.2","","74","","","","31","","13","","","","100.95","","","","","","NA"
"-79.22","43.25","PORT WELLER (AUT)","6136699","2012-12-20 00:00","2012","12","20","00:00","5.3","","1.0","","74","","","","5","","15","","","","101.03","","","","","","NA"
"-79.22","43.25","PORT WELLER (AUT)","6136699","2012-12-20 01:00","2012","12","20","01:00","4.9","","0.0","","71","","","","8","","17","","","","101.11","","","","","","NA"
"-79.22","43.25","PORT WELLER (AUT)","6136699","2012-12-20 02:00","2012","12","20","02:00","4.1","","-0.4","","72","","","","11","","6","","","","101.18","","","","","","NA"
"-79.22","43.25","PORT WELLER (AUT)","6136699","2012-12-20 03:00","2012","12","20","03:00","3.8","","-0.9","","71","","","","12","","6","","","","101.18","","","","","","NA"
"-79.22","43.25","PORT WELLER (AUT)","6136699","2012-12-20 04:00","2012","12","20","04:00","3.7","","-0.8","","72","","","","12","","9","","","","101.20","","","","","","NA"
"-79.22","43.25","PORT WELLER (AUT)","6136699","2012-12-20 05:00","2012","12","20","05:00","3.4","","-1.3","","71","","","","11","","11","","","","101.17","","","","","","NA"
"-79.22","43.25","PORT WELLER (AUT)","6136699","2012-12-20 06:00","2012","12","20","06:00","2.9","","-1.4","","73","","","","9","","9","","","","101.16","","","","","","NA"
"-79.22","43.25","PORT WELLER (AUT)","6136699","2012-12-20 07:00","2012","12","20","07:00","2.2","","-2.1","","73","","","","14","","11","","","","101.14","","","","","","NA"
"-79.22","43.25","PORT WELLER (AUT)","6136699","2012-12-20 08:00","2012","12","20","08:00","2.2","","-2.0","","74","","","","14","","11","","","","101.15","","","","","","NA"
"-79.22","43.25","PORT WELLER (AUT)","6136699","2012-12-20 09:00","2012","12","20","09:00","2.2","","-1.8","","75","","","","12","","15","","","","101.08","","","","","","NA"
"-79.22","43.25","PORT WELLER (AUT)","6136699","2012-12-20 10:00","2012","12","20","10:00","2.1","","-1.6","","76","","","","13","","13","","","","101.05","","","","","","NA"
"-79.22","43.25","PORT WELLER (AUT)","6136699","2012-12-20 11:00","2012","12","20","11:00","1.9","","-1.7","","77","","","","11","","17","","","","100.98","","","","","","NA"
"-79.22","43.25","PORT WELLER (AUT)","6136699","2012-12-20 12:00","2012","12","20","12:00","1.9","","-2.1","","75","","","","12","","19","","","","100.99","","","","","","NA"
"-79.22","43.25","PORT WELLER (AUT)","6136699","2012-12-20 13:00","2012","12","20","13:00","2.8","","-2.0","","71","","","","11","","20","","","","100.87","","","","","","NA"
"-79.22","43.25","PORT WELLER (AUT)","6136699","2012-12-20 14:00","2012","12","20","14:00","2.6","","-2.9","","67","","","","10","","28","","","","100.80","","","","","","NA"
"-79.22","43.25","PORT WELLER (AUT)","6136699","2012-12-20 15:00","2012","12","20","15:00","3.2","","-2.6","","66","","","","9","","32","","","","100.60","","","","","","NA"
"-79.22","43.25","PORT WELLER (AUT)","6136699","2012-12-20 16:00","2012","12","20","16:00","3.3","","-3.5","","61","","","","9","","32","","","","100.46","","","","","","NA"
"-79.22","43.25","PORT WELLER (AUT)","6136699","2012-12-20 17:00","2012","12","20","17:00"
"-79.22","43.25","PORT WELLER (AUT)","6136699","2012-12-20 18:00","2012","12","20","18:00"
"-79.22","43.25","PORT WELLER (AUT)","6136699","2012-12-20 19:00","2012","12","20","19:00"
"-79.22","43.25","PORT WELLER (AUT)","6136699","2012-12-20 20:00","2012","12","20","20:00"
"-79.22","43.25","PORT WELLER (AUT)","6136699","2012-12-20 21:00","2012","12","20","21:00","3.8","","-2.0","","66","","","","8","","33","","","","99.49","","","","","","NA"
"-79.22","43.25","PORT WELLER (AUT)","6136699","2012-12-20 22:00","2012","12","20","22:00","3.2","","-1.1","","73","","","","9","","24","","","","99.35","","","","","","NA"
"-79.22","43.25","PORT WELLER (AUT)","6136699","2012-12-20 23:00","2012","12","20","23:00","2.6","","0.6","","87","","","","9","","26","","","","99.09","","","","","","NA"
"-79.22","43.25","PORT WELLER (AUT)","6136699","2012-12-21 00:00","2012","12","21","00:00","3.4","","1.4","","87","","","","9","","24","","","","98.93","","","","","","NA"
"-79.22","43.25","PORT WELLER (AUT)","6136699","2012-12-21 01:00","2012","12","21","01:00","3.9","","2.0","","87","","","","8","","26","","","","98.79","","","","","","NA"
"-79.22","43.25","PORT WELLER (AUT)","6136699","2012-12-21 02:00","2012","12","21","02:00","4.1","","3.0","","93","","","","10","","17","","","","98.68","","","","","","NA"
"-79.22","43.25","PORT WELLER (AUT)","6136699","2012-12-21 03:00","2012","12","21","03:00","6.5","","3.8","","83","","","","15","","17","","","","98.55","","","","","","NA"
"-79.22","43.25","PORT WELLER (AUT)","6136699","2012-12-21 04:00","2012","12","21","04:00","7.3","","2.9","","74","","","","15","","24","","","","98.38","","","","","","NA"
"-79.22","43.25","PORT WELLER (AUT)","6136699","2012-12-21 05:00","2012","12","21","05:00","7.4","","2.9","","73","","","","16","","32","","","","98.30","","","","","","NA"
"-79.22","43.25","PORT WELLER (AUT)","6136699","2012-12-21 06:00","2012","12","21","06:00","6.5","","3.7","","82","","","","17","","32","","","","98.33","","","","","","NA"
"-79.22","43.25","PORT WELLER (AUT)","6136699","2012-12-21 07:00","2012","12","21","07:00","5.8","","3.8","","87","","","","19","","17","","","","98.42","","","","","","NA"
"-79.22","43.25","PORT WELLER (AUT)","6136699","2012-12-21 08:00","2012","12","21","08:00","5.5","","3.4","","86","","","","18","","20","","","","98.35","","","","","","NA"
"-79.22","43.25","PORT WELLER (AUT)","6136699","2012-12-21 09:00","2012","12","21","09:00","4.2","","2.1","","86","","","","22","","11","","","","98.30","","","","","","NA"
"-79.22","43.25","PORT WELLER (AUT)","6136699","2012-12-21 10:00","2012","12","21","10:00","3.8","","1.5","","85","","","","24","","13","","","","98.30","","","","","","NA"
"-79.22","43.25","PORT WELLER (AUT)","6136699","2012-12-21 11:00","2012","12","21","11:00","3.0","","1.1","","87","","","","23","","9","","","","98.28","","","","","","NA"
"-79.22","43.25","PORT WELLER (AUT)","6136699","2012-12-21 12:00","2012","12","21","12:00","1.9","","0.4","","90","","","","20","","9","","","","98.25","","","","","","NA"
"-79.22","43.25","PORT WELLER (AUT)","6136699","2012-12-21 13:00","2012","12","21","13:00","2.1","","0.6","","90","","","","15","","6","","","","98.22","","","","","","NA"
"-79.22","43.25","PORT WELLER (AUT)","6136699","2012-12-21 14:00","2012","12","21","14:00","2.8","","0.1","","82","","","","20","","6","","","","98.18","","","","","","NA"
"-79.22","43.25","PORT WELLER (AUT)","6136699","2012-12-21 15:00","2012","12","21","15:00","3.1","","0.2","","81","","","","24","","7","","","","98.15","","","","","","NA"
"-79.22","43.25","PORT WELLER (AUT)","6136699","2012-12-21 16:00","2012","12","21","16:00","3.2","","0.2","","81","","","","23","","7","","","","98.11","","","","","","NA"
"-79.22","43.25","PORT WELLER (AUT)","6136699","2012-12-21 17:00","2012","12","21","17:00","2.5","","0.5","","87","","","","23","","9","","","","98.06","","","","","","NA"
"-79.22","43.25","PORT WELLER (AUT)","6136699","2012-12-21 18:00","2012","12","21","18:00","2.1","","0.7","","90","","","","26","","11","","","","98.04","","","","","","NA"
"-79.22","43.25","PORT WELLER (AUT)","6136699","2012-12-21 19:00","2012","12","21","19:00","2.4","","1.3","","92","","","","29","","17","","","","98.02","","","","","","NA"
"-79.22","43.25","PORT WELLER (AUT)","6136699","2012-12-21 20:00","2012","12","21","20:00","3.0","","0.5","","84","","","","30","","19","","","","98.03","","","","","","NA"
"-79.22","43.25","PORT WELLER (AUT)","6136699","2012-12-21 21:00","2012","12","21","21:00","2.9","","0.6","","85","","","","29","","24","","","","98.07","","","","","","NA"
"-79.22","43.25","PORT WELLER (AUT)","6136699","2012-12-21 22:00","2012","12","21","22:00","2.9","","0.9","","87","","","","28","","32","","","","98.12","","","","","","NA"
"-79.22","43.25","PORT WELLER (AUT)","6136699","2012-12-21 23:00","2012","12","21","23:00","2.8","","1.5","","91","","","","27","","46","","","","98.16","","","","","","NA"
"-79.22","43.25","PORT WELLER (AUT)","6136699","2012-12-22 00:00","2012","12","22","00:00","2.9","","0.6","","85","","","","29","","52","","","","98.22","","","","","","NA"
"-79.22","43.25","PORT WELLER (AUT)","6136699","2012-12-22 01:00","2012","12","22","01:00","2.8","","-0.9","","77","","","","30","","52","","","","98.36","","","","","","NA"
"-79.22","43.25","PORT WELLER (AUT)","6136699","2012-12-22 02:00","2012","12","22","02:00","2.2","","-1.0","","79","","","","31","","52","","","","98.46","","","","","","NA"
"-79.22","43.25","PORT WELLER (AUT)","6136699","2012-12-22 03:00","2012","12","22","03:00","1.9","","-1.9","","76","","","","32","","61","","","","98.56","","","","","","NA"
"-79.22","43.25","PORT WELLER (AUT)","6136699","2012-12-22 04:00","2012","12","22","04:00","1.6","","-2.4","","75","","","","32","","70","","","","98.70","","","","","","NA"
"-79.22","43.25","PORT WELLER (AUT)","6136699","2012-12-22 05:00","2012","12","22","05:00","1.6","","-2.7","","73","","","","32","","63","","","","98.83","","","","","","NA"
"-79.22","43.25","PORT WELLER (AUT)","6136699","2012-12-22 06:00","2012","12","22","06:00","1.5","","-3.4","","70","","","","31","","52","","","","98.93","","","","","","NA"
"-79.22","43.25","PORT WELLER (AUT)","6136699","2012-12-22 07:00","2012","12","22","07:00","1.7","","-2.6","","73","","","","30","","54","","","","99.04","","","","","","NA"
"-79.22","43.25","PORT WELLER (AUT)","6136699","2012-12-22 08:00","2012","12","22","08:00","1.0","","-2.9","","75","","","","29","","56","","","","99.19","","","","","","NA"
"-79.22","43.25","PORT WELLER (AUT)","6136699","2012-12-22 09:00","2012","12","22","09:00","0.6","","-4.0","","71","","","","29","","63","","","","99.30","","","","","","NA"
"-79.22","43.25","PORT WELLER (AUT)","6136699","2012-12-22 10:00","2012","12","22","10:00","0.3","","-4.1","","72","","","","30","","63","","","","99.43","","","","","","NA"
"-79.22","43.25","PORT WELLER (AUT)","6136699","2012-12-22 11:00","2012","12","22","11:00","0.2","","-4.6","","70","","","","30","","67","","","","99.57","","","","","","NA"
"-79.22","43.25","PORT WELLER (AUT)","6136699","2012-12-22 12:00","2012","12","22","12:00","0.3","","-4.6","","70","","","","30","","59","","","","99.70","","","","","","NA"
"-79.22","43.25","PORT WELLER (AUT)","6136699","2012-12-22 13:00","2012","12","22","13:00","0.3","","-4.5","","70","","","","30","","52","","","","99.84","","","","","","NA"
"-79.22","43.25","PORT WELLER (AUT)","6136699","2012-12-22 14:00","2012","12","22","14:00","0.1","","-4.5","","71","","","","30","","44","","","","99.92","","","","","","NA"
"-79.22","43.25","PORT WELLER (AUT)","6136699","2012-12-22 15:00","2012","12","22","15:00","0.7","","-4.5","","68","","","","30","","50","","","","99.98","","","","","","NA"
"-79.22","43.25","PORT WELLER (AUT)","6136699","2012-12-22 16:00","2012","12","22","16:00","1.1","","-4.2","","68","","","","30","","46","","","","100.03","","","","","","NA"
"-79.22","43.25","PORT WELLER (AUT)","6136699","2012-12-22 17:00","2012","12","22","17:00","1.5","","-4.5","","64","","","","29","","46","","","","100.02","","","","","","NA"
"-79.22","43.25","PORT WELLER (AUT)","6136699","2012-12-22 18:00","2012","12","22","18:00","1.9","","-4.7","","62","","","","29","","50","","","","100.02","","","","","","NA"
"-79.22","43.25","PORT WELLER (AUT)","6136699","2012-12-22 19:00","2012","12","22","19:00","2.2","","-4.3","","62","","","","29","","48","","","","100.05","","","","","","NA"
"-79.22","43.25","PORT WELLER (AUT)","6136699","2012-12-22 20:00","2012","12","22","20:00","2.2","","-5.0","","59","","","","29","","50","","","","100.11","","","","","","NA"
"-79.22","43.25","PORT WELLER (AUT)","6136699","2012-12-22 21:00","2012","12","22","21:00","2.1","","-4.3","","63","","","","29","","50","","","","100.19","","","","","","NA"
"-79.22","43.25","PORT WELLER (AUT)","6136699","2012-12-22 22:00","2012","12","22","22:00","2.1","","-2.6","","71","","","","27","","46","","","","100.24","","","","","","NA"
"-79.22","43.25","PORT WELLER (AUT)","6136699","2012-12-22 23:00","2012","12","22","23:00","1.8","","-3.6","","67","","","","28","","54","","","","100.34","","","","","","NA"
"-79.22","43.25","PORT WELLER (AUT)","6136699","2012-12-23 00:00","2012","12","23","00:00","1.6","","-4.0","","66","","","","28","","59","","","","100.38","","","","","","NA"
"-79.22","43.25","PORT WELLER (AUT)","6136699","2012-12-23 01:00","2012","12","23","01:00","1.6","","-3.7","","68","","","","28","","46","","","","100.39","","","","","","NA"
"-79.22","43.25","PORT WELLER (AUT)","6136699","2012-12-23 02:00","2012","12","23","02:00","1.7","","-3.0","","71","","","","27","","41","","","","100.41","","","","","","NA"
"-79.22","43.25","PORT WELLER (AUT)","6136699","2012-12-23 03:00","2012","12","23","03:00","1.8","","-2.8","","71","","","","26","","35","","","","100.40","","","","","","NA"
"-79.22","43.25","PORT WELLER (AUT)","6136699","2012-12-23 04:00","2012","12","23","04:00","1.0","","-3.1","","74","","","","25","","19","","","","100.41","","","","","","NA"
"-79.22","43.25","PORT WELLER (AUT)","6136699","2012-12-23 05:00","2012","12","23","05:00","0.0","","-3.0","","80","","","","24","","15","","","","100.38","","","","-4","","NA"
"-79.22","43.25","PORT WELLER (AUT)","6136699","2012-12-23 06:00","2012","12","23","06:00","0.4","","-2.8","","79","","","","24","","17","","","","100.32","","","","","","NA"
"-79.22","43.25","PORT WELLER (AUT)","6136699","2012-12-23 07:00","2012","12","23","07:00","0.7","","-3.5","","73","","","","24","","15","","","","100.30","","","","","","NA"
"-79.22","43.25","PORT WELLER (AUT)","6136699","2012-12-23 08:00","2012","12","23","08:00","1.0","","-3.1","","74","","","","25","","20","","","","100.34","","","","","","NA"
"-79.22","43.25","PORT WELLER (AUT)","6136699","2012-12-23 09:00","2012","12","23","09:00","1.1","","-3.5","","71","","","","24","","15","","","","100.23","","","","","","NA"
"-79.22","43.25","PORT WELLER (AUT)","6136699","2012-12-23 10:00","2012","12","23","10:00","1.2","","-3.5","","71","","","","25","","17","","","","100.18","","","","","","NA"
"-79.22","43.25","PORT WELLER (AUT)","6136699","2012-12-23 11:00","2012","12","23","11:00","1.1","","-3.1","","74","","","","25","","28","","","","100.14","","","","","","NA"
"-79.22","43.25","PORT WELLER (AUT)","6136699","2012-12-23 12:00","2012","12","23","12:00","0.7","","-3.4","","74","","","","25","","17","","","","100.14","","","","","","NA"
"-79.22","43.25","PORT WELLER (AUT)","6136699","2012-12-23 13:00","2012","12","23","13:00","0.8","","-2.7","","77","","","","26","","35","","","","100.16","","","","","","NA"
"-79.22","43.25","PORT WELLER (AUT)","6136699","2012-12-23 14:00","2012","12","23","14:00","0.8","","-2.8","","77","","","","25","","17","","","","100.17","","","","","","NA"
"-79.22","43.25","PORT WELLER (AUT)","6136699","2012-12-23 15:00","2012","12","23","15:00","2.0","","-3.2","","68","","","","24","","13","","","","100.13","","","","","","NA"
"-79.22","43.25","PORT WELLER (AUT)","6136699","2012-12-23 16:00","2012","12","23","16:00","2.7","","-3.5","","64","","","","24","","13","","","","100.09","","","","","","NA"
"-79.22","43.25","PORT WELLER (AUT)","6136699","2012-12-23 17:00","2012","12","23","17:00","1.3","","-4.1","","67","","","","26","","35","","","","100.06","","","","","","NA"
"-79.22","43.25","PORT WELLER (AUT)","6136699","2012-12-23 18:00","2012","12","23","18:00","1.4","","-3.2","","71","","","","24","","17","","","","100.01","","","","","","NA"
"-79.22","43.25","PORT WELLER (AUT)","6136699","2012-12-23 19:00","2012","12","23","19:00","2.9","","-2.8","","66","","","","24","","15","","","","99.96","","","","","","NA"
"-79.22","43.25","PORT WELLER (AUT)","6136699","2012-12-23 20:00","2012","12","23","20:00","2.1","","-3.0","","69","","","","24","","13","","","","100.01","","","","","","NA"
"-79.22","43.25","PORT WELLER (AUT)","6136699","2012-12-23 21:00","2012","12","23","21:00","2.4","","-2.3","","71","","","","25","","19","","","","100.08","","","","","","NA"
"-79.22","43.25","PORT WELLER (AUT)","6136699","2012-12-23 22:00","2012","12","23","22:00","2.4","","-1.9","","73","","","","27","","35","","","","100.16","","","","","","NA"
"-79.22","43.25","PORT WELLER (AUT)","6136699","2012-12-23 23:00","2012","12","23","23:00","2.3","","-3.0","","68","","","","30","","41","","","","100.25","","","","","","NA"
"-79.22","43.25","PORT WELLER (AUT)","6136699","2012-12-24 00:00","2012","12","24","00:00","1.4","","-4.2","","66","","","","30","","39","","","","100.37","","","","","","NA"
"-79.22","43.25","PORT WELLER (AUT)","6136699","2012-12-24 01:00","2012","12","24","01:00","0.6","","-4.3","","70","","","","31","","44","","","","100.49","","","","","","NA"
"-79.22","43.25","PORT WELLER (AUT)","6136699","2012-12-24 02:00","2012","12","24","02:00","0.1","","-4.9","","69","","","","31","","41","","","","100.57","","","","","","NA"
"-79.22","43.25","PORT WELLER (AUT)","6136699","2012-12-24 03:00","2012","12","24","03:00","0.2","","-4.8","","69","","","","31","","32","","","","100.61","","","","","","NA"
"-79.22","43.25","PORT WELLER (AUT)","6136699","2012-12-24 04:00","2012","12","24","04:00","0.5","","-4.5","","69","","","","30","","32","","","","100.65","","","","","","NA"
"-79.22","43.25","PORT WELLER (AUT)","6136699","2012-12-24 05:00","2012","12","24","05:00","0.4","","-4.9","","68","","","","28","","28","","","","100.67","","","","","","NA"
"-79.22","43.25","PORT WELLER (AUT)","6136699","2012-12-24 06:00","2012","12","24","06:00","0.3","","-5.4","","66","","","","28","","32","","","","100.64","","","","","","NA"
"-79.22","43.25","PORT WELLER (AUT)","6136699","2012-12-24 07:00","2012","12","24","07:00","0.3","","-5.9","","63","","","","27","","32","","","","100.65","","","","","","NA"
"-79.22","43.25","PORT WELLER (AUT)","6136699","2012-12-24 08:00","2012","12","24","08:00","0.3","","-6.2","","62","","","","29","","19","","","","100.69","","","","","","NA"
"-79.22","43.25","PORT WELLER (AUT)","6136699","2012-12-24 09:00","2012","12","24","09:00","0.2","","-5.8","","64","","","","28","","20","","","","100.68","","","","","","NA"
"-79.22","43.25","PORT WELLER (AUT)","6136699","2012-12-24 10:00","2012","12","24","10:00","0.3","","-6.1","","62","","","","29","","17","","","","100.69","","","","","","NA"
"-79.22","43.25","PORT WELLER (AUT)","6136699","2012-12-24 11:00","2012","12","24","11:00","-0.4","","-5.4","","69","","","","22","","9","","","","100.71","","","","-4","","NA"
"-79.22","43.25","PORT WELLER (AUT)","6136699","2012-12-24 12:00","2012","12","24","12:00","-1.1","","-6.4","","67","","","","19","","11","","","","100.73","","","","-5","","NA"
"-79.22","43.25","PORT WELLER (AUT)","6136699","2012-12-24 13:00","2012","12","24","13:00","-1.0","","-6.4","","67","","","","20","","7","","","","100.74","","","","-4","","NA"
"-79.22","43.25","PORT WELLER (AUT)","6136699","2012-12-24 14:00","2012","12","24","14:00","-0.7","","-6.6","","64","","","","18","","11","","","","100.74","","","","-4","","NA"
"-79.22","43.25","PORT WELLER (AUT)","6136699","2012-12-24 15:00","2012","12","24","15:00","-0.2","","-6.1","","64","","","","17","","13","","","","100.77","","","","-4","","NA"
"-79.22","43.25","PORT WELLER (AUT)","6136699","2012-12-24 16:00","2012","12","24","16:00","0.4","","-5.8","","63","","","","16","","15","","","","100.74","","","","","","NA"
"-79.22","43.25","PORT WELLER (AUT)","6136699","2012-12-24 17:00","2012","12","24","17:00","0.3","","-6.7","","59","","","","15","","13","","","","100.63","","","","","","NA"
"-79.22","43.25","PORT WELLER (AUT)","6136699","2012-12-24 18:00","2012","12","24","18:00"
"-79.22","43.25","PORT WELLER (AUT)","6136699","2012-12-24 19:00","2012","12","24","19:00","0.7","","-6.2","","60","","","","9","","20","","","","100.45","","","","","","NA"
"-79.22","43.25","PORT WELLER (AUT)","6136699","2012-12-24 20:00","2012","12","24","20:00","1.0","","-4.6","","66","","","","8","","32","","","","100.39","","","","","","NA"
"-79.22","43.25","PORT WELLER (AUT)","6136699","2012-12-24 21:00","2012","12","24","21:00","1.2","","-5.2","","62","","","","9","","28","","","","100.33","","","","","","NA"
"-79.22","43.25","PORT WELLER (AUT)","6136699","2012-12-24 22:00","2012","12","24","22:00","0.6","","-5.3","","65","","","","9","","22","","","","100.29","","","","","","NA"
"-79.22","43.25","PORT WELLER (AUT)","6136699","2012-12-24 23:00","2012","12","24","23:00","0.5","","-5.1","","66","","","","9","","28","","","","100.17","","","","","","NA"
"-79.22","43.25","PORT WELLER (AUT)","6136699","2012-12-25 00:00","2012","12","25","00:00","0.6","","-5.0","","66","","","","8","","19","","","","100.28","","","","","","NA"
"-79.22","43.25","PORT WELLER (AUT)","6136699","2012-12-25 01:00","2012","12","25","01:00","0.6","","-4.7","","68","","","","8","","26","","","","100.22","","","","","","NA"
"-79.22","43.25","PORT WELLER (AUT)","6136699","2012-12-25 02:00","2012","12","25","02:00","0.3","","-4.7","","69","","","","9","","19","","","","100.18","","","","","","NA"
"-79.22","43.25","PORT WELLER (AUT)","6136699","2012-12-25 03:00","2012","12","25","03:00","0.3","","-4.6","","70","","","","10","","13","","","","100.21","","","","","","NA"
"-79.22","43.25","PORT WELLER (AUT)","6136699","2012-12-25 04:00","2012","12","25","04:00","-0.1","","-2.8","","82","","","","11","","9","","","","100.27","","","","-3","","NA"
"-79.22","43.25","PORT WELLER (AUT)","6136699","2012-12-25 05:00","2012","12","25","05:00","-0.2","","-2.4","","85","","","","8","","7","","","","100.32","","","","-3","","NA"
"-79.22","43.25","PORT WELLER (AUT)","6136699","2012-12-25 06:00","2012","12","25","06:00","-0.2","","-2.0","","88","","","","9","","9","","","","100.35","","","","-3","","NA"
"-79.22","43.25","PORT WELLER (AUT)","6136699","2012-12-25 07:00","2012","12","25","07:00","-0.2","","-2.6","","84","","","","11","","6","","","","100.43","","","","-2","","NA"
"-79.22","43.25","PORT WELLER (AUT)","6136699","2012-12-25 08:00","2012","12","25","08:00","-0.3","","-2.2","","87","","","","14","","4","","","","100.53","","","","-2","","NA"
"-79.22","43.25","PORT WELLER (AUT)","6136699","2012-12-25 09:00","2012","12","25","09:00","-0.1","","-1.3","","92","","","","5","","6","","","","100.59","","","","-2","","NA"
"-79.22","43.25","PORT WELLER (AUT)","6136699","2012-12-25 10:00","2012","12","25","10:00","1.1","","-0.1","","92","","","","6","","37","","","","100.68","","","","","","NA"
"-79.22","43.25","PORT WELLER (AUT)","6136699","2012-12-25 11:00","2012","12","25","11:00","1.2","","-1.4","","83","","","","5","","32","","","","100.83","","","","","","NA"
"-79.22","43.25","PORT WELLER (AUT)","6136699","2012-12-25 12:00","2012","12","25","12:00","1.3","","-1.8","","80","","","","5","","26","","","","100.99","","","","","","NA"
"-79.22","43.25","PORT WELLER (AUT)","6136699","2012-12-25 13:00","2012","12","25","13:00","1.1","","-2.5","","77","","","","4","","24","","","","101.11","","","","","","NA"
"-79.22","43.25","PORT WELLER (AUT)","6136699","2012-12-25 14:00","2012","12","25","14:00","1.2","","-2.2","","78","","","","6","","20","","","","101.22","","","","","","NA"
"-79.22","43.25","PORT WELLER (AUT)","6136699","2012-12-25 15:00","2012","12","25","15:00","0.5","","-2.5","","80","","","","12","","9","","","","101.35","","","","","","NA"
"-79.22","43.25","PORT WELLER (AUT)","6136699","2012-12-25 16:00","2012","12","25","16:00","0.3","","-2.2","","83","","","","11","","9","","","","101.36","","","","","","NA"
"-79.22","43.25","PORT WELLER (AUT)","6136699","2012-12-25 17:00","2012","12","25","17:00","0.8","","-2.5","","79","","","","9","","9","","","","101.31","","","","","","NA"
"-79.22","43.25","PORT WELLER (AUT)","6136699","2012-12-25 18:00","2012","12","25","18:00","1.2","","-3.3","","72","","","","7","","13","","","","101.33","","","","","","NA"
"-79.22","43.25","PORT WELLER (AUT)","6136699","2012-12-25 19:00","2012","12","25","19:00","1.3","","-3.9","","68","","","","8","","7","","","","101.42","","","","","","NA"
"-79.22","43.25","PORT WELLER (AUT)","6136699","2012-12-25 20:00","2012","12","25","20:00","1.2","","-3.8","","69","","","","7","","7","","","","101.42","","","","","","NA"
"-79.22","43.25","PORT WELLER (AUT)","6136699","2012-12-25 21:00","2012","12","25","21:00","1.2","","-2.8","","75","","","","7","","6","","","","101.54","","","","","","NA"
"-79.22","43.25","PORT WELLER (AUT)","6136699","2012-12-25 22:00","2012","12","25","22:00","1.2","","-2.7","","75","","","","7","","7","","","","101.56","","","","","","NA"
"-79.22","43.25","PORT WELLER (AUT)","6136699","2012-12-25 23:00","2012","12","25","23:00","0.4","","-2.9","","78","","","","12","","9","","","","101.58","","","","","","NA"
"-79.22","43.25","PORT WELLER (AUT)","6136699","2012-12-26 00:00","2012","12","26","00:00","0.3","","-3.0","","78","","","","13","","7","","","","101.67","","","","","","NA"
"-79.22","43.25","PORT WELLER (AUT)","6136699","2012-12-26 01:00","2012","12","26","01:00","0.3","","-3.3","","77","","","","13","","7","","","","101.70","","","","","","NA"
"-79.22","43.25","PORT WELLER (AUT)","6136699","2012-12-26 02:00","2012","12","26","02:00","0.4","","-3.4","","76","","","","15","","6","","","","101.70","","","","","","NA"
"-79.22","43.25","PORT WELLER (AUT)","6136699","2012-12-26 03:00","2012","12","26","03:00","0.3","","-3.7","","74","","","","12","","4","","","","101.70","","","","","","NA"
"-79.22","43.25","PORT WELLER (AUT)","6136699","2012-12-26 04:00","2012","12","26","04:00","1.2","","-2.8","","75","","","","6","","19","","","","101.68","","","","","","NA"
"-79.22","43.25","PORT WELLER (AUT)","6136699","2012-12-26 05:00","2012","12","26","05:00","0.7","","-3.1","","76","","","","10","","9","","","","101.68","","","","","","NA"
"-79.22","43.25","PORT WELLER (AUT)","6136699","2012-12-26 06:00","2012","12","26","06:00","0.3","","-3.2","","77","","","","12","","9","","","","101.72","","","","","","NA"
"-79.22","43.25","PORT WELLER (AUT)","6136699","2012-12-26 07:00","2012","12","26","07:00","0.2","","-3.7","","75","","","","11","","11","","","","101.69","","","","","","NA"
"-79.22","43.25","PORT WELLER (AUT)","6136699","2012-12-26 08:00","2012","12","26","08:00","0.1","","-3.8","","75","","","","10","","17","","","","101.61","","","","","","NA"
"-79.22","43.25","PORT WELLER (AUT)","6136699","2012-12-26 09:00","2012","12","26","09:00","0.0","","-3.6","","77","","","","10","","24","","","","101.52","","","","-6","","NA"
"-79.22","43.25","PORT WELLER (AUT)","6136699","2012-12-26 10:00","2012","12","26","10:00","0.0","","-3.7","","76","","","","9","","22","","","","101.49","","","","-6","","NA"
"-79.22","43.25","PORT WELLER (AUT)","6136699","2012-12-26 11:00","2012","12","26","11:00","-0.4","","-3.5","","80","","","","9","","39","","","","101.37","","","","-8","","NA"
"-79.22","43.25","PORT WELLER (AUT)","6136699","2012-12-26 12:00","2012","12","26","12:00","-0.5","","-3.7","","79","","","","9","","26","","","","101.42","","","","-7","","NA"
"-79.22","43.25","PORT WELLER (AUT)","6136699","2012-12-26 13:00","2012","12","26","13:00","-0.9","","-3.6","","82","","","","9","","32","","","","101.37","","","","-8","","NA"
"-79.22","43.25","PORT WELLER (AUT)","6136699","2012-12-26 14:00","2012","12","26","14:00","-1.3","","-4.1","","81","","","","9","","33","","","","101.38","","","","-8","","NA"
"-79.22","43.25","PORT WELLER (AUT)","6136699","2012-12-26 15:00","2012","12","26","15:00","-1.6","","-4.2","","82","","","","9","","35","","","","101.27","","","","-9","","NA"
"-79.22","43.25","PORT WELLER (AUT)","6136699","2012-12-26 16:00","2012","12","26","16:00","-1.4","","-3.8","","84","","","","9","","37","","","","101.18","","","","-9","","NA"
"-79.22","43.25","PORT WELLER (AUT)","6136699","2012-12-26 17:00","2012","12","26","17:00","-1.3","","-4.2","","81","","","","8","","43","","","","101.00","","","","-9","","NA"
"-79.22","43.25","PORT WELLER (AUT)","6136699","2012-12-26 18:00","2012","12","26","18:00","-1.3","","-3.8","","83","","","","8","","43","","","","100.79","","","","-9","","NA"
"-79.22","43.25","PORT WELLER (AUT)","6136699","2012-12-26 19:00","2012","12","26","19:00","-1.0","","-4.0","","80","","","","8","","46","","","","100.72","","","","-9","","NA"
"-79.22","43.25","PORT WELLER (AUT)","6136699","2012-12-26 20:00","2012","12","26","20:00","-0.6","","-3.2","","83","","","","7","","52","","","","100.54","","","","-9","","NA"
"-79.22","43.25","PORT WELLER (AUT)","6136699","2012-12-26 21:00","2012","12","26","21:00","-0.5","","-3.4","","81","","","","8","","46","","","","100.53","","","","-9","","NA"
"-79.22","43.25","PORT WELLER (AUT)","6136699","2012-12-26 22:00","2012","12","26","22:00","-0.4","","-2.1","","88","","","","7","","56","","","","100.42","","","","-9","","NA"
"-79.22","43.25","PORT WELLER (AUT)","6136699","2012-12-26 23:00","2012","12","26","23:00","-0.6","","-1.6","","93","","","","6","","56","","","","100.31","","","","-9","","NA"
"-79.22","43.25","PORT WELLER (AUT)","6136699","2012-12-27 00:00","2012","12","27","00:00","-1.1","","-1.7","","96","","","","5","","56","","","","100.29","","","","-10","","NA"
"-79.22","43.25","PORT WELLER (AUT)","6136699","2012-12-27 01:00","2012","12","27","01:00","-1.4","","-2.1","","95","","","","5","","56","","","","100.28","","","","-10","","NA"
"-79.22","43.25","PORT WELLER (AUT)","6136699","2012-12-27 02:00","2012","12","27","02:00","-1.8","","-2.4","","96","","","","5","","54","","","","100.21","","","","-11","","NA"
"-79.22","43.25","PORT WELLER (AUT)","6136699","2012-12-27 03:00","2012","12","27","03:00","-1.7","","-2.3","","96","","","","5","","57","","","","100.09","","","","-11","","NA"
"-79.22","43.25","PORT WELLER (AUT)","6136699","2012-12-27 04:00","2012","12","27","04:00","-1.8","","-2.4","","96","","","","5","","56","","","","100.01","","","","-11","","NA"
"-79.22","43.25","PORT WELLER (AUT)","6136699","2012-12-27 05:00","2012","12","27","05:00","-2.2","","-2.7","","96","","","","4","","54","","","","99.98","","","","-11","","NA"
"-79.22","43.25","PORT WELLER (AUT)","6136699","2012-12-27 06:00","2012","12","27","06:00","-2.2","","-2.8","","96","","","","5","","50","","","","99.93","","","","-11","","NA"
"-79.22","43.25","PORT WELLER (AUT)","6136699","2012-12-27 07:00","2012","12","27","07:00","-1.9","","-2.6","","95","","","","4","","50","","","","99.86","","","","-11","","NA"
"-79.22","43.25","PORT WELLER (AUT)","6136699","2012-12-27 08:00","2012","12","27","08:00","-1.8","","-2.5","","95","","","","4","","50","","","","99.85","","","","-11","","NA"
"-79.22","43.25","PORT WELLER (AUT)","6136699","2012-12-27 09:00","2012","12","27","09:00","-1.6","","-2.8","","92","","","","4","","43","","","","99.89","","","","-10","","NA"
"-79.22","43.25","PORT WELLER (AUT)","6136699","2012-12-27 10:00","2012","12","27","10:00","-2.7","","-3.7","","93","","","","3","","35","","","","99.94","","","","-11","","NA"
"-79.22","43.25","PORT WELLER (AUT)","6136699","2012-12-27 11:00","2012","12","27","11:00","-2.4","","-3.6","","91","","","","3","","33","","","","100.01","","","","-10","","NA"
"-79.22","43.25","PORT WELLER (AUT)","6136699","2012-12-27 12:00","2012","12","27","12:00","-2.5","","-4.6","","85","","","","3","","26","","","","100.08","","","","-9","","NA"
"-79.22","43.25","PORT WELLER (AUT)","6136699","2012-12-27 13:00","2012","12","27","13:00","-2.2","","-3.9","","88","","","","36","","28","","","","100.13","","","","-9","","NA"
"-79.22","43.25","PORT WELLER (AUT)","6136699","2012-12-27 14:00","2012","12","27","14:00","-1.9","","-4.5","","82","","","","36","","26","","","","100.22","","","","-8","","NA"
"-79.22","43.25","PORT WELLER (AUT)","6136699","2012-12-27 15:00","2012","12","27","15:00","-2.3","","-5.1","","81","","","","35","","24","","","","100.28","","","","-9","","NA"
"-79.22","43.25","PORT WELLER (AUT)","6136699","2012-12-27 16:00","2012","12","27","16:00","-2.4","","-5.2","","81","","","","36","","28","","","","100.34","","","","-9","","NA"
"-79.22","43.25","PORT WELLER (AUT)","6136699","2012-12-27 17:00","2012","12","27","17:00","-2.5","","-5.4","","80","","","","35","","24","","","","100.36","","","","-9","","NA"
"-79.22","43.25","PORT WELLER (AUT)","6136699","2012-12-27 18:00","2012","12","27","18:00","-2.5","","-5.6","","79","","","","34","","26","","","","100.32","","","","-9","","NA"
"-79.22","43.25","PORT WELLER (AUT)","6136699","2012-12-27 19:00","2012","12","27","19:00","-2.0","","-4.7","","82","","","","33","","26","","","","100.30","","","","-9","","NA"
"-79.22","43.25","PORT WELLER (AUT)","6136699","2012-12-27 20:00","2012","12","27","20:00","-2.5","","-5.6","","79","","","","32","","22","","","","100.36","","","","-9","","NA"
"-79.22","43.25","PORT WELLER (AUT)","6136699","2012-12-27 21:00","2012","12","27","21:00","-1.9","","-4.8","","81","","","","33","","22","","","","100.43","","","","-8","","NA"
"-79.22","43.25","PORT WELLER (AUT)","6136699","2012-12-27 22:00","2012","12","27","22:00","-1.3","","-4.5","","79","","","","34","","32","","","","100.49","","","","-8","","NA"
"-79.22","43.25","PORT WELLER (AUT)","6136699","2012-12-27 23:00","2012","12","27","23:00","-1.2","","-3.6","","84","","","","34","","30","","","","100.58","","","","-8","","NA"
"-79.22","43.25","PORT WELLER (AUT)","6136699","2012-12-28 00:00","2012","12","28","00:00","-1.3","","-4.5","","79","","","","32","","44","","","","100.64","","","","-9","","NA"
"-79.22","43.25","PORT WELLER (AUT)","6136699","2012-12-28 01:00","2012","12","28","01:00","-1.5","","-4.0","","83","","","","32","","30","","","","100.71","","","","-8","","NA"
"-79.22","43.25","PORT WELLER (AUT)","6136699","2012-12-28 02:00","2012","12","28","02:00","-1.5","","-4.2","","82","","","","32","","30","","","","100.79","","","","-8","","NA"
"-79.22","43.25","PORT WELLER (AUT)","6136699","2012-12-28 03:00","2012","12","28","03:00","-1.9","","-4.2","","84","","","","33","","33","","","","100.81","","","","-9","","NA"
"-79.22","43.25","PORT WELLER (AUT)","6136699","2012-12-28 04:00","2012","12","28","04:00","-2.2","","-4.6","","84","","","","33","","32","","","","100.86","","","","-10","","NA"
"-79.22","43.25","PORT WELLER (AUT)","6136699","2012-12-28 05:00","2012","12","28","05:00","-2.1","","-5.1","","80","","","","33","","32","","","","100.89","","","","-9","","NA"
"-79.22","43.25","PORT WELLER (AUT)","6136699","2012-12-28 06:00","2012","12","28","06:00","-2.2","","-5.5","","78","","","","33","","24","","","","100.90","","","","-9","","NA"
"-79.22","43.25","PORT WELLER (AUT)","6136699","2012-12-28 07:00","2012","12","28","07:00","-2.3","","-5.2","","80","","","","31","","19","","","","100.92","","","","-8","","NA"
"-79.22","43.25","PORT WELLER (AUT)","6136699","2012-12-28 08:00","2012","12","28","08:00","-2.2","","-5.4","","79","","","","31","","13","","","","100.96","","","","-7","","NA"
"-79.22","43.25","PORT WELLER (AUT)","6136699","2012-12-28 09:00","2012","12","28","09:00","-2.1","","-5.3","","79","","","","30","","17","","","","100.99","","","","-7","","NA"
"-79.22","43.25","PORT WELLER (AUT)","6136699","2012-12-28 10:00","2012","12","28","10:00","-2.3","","-4.1","","87","","","","26","","15","","","","101.02","","","","-7","","NA"
"-79.22","43.25","PORT WELLER (AUT)","6136699","2012-12-28 11:00","2012","12","28","11:00","-2.9","","-4.7","","87","","","","24","","11","","","","101.05","","","","-7","","NA"
"-79.22","43.25","PORT WELLER (AUT)","6136699","2012-12-28 12:00","2012","12","28","12:00","-3.1","","-4.9","","87","","","","24","","11","","","","101.07","","","","-7","","NA"
"-79.22","43.25","PORT WELLER (AUT)","6136699","2012-12-28 13:00","2012","12","28","13:00","-3.7","","-5.6","","87","","","","21","","11","","","","101.06","","","","-8","","NA"
"-79.22","43.25","PORT WELLER (AUT)","6136699","2012-12-28 14:00","2012","12","28","14:00","-3.8","","-5.6","","87","","","","22","","9","","","","101.12","","","","-8","","NA"
"-79.22","43.25","PORT WELLER (AUT)","6136699","2012-12-28 15:00","2012","12","28","15:00","-3.9","","-5.5","","89","","","","23","","9","","","","101.13","","","","-8","","NA"
"-79.22","43.25","PORT WELLER (AUT)","6136699","2012-12-28 16:00","2012","12","28","16:00","-3.9","","-6.2","","84","","","","21","","7","","","","101.14","","","","-7","","NA"
"-79.22","43.25","PORT WELLER (AUT)","6136699","2012-12-28 17:00","2012","12","28","17:00","-3.8","","-6.2","","83","","","","16","","7","","","","101.03","","","","-7","","NA"
"-79.22","43.25","PORT WELLER (AUT)","6136699","2012-12-28 18:00","2012","12","28","18:00","-3.5","","-5.5","","86","","","","21","","11","","","","101.04","","","","-8","","NA"
"-79.22","43.25","PORT WELLER (AUT)","6136699","2012-12-28 19:00","2012","12","28","19:00","-2.6","","-5.0","","84","","","","24","","7","","","","101.06","","","","-5","","NA"
"-79.22","43.25","PORT WELLER (AUT)","6136699","2012-12-28 20:00","2012","12","28","20:00","-2.2","","-5.7","","77","","","","22","","7","","","","101.05","","","","-5","","NA"
"-79.22","43.25","PORT WELLER (AUT)","6136699","2012-12-28 21:00","2012","12","28","21:00","-1.8","","-5.5","","76","","","","20","","4","","","","100.95","","","","-3","","NA"
"-79.22","43.25","PORT WELLER (AUT)","6136699","2012-12-28 22:00","2012","12","28","22:00","-1.5","","-4.7","","79","","","","12","","9","","","","100.86","","","","-5","","NA"
"-79.22","43.25","PORT WELLER (AUT)","6136699","2012-12-28 23:00","2012","12","28","23:00","-1.7","","-4.7","","80","","","","13","","6","","","","100.85","","","","-4","","NA"
"-79.22","43.25","PORT WELLER (AUT)","6136699","2012-12-29 00:00","2012","12","29","00:00","-1.7","","-4.6","","81","","","","15","","4","","","","100.88","","","","-3","","NA"
"-79.22","43.25","PORT WELLER (AUT)","6136699","2012-12-29 01:00","2012","12","29","01:00","-2.0","","-5.5","","77","","","","18","","6","","","","100.87","","","","-4","","NA"
"-79.22","43.25","PORT WELLER (AUT)","6136699","2012-12-29 02:00","2012","12","29","02:00","-2.3","","-4.8","","83","","","","16","","4","","","","100.80","","","","-4","","NA"
"-79.22","43.25","PORT WELLER (AUT)","6136699","2012-12-29 03:00","2012","12","29","03:00","-3.7","","-5.7","","86","","","","15","","6","","","","100.75","","","","-6","","NA"
"-79.22","43.25","PORT WELLER (AUT)","6136699","2012-12-29 04:00","2012","12","29","04:00","-3.3","","-5.5","","85","","","","15","","6","","","","100.76","","","","-6","","NA"
"-79.22","43.25","PORT WELLER (AUT)","6136699","2012-12-29 05:00","2012","12","29","05:00","-2.8","","-5.4","","82","","","","14","","6","","","","100.70","","","","-5","","NA"
"-79.22","43.25","PORT WELLER (AUT)","6136699","2012-12-29 06:00","2012","12","29","06:00","-2.1","","-4.6","","83","","","","13","","9","","","","100.61","","","","-6","","NA"
"-79.22","43.25","PORT WELLER (AUT)","6136699","2012-12-29 07:00","2012","12","29","07:00","-2.3","","-5.3","","80","","","","13","","11","","","","100.50","","","","-6","","NA"
"-79.22","43.25","PORT WELLER (AUT)","6136699","2012-12-29 08:00","2012","12","29","08:00","-1.8","","-5.1","","78","","","","10","","15","","","","100.43","","","","-7","","NA"
"-79.22","43.25","PORT WELLER (AUT)","6136699","2012-12-29 09:00","2012","12","29","09:00","-2.2","","-5.0","","81","","","","12","","11","","","","100.38","","","","-6","","NA"
"-79.22","43.25","PORT WELLER (AUT)","6136699","2012-12-29 10:00","2012","12","29","10:00","-2.6","","-3.7","","92","","","","13","","11","","","","100.33","","","","-7","","NA"
"-79.22","43.25","PORT WELLER (AUT)","6136699","2012-12-29 11:00","2012","12","29","11:00","-2.5","","-3.3","","94","","","","10","","17","","","","100.24","","","","-8","","NA"
"-79.22","43.25","PORT WELLER (AUT)","6136699","2012-12-29 12:00","2012","12","29","12:00","-2.4","","-3.1","","95","","","","10","","17","","","","100.16","","","","-8","","NA"
"-79.22","43.25","PORT WELLER (AUT)","6136699","2012-12-29 13:00","2012","12","29","13:00","-1.7","","-2.3","","96","","","","7","","30","","","","100.02","","","","-9","","NA"
"-79.22","43.25","PORT WELLER (AUT)","6136699","2012-12-29 14:00","2012","12","29","14:00","-0.8","","-1.5","","95","","","","7","","33","","","","99.93","","","","-8","","NA"
"-79.22","43.25","PORT WELLER (AUT)","6136699","2012-12-29 15:00","2012","12","29","15:00","-1.7","","-2.2","","96","","","","10","","17","","","","99.93","","","","-7","","NA"
"-79.22","43.25","PORT WELLER (AUT)","6136699","2012-12-29 16:00","2012","12","29","16:00","-1.9","","-2.4","","96","","","","11","","17","","","","99.92","","","","-7","","NA"
"-79.22","43.25","PORT WELLER (AUT)","6136699","2012-12-29 17:00","2012","12","29","17:00","-1.6","","-2.1","","96","","","","9","","13","","","","99.80","","","","-6","","NA"
"-79.22","43.25","PORT WELLER (AUT)","6136699","2012-12-29 18:00","2012","12","29","18:00","-0.9","","-1.4","","96","","","","4","","32","","","","99.68","","","","-8","","NA"
"-79.22","43.25","PORT WELLER (AUT)","6136699","2012-12-29 19:00","2012","12","29","19:00","-1.0","","-1.6","","96","","","","1","","35","","","","99.70","","","","-8","","NA"
"-79.22","43.25","PORT WELLER (AUT)","6136699","2012-12-29 20:00","2012","12","29","20:00","-1.3","","-1.9","","96","","","","36","","32","","","","99.74","","","","-8","","NA"
"-79.22","43.25","PORT WELLER (AUT)","6136699","2012-12-29 21:00","2012","12","29","21:00","-1.4","","-2.1","","95","","","","35","","35","","","","99.79","","","","-9","","NA"
"-79.22","43.25","PORT WELLER (AUT)","6136699","2012-12-29 22:00","2012","12","29","22:00","-1.7","","-2.4","","95","","","","34","","30","","","","99.85","","","","-9","","NA"
"-79.22","43.25","PORT WELLER (AUT)","6136699","2012-12-29 23:00","2012","12","29","23:00","-1.8","","-2.6","","94","","","","34","","30","","","","99.93","","","","-9","","NA"
"-79.22","43.25","PORT WELLER (AUT)","6136699","2012-12-30 00:00","2012","12","30","00:00","-1.9","","-3.0","","92","","","","32","","33","","","","100.02","","","","-9","","NA"
"-79.22","43.25","PORT WELLER (AUT)","6136699","2012-12-30 01:00","2012","12","30","01:00","-1.9","","-3.0","","92","","","","33","","30","","","","100.06","","","","-9","","NA"
"-79.22","43.25","PORT WELLER (AUT)","6136699","2012-12-30 02:00","2012","12","30","02:00","-1.6","","-2.8","","92","","","","32","","24","","","","100.08","","","","-8","","NA"
"-79.22","43.25","PORT WELLER (AUT)","6136699","2012-12-30 03:00","2012","12","30","03:00","-0.8","","-2.7","","87","","","","30","","30","","","","100.12","","","","-8","","NA"
"-79.22","43.25","PORT WELLER (AUT)","6136699","2012-12-30 04:00","2012","12","30","04:00","-0.7","","-3.2","","83","","","","30","","37","","","","100.17","","","","-8","","NA"
"-79.22","43.25","PORT WELLER (AUT)","6136699","2012-12-30 05:00","2012","12","30","05:00","-1.2","","-3.8","","82","","","","30","","35","","","","100.22","","","","-9","","NA"
"-79.22","43.25","PORT WELLER (AUT)","6136699","2012-12-30 06:00","2012","12","30","06:00","-1.8","","-5.3","","77","","","","30","","37","","","","100.28","","","","-10","","NA"
"-79.22","43.25","PORT WELLER (AUT)","6136699","2012-12-30 07:00","2012","12","30","07:00","-2.0","","-5.7","","76","","","","31","","37","","","","100.36","","","","-10","","NA"
"-79.22","43.25","PORT WELLER (AUT)","6136699","2012-12-30 08:00","2012","12","30","08:00","-2.2","","-5.8","","76","","","","31","","39","","","","100.48","","","","-10","","NA"
"-79.22","43.25","PORT WELLER (AUT)","6136699","2012-12-30 09:00","2012","12","30","09:00","-2.5","","-6.5","","74","","","","30","","39","","","","100.59","","","","-11","","NA"
"-79.22","43.25","PORT WELLER (AUT)","6136699","2012-12-30 10:00","2012","12","30","10:00","-2.6","","-6.4","","75","","","","30","","41","","","","100.68","","","","-11","","NA"
"-79.22","43.25","PORT WELLER (AUT)","6136699","2012-12-30 11:00","2012","12","30","11:00","-1.9","","-6.1","","73","","","","31","","48","","","","100.73","","","","-11","","NA"
"-79.22","43.25","PORT WELLER (AUT)","6136699","2012-12-30 12:00","2012","12","30","12:00","-1.9","","-5.3","","78","","","","29","","35","","","","100.88","","","","-9","","NA"
"-79.22","43.25","PORT WELLER (AUT)","6136699","2012-12-30 13:00","2012","12","30","13:00","-2.1","","-6.3","","73","","","","29","","33","","","","100.99","","","","-10","","NA"
"-79.22","43.25","PORT WELLER (AUT)","6136699","2012-12-30 14:00","2012","12","30","14:00","-1.8","","-7.3","","66","","","","30","","39","","","","101.10","","","","-10","","NA"
"-79.22","43.25","PORT WELLER (AUT)","6136699","2012-12-30 15:00","2012","12","30","15:00","-1.8","","-7.5","","65","","","","30","","35","","","","101.24","","","","-9","","NA"
"-79.22","43.25","PORT WELLER (AUT)","6136699","2012-12-30 16:00","2012","12","30","16:00","-1.3","","-8.4","","58","","","","30","","41","","","","101.32","","","","-9","","NA"
"-79.22","43.25","PORT WELLER (AUT)","6136699","2012-12-30 17:00","2012","12","30","17:00","-1.2","","-8.7","","57","","","","29","","37","","","","101.33","","","","-9","","NA"
"-79.22","43.25","PORT WELLER (AUT)","6136699","2012-12-30 18:00","2012","12","30","18:00","-1.2","","-7.4","","63","","","","30","","28","","","","101.31","","","","-8","","NA"
"-79.22","43.25","PORT WELLER (AUT)","6136699","2012-12-30 19:00","2012","12","30","19:00","-1.1","","-7.8","","60","","","","28","","20","","","","101.32","","","","-7","","NA"
"-79.22","43.25","PORT WELLER (AUT)","6136699","2012-12-30 20:00","2012","12","30","20:00","-0.8","","-9.4","","52","","","","27","","20","","","","101.36","","","","-6","","NA"
"-79.22","43.25","PORT WELLER (AUT)","6136699","2012-12-30 21:00","2012","12","30","21:00","-1.0","","-7.3","","62","","","","24","","11","","","","101.43","","","","-5","","NA"
"-79.22","43.25","PORT WELLER (AUT)","6136699","2012-12-30 22:00","2012","12","30","22:00","-1.0","","-6.4","","67","","","","24","","11","","","","101.44","","","","-5","","NA"
"-79.22","43.25","PORT WELLER (AUT)","6136699","2012-12-30 23:00","2012","12","30","23:00","-1.3","","-5.5","","73","","","","23","","9","","","","101.41","","","","-5","","NA"
"-79.22","43.25","PORT WELLER (AUT)","6136699","2012-12-31 00:00","2012","12","31","00:00","-1.4","","-4.9","","77","","","","23","","9","","","","101.39","","","","-5","","NA"
"-79.22","43.25","PORT WELLER (AUT)","6136699","2012-12-31 01:00","2012","12","31","01:00","-1.1","","-4.7","","76","","","","24","","9","","","","101.35","","","","-4","","NA"
"-79.22","43.25","PORT WELLER (AUT)","6136699","2012-12-31 02:00","2012","12","31","02:00","-1.1","","-5.3","","73","","","","23","","13","","","","101.32","","","","-5","","NA"
"-79.22","43.25","PORT WELLER (AUT)","6136699","2012-12-31 03:00","2012","12","31","03:00","-1.1","","-4.9","","75","","","","23","","13","","","","101.31","","","","-5","","NA"
"-79.22","43.25","PORT WELLER (AUT)","6136699","2012-12-31 04:00","2012","12","31","04:00","-1.1","","-4.6","","77","","","","25","","26","","","","101.33","","","","-7","","NA"
"-79.22","43.25","PORT WELLER (AUT)","6136699","2012-12-31 05:00","2012","12","31","05:00","-1.5","","-5.0","","77","","","","26","","28","","","","101.26","","","","-8","","NA"
"-79.22","43.25","PORT WELLER (AUT)","6136699","2012-12-31 06:00","2012","12","31","06:00","-1.9","","-5.2","","78","","","","26","","28","","","","101.16","","","","-9","","NA"
"-79.22","43.25","PORT WELLER (AUT)","6136699","2012-12-31 07:00","2012","12","31","07:00","-2.1","","-5.1","","80","","","","26","","28","","","","101.13","","","","-9","","NA"
"-79.22","43.25","PORT WELLER (AUT)","6136699","2012-12-31 08:00","2012","12","31","08:00","-2.4","","-5.2","","81","","","","25","","26","","","","101.05","","","","-9","","NA"
"-79.22","43.25","PORT WELLER (AUT)","6136699","2012-12-31 09:00","2012","12","31","09:00","-1.8","","-4.6","","81","","","","25","","17","","","","100.98","","","","-7","","NA"
"-79.22","43.25","PORT WELLER (AUT)","6136699","2012-12-31 10:00","2012","12","31","10:00","-2.0","","-4.7","","82","","","","24","","13","","","","100.91","","","","-6","","NA"
"-79.22","43.25","PORT WELLER (AUT)","6136699","2012-12-31 11:00","2012","12","31","11:00","-1.1","","-3.4","","84","","","","23","","9","","","","100.84","","","","-4","","NA"
"-79.22","43.25","PORT WELLER (AUT)","6136699","2012-12-31 12:00","2012","12","31","12:00","0.0","","-2.5","","83","","","","21","","15","","","","100.76","","","","-4","","NA"
"-79.22","43.25","PORT WELLER (AUT)","6136699","2012-12-31 13:00","2012","12","31","13:00","0.2","","-2.6","","81","","","","20","","13","","","","100.69","","","","","","NA"
"-79.22","43.25","PORT WELLER (AUT)","6136699","2012-12-31 14:00","2012","12","31","14:00","0.5","","-2.8","","78","","","","20","","13","","","","100.60","","","","","","NA"
"-79.22","43.25","PORT WELLER (AUT)","6136699","2012-12-31 15:00","2012","12","31","15:00","1.5","","-2.9","","72","","","","22","","19","","","","100.55","","","","","","NA"
"-79.22","43.25","PORT WELLER (AUT)","6136699","2012-12-31 16:00","2012","12","31","16:00","2.0","","-2.5","","72","","","","22","","20","","","","100.48","","","","","","NA"
"-79.22","43.25","PORT WELLER (AUT)","6136699","2012-12-31 17:00","2012","12","31","17:00","2.5","","-2.2","","71","","","","23","","13","","","","100.37","","","","","","NA"
"-79.22","43.25","PORT WELLER (AUT)","6136699","2012-12-31 18:00","2012","12","31","18:00","2.3","","-2.5","","71","","","","25","","19","","","","100.30","","","","","","NA"
"-79.22","43.25","PORT WELLER (AUT)","6136699","2012-12-31 19:00","2012","12","31","19:00"
"-79.22","43.25","PORT WELLER (AUT)","6136699","2012-12-31 20:00","2012","12","31","20:00","2.3","","-2.4","","71","","","","23","","15","","","","100.13","","","","","","NA"
"-79.22","43.25","PORT WELLER (AUT)","6136699","2012-12-31 21:00","2012","12","31","21:00","2.1","","-2.0","","74","","","","24","","13","","","","100.13","","","","","","NA"
"-79.22","43.25","PORT WELLER (AUT)","6136699","2012-12-31 22:00","2012","12","31","22:00","2.1","","-1.9","","75","","","","25","","19","","","","100.16","","","","","","NA"
"-79.22","43.25","PORT WELLER (AUT)","6136699","2012-12-31 23:00","2012","12","31","23:00","2.0","","-1.9","","75","","","","25","","22","","","","100.17","","","","","","NA"
