"Longitude (x)","Latitude (y)","Station Name","Climate ID","Date/Time (UTC)","Year","Month","Day","Time (UTC)","Temp (°C)","Temp Flag","Dew Point Temp (°C)","Dew Point Temp Flag","Rel Hum (%)","Rel Hum Flag","Precip. Amount (mm)","Precip. Amount Flag","Wind Dir (10s deg)","Wind Dir Flag","Wind Spd (km/h)","Wind Spd Flag","Visibility (km)","Visibility Flag","Stn Press (kPa)","Stn Press Flag","Hmdx","Hmdx Flag","Wind Chill","Wind Chill Flag","Weather"
"-79.78","44.23","EGBERT CS","611E001","2013-05-01 00:00","2013","05","01","00:00","15.9","","11.4","","75","","","","14","","22","","","M","98.91","","","","","","NA"
"-79.78","44.23","EGBERT CS","611E001","2013-05-01 01:00","2013","05","01","01:00","14.3","","11.0","","81","","","","15","","11","","","M","98.96","","","","","","NA"
"-79.78","44.23","EGBERT CS","611E001","2013-05-01 02:00","2013","05","01","02:00","13.7","","10.7","","82","","","","14","","15","","","M","98.96","","","","","","NA"
"-79.78","44.23","EGBERT CS","611E001","2013-05-01 03:00","2013","05","01","03:00","12.6","","10.1","","85","","","","17","","9","","","M","99.02","","","","","","NA"
"-79.78","44.23","EGBERT CS","611E001","2013-05-01 04:00","2013","05","01","04:00","11.3","","9.2","","87","","","","16","","7","","","M","99.06","","","","","","NA"
"-79.78","44.23","EGBERT CS","611E001","2013-05-01 05:00","2013","05","01","05:00","13.7","","10.0","","78","","","","16","","15","","","M","99.09","","","","","","NA"
"-79.78","44.23","EGBERT CS","611E001","2013-05-01 06:00","2013","05","01","06:00","13.8","","9.7","","76","","","","16","","15","","","M","99.12","","","","","","NA"
"-79.78","44.23","EGBERT CS","611E001","2013-05-01 07:00","2013","05","01","07:00","13.7","","9.7","","77","","","","16","","17","","","M","99.16","","","","","","NA"
"-79.78","44.23","EGBERT CS","611E001","2013-05-01 08:00","2013","05","01","08:00","13.4","","9.7","","78","","","","16","","13","","","M","99.19","","","","","","NA"
"-79.78","44.23","EGBERT CS","611E001","2013-05-01 09:00","2013","05","01","09:00","12.4","","9.4","","82","","","","15","","11","","","M","99.27","","","","","","NA"
"-79.78","44.23","EGBERT CS","611E001","2013-05-01 10:00","2013","05","01","10:00","12.3","","9.6","","84","","","","13","","15","","","M","99.36","","","","","","NA"
"-79.78","44.23","EGBERT CS","611E001","2013-05-01 11:00","2013","05","01","11:00","12.6","","9.8","","83","","","","14","","11","","","M","99.44","","","","","","NA"
"-79.78","44.23","EGBERT CS","611E001","2013-05-01 12:00","2013","05","01","12:00","14.6","","10.2","","75","","","","16","","13","","","M","99.49","","","","","","NA"
"-79.78","44.23","EGBERT CS","611E001","2013-05-01 13:00","2013","05","01","13:00","15.7","","10.5","","71","","","","17","","19","","","M","99.53","","","","","","NA"
"-79.78","44.23","EGBERT CS","611E001","2013-05-01 14:00","2013","05","01","14:00","17.1","","11.2","","68","","","","17","","19","","","M","99.53","","","","","","NA"
"-79.78","44.23","EGBERT CS","611E001","2013-05-01 15:00","2013","05","01","15:00","18.4","","11.4","","64","","","","16","","20","","","M","99.52","","","","","","NA"
"-79.78","44.23","EGBERT CS","611E001","2013-05-01 16:00","2013","05","01","16:00","20.2","","11.9","","59","","","","17","","20","","","M","99.50","","","","","","NA"
"-79.78","44.23","EGBERT CS","611E001","2013-05-01 17:00","2013","05","01","17:00","21.5","","12.1","","55","","","","16","","19","","","M","99.50","","","","","","NA"
"-79.78","44.23","EGBERT CS","611E001","2013-05-01 18:00","2013","05","01","18:00","22.4","","11.1","","49","","","","15","","20","","","M","99.49","","","","","","NA"
"-79.78","44.23","EGBERT CS","611E001","2013-05-01 19:00","2013","05","01","19:00","22.4","","10.8","","48","","","","16","","20","","","M","99.51","","","","","","NA"
"-79.78","44.23","EGBERT CS","611E001","2013-05-01 20:00","2013","05","01","20:00","23.0","","10.1","","44","","","","16","","19","","","M","99.49","","","","","","NA"
"-79.78","44.23","EGBERT CS","611E001","2013-05-01 21:00","2013","05","01","21:00","22.6","","9.6","","44","","","","17","","17","","","M","99.51","","","","","","NA"
"-79.78","44.23","EGBERT CS","611E001","2013-05-01 22:00","2013","05","01","22:00","22.4","","9.9","","45","","","","17","","17","","","M","99.51","","","","","","NA"
"-79.78","44.23","EGBERT CS","611E001","2013-05-01 23:00","2013","05","01","23:00","21.7","","10.0","","47","","","","15","","15","","","M","99.52","","","","","","NA"
"-79.78","44.23","EGBERT CS","611E001","2013-05-02 00:00","2013","05","02","00:00","20.0","","10.0","","53","","","","15","","11","","","M","99.56","","","","","","NA"
"-79.78","44.23","EGBERT CS","611E001","2013-05-02 01:00","2013","05","02","01:00","18.2","","10.5","","61","","","","14","","22","","","M","99.60","","","","","","NA"
"-79.78","44.23","EGBERT CS","611E001","2013-05-02 02:00","2013","05","02","02:00","16.7","","9.7","","63","","","","16","","9","","","M","99.65","","","","","","NA"
"-79.78","44.23","EGBERT CS","611E001","2013-05-02 03:00","2013","05","02","03:00","15.9","","7.9","","59","","","","18","","6","","","M","99.63","","","","","","NA"
"-79.78","44.23","EGBERT CS","611E001","2013-05-02 04:00","2013","05","02","04:00","14.9","","7.0","","59","","","","19","","9","","","M","99.59","","","","","","NA"
"-79.78","44.23","EGBERT CS","611E001","2013-05-02 05:00","2013","05","02","05:00","13.8","","7.5","","66","","","","21","","4","","","M","99.60","","","","","","NA"
"-79.78","44.23","EGBERT CS","611E001","2013-05-02 06:00","2013","05","02","06:00","13.3","","6.6","","64","","","","14","","4","","","M","99.58","","","","","","NA"
"-79.78","44.23","EGBERT CS","611E001","2013-05-02 07:00","2013","05","02","07:00","11.8","","5.2","","64","","","","12","","4","","","M","99.56","","","","","","NA"
"-79.78","44.23","EGBERT CS","611E001","2013-05-02 08:00","2013","05","02","08:00","11.3","","4.1","","61","","","","","","0","","","M","99.59","","","","","","NA"
"-79.78","44.23","EGBERT CS","611E001","2013-05-02 09:00","2013","05","02","09:00","10.0","","4.1","","67","","","","9","","6","","","M","99.60","","","","","","NA"
"-79.78","44.23","EGBERT CS","611E001","2013-05-02 10:00","2013","05","02","10:00","9.4","","5.0","","74","","","","21","","11","","","M","99.65","","","","","","NA"
"-79.78","44.23","EGBERT CS","611E001","2013-05-02 11:00","2013","05","02","11:00","9.6","","5.6","","76","","","","14","","7","","","M","99.68","","","","","","NA"
"-79.78","44.23","EGBERT CS","611E001","2013-05-02 12:00","2013","05","02","12:00","13.5","","6.7","","63","","","","17","","7","","","M","99.72","","","","","","NA"
"-79.78","44.23","EGBERT CS","611E001","2013-05-02 13:00","2013","05","02","13:00","16.9","","5.5","","47","","","","18","","13","","","M","99.74","","","","","","NA"
"-79.78","44.23","EGBERT CS","611E001","2013-05-02 14:00","2013","05","02","14:00","19.1","","6.2","","43","","","","17","","17","","","M","99.75","","","","","","NA"
"-79.78","44.23","EGBERT CS","611E001","2013-05-02 15:00","2013","05","02","15:00","20.1","","5.9","","39","","","","17","","13","","","M","99.77","","","","","","NA"
"-79.78","44.23","EGBERT CS","611E001","2013-05-02 16:00","2013","05","02","16:00","21.5","","5.7","","36","","","","15","","17","","","M","99.74","","","","","","NA"
"-79.78","44.23","EGBERT CS","611E001","2013-05-02 17:00","2013","05","02","17:00","22.2","","5.6","","34","","","","14","","17","","","M","99.70","","","","","","NA"
"-79.78","44.23","EGBERT CS","611E001","2013-05-02 18:00","2013","05","02","18:00","22.7","","3.2","","28","","","","15","","17","","","M","99.66","","","","","","NA"
"-79.78","44.23","EGBERT CS","611E001","2013-05-02 19:00","2013","05","02","19:00","23.1","","3.0","","27","","","","14","","22","","","M","99.62","","","","","","NA"
"-79.78","44.23","EGBERT CS","611E001","2013-05-02 20:00","2013","05","02","20:00","22.6","","0.5","","23","","","","13","","28","","","M","99.55","","","","","","NA"
"-79.78","44.23","EGBERT CS","611E001","2013-05-02 21:00","2013","05","02","21:00","22.3","","0.2","","23","","","","14","","22","","","M","99.52","","","","","","NA"
"-79.78","44.23","EGBERT CS","611E001","2013-05-02 22:00","2013","05","02","22:00","21.8","","-1.3","","21","","","","14","","19","","","M","99.49","","","","","","NA"
"-79.78","44.23","EGBERT CS","611E001","2013-05-02 23:00","2013","05","02","23:00","21.2","","0.6","","25","","","","14","","17","","","M","99.46","","","","","","NA"
"-79.78","44.23","EGBERT CS","611E001","2013-05-03 00:00","2013","05","03","00:00","17.7","","4.4","","41","","","","13","","13","","","M","99.44","","","","","","NA"
"-79.78","44.23","EGBERT CS","611E001","2013-05-03 01:00","2013","05","03","01:00","15.6","","4.0","","46","","","","13","","7","","","M","99.44","","","","","","NA"
"-79.78","44.23","EGBERT CS","611E001","2013-05-03 02:00","2013","05","03","02:00","15.9","","2.9","","42","","","","","","0","","","M","99.45","","","","","","NA"
"-79.78","44.23","EGBERT CS","611E001","2013-05-03 03:00","2013","05","03","03:00","13.8","","3.8","","51","","","","8","","4","","","M","99.41","","","","","","NA"
"-79.78","44.23","EGBERT CS","611E001","2013-05-03 04:00","2013","05","03","04:00","14.1","","3.0","","47","","","","","","0","","","M","99.40","","","","","","NA"
"-79.78","44.23","EGBERT CS","611E001","2013-05-03 05:00","2013","05","03","05:00","13.5","","3.2","","50","","","","","","0","","","M","99.38","","","","","","NA"
"-79.78","44.23","EGBERT CS","611E001","2013-05-03 06:00","2013","05","03","06:00","13.7","","4.1","","52","","","","13","","15","","","M","99.39","","","","","","NA"
"-79.78","44.23","EGBERT CS","611E001","2013-05-03 07:00","2013","05","03","07:00","12.5","","2.8","","52","","","","17","","6","","","M","99.37","","","","","","NA"
"-79.78","44.23","EGBERT CS","611E001","2013-05-03 08:00","2013","05","03","08:00","12.4","","2.5","","51","","","","14","","6","","","M","99.38","","","","","","NA"
"-79.78","44.23","EGBERT CS","611E001","2013-05-03 09:00","2013","05","03","09:00","10.7","","3.0","","59","","","","12","","9","","","M","99.39","","","","","","NA"
"-79.78","44.23","EGBERT CS","611E001","2013-05-03 10:00","2013","05","03","10:00","10.5","","3.4","","61","","","","11","","11","","","M","99.42","","","","","","NA"
"-79.78","44.23","EGBERT CS","611E001","2013-05-03 11:00","2013","05","03","11:00","10.9","","3.1","","59","","","","","","0","","","M","99.46","","","","","","NA"
"-79.78","44.23","EGBERT CS","611E001","2013-05-03 12:00","2013","05","03","12:00","10.7","","5.7","","71","","","","16","","4","","","M","99.48","","","","","","NA"
"-79.78","44.23","EGBERT CS","611E001","2013-05-03 13:00","2013","05","03","13:00","16.6","","5.6","","48","","","","15","","9","","","M","99.48","","","","","","NA"
"-79.78","44.23","EGBERT CS","611E001","2013-05-03 14:00","2013","05","03","14:00","17.9","","5.8","","45","","","","15","","15","","","M","99.48","","","","","","NA"
"-79.78","44.23","EGBERT CS","611E001","2013-05-03 15:00","2013","05","03","15:00","20.4","","1.9","","29","","","","16","","20","","","M","99.45","","","","","","NA"
"-79.78","44.23","EGBERT CS","611E001","2013-05-03 16:00","2013","05","03","16:00","21.0","","1.4","","27","","","","16","","19","","","M","99.43","","","","","","NA"
"-79.78","44.23","EGBERT CS","611E001","2013-05-03 17:00","2013","05","03","17:00","21.9","","2.3","","27","","","","16","","19","","","M","99.38","","","","","","NA"
"-79.78","44.23","EGBERT CS","611E001","2013-05-03 18:00","2013","05","03","18:00","22.5","","3.0","","28","","","","15","","22","","","M","99.36","","","","","","NA"
"-79.78","44.23","EGBERT CS","611E001","2013-05-03 19:00","2013","05","03","19:00","23.0","","2.9","","27","","","","16","","19","","","M","99.33","","","","","","NA"
"-79.78","44.23","EGBERT CS","611E001","2013-05-03 20:00","2013","05","03","20:00","23.3","","3.0","","26","","","","16","","19","","","M","99.29","","","","","","NA"
"-79.78","44.23","EGBERT CS","611E001","2013-05-03 21:00","2013","05","03","21:00","23.1","","2.9","","27","","","","18","","19","","","M","99.28","","","","","","NA"
"-79.78","44.23","EGBERT CS","611E001","2013-05-03 22:00","2013","05","03","22:00","21.9","","3.6","","30","","","","14","","22","","","M","99.27","","","","","","NA"
"-79.78","44.23","EGBERT CS","611E001","2013-05-03 23:00","2013","05","03","23:00","21.6","","5.3","","35","","","","13","","19","","","M","99.26","","","","","","NA"
"-79.78","44.23","EGBERT CS","611E001","2013-05-04 00:00","2013","05","04","00:00","19.5","","4.6","","37","","","","14","","13","","","M","99.28","","","","","","NA"
"-79.78","44.23","EGBERT CS","611E001","2013-05-04 01:00","2013","05","04","01:00","16.5","","5.4","","48","","","","15","","9","","","M","99.31","","","","","","NA"
"-79.78","44.23","EGBERT CS","611E001","2013-05-04 02:00","2013","05","04","02:00","15.2","","5.3","","52","","","","13","","13","","","M","99.33","","","","","","NA"
"-79.78","44.23","EGBERT CS","611E001","2013-05-04 03:00","2013","05","04","03:00","14.1","","5.2","","55","","","","12","","11","","","M","99.32","","","","","","NA"
"-79.78","44.23","EGBERT CS","611E001","2013-05-04 04:00","2013","05","04","04:00","14.2","","4.7","","53","","","","10","","6","","","M","99.30","","","","","","NA"
"-79.78","44.23","EGBERT CS","611E001","2013-05-04 05:00","2013","05","04","05:00","12.5","","4.8","","59","","","","9","","4","","","M","99.28","","","","","","NA"
"-79.78","44.23","EGBERT CS","611E001","2013-05-04 06:00","2013","05","04","06:00","12.9","","4.9","","58","","","","","","0","","","M","99.24","","","","","","NA"
"-79.78","44.23","EGBERT CS","611E001","2013-05-04 07:00","2013","05","04","07:00","13.0","","5.1","","59","","","","13","","4","","","M","99.23","","","","","","NA"
"-79.78","44.23","EGBERT CS","611E001","2013-05-04 08:00","2013","05","04","08:00","11.8","","5.5","","65","","","","20","","4","","","M","99.24","","","","","","NA"
"-79.78","44.23","EGBERT CS","611E001","2013-05-04 09:00","2013","05","04","09:00","10.1","","5.4","","73","","","","16","","4","","","M","99.27","","","","","","NA"
"-79.78","44.23","EGBERT CS","611E001","2013-05-04 10:00","2013","05","04","10:00","10.9","","5.4","","69","","","","9","","6","","","M","99.28","","","","","","NA"
"-79.78","44.23","EGBERT CS","611E001","2013-05-04 11:00","2013","05","04","11:00","10.6","","6.6","","76","","","","12","","6","","","M","99.31","","","","","","NA"
"-79.78","44.23","EGBERT CS","611E001","2013-05-04 12:00","2013","05","04","12:00","14.0","","8.0","","67","","","","14","","6","","","M","99.34","","","","","","NA"
"-79.78","44.23","EGBERT CS","611E001","2013-05-04 13:00","2013","05","04","13:00","16.3","","6.5","","52","","","","18","","15","","","M","99.38","","","","","","NA"
"-79.78","44.23","EGBERT CS","611E001","2013-05-04 14:00","2013","05","04","14:00","17.7","","6.6","","48","","","","17","","15","","","M","99.38","","","","","","NA"
"-79.78","44.23","EGBERT CS","611E001","2013-05-04 15:00","2013","05","04","15:00","18.6","","3.6","","37","","","","17","","15","","","M","99.38","","","","","","NA"
"-79.78","44.23","EGBERT CS","611E001","2013-05-04 16:00","2013","05","04","16:00","20.2","","4.2","","35","","","","15","","13","","","M","99.35","","","","","","NA"
"-79.78","44.23","EGBERT CS","611E001","2013-05-04 17:00","2013","05","04","17:00","20.9","","2.1","","29","","","","15","","15","","","M","99.33","","","","","","NA"
"-79.78","44.23","EGBERT CS","611E001","2013-05-04 18:00","2013","05","04","18:00","21.6","","2.8","","29","","","","15","","17","","","M","99.27","","","","","","NA"
"-79.78","44.23","EGBERT CS","611E001","2013-05-04 19:00","2013","05","04","19:00","21.7","","2.5","","28","","","","13","","26","","","M","99.24","","","","","","NA"
"-79.78","44.23","EGBERT CS","611E001","2013-05-04 20:00","2013","05","04","20:00","21.5","","2.2","","28","","","","14","","19","","","M","99.19","","","","","","NA"
"-79.78","44.23","EGBERT CS","611E001","2013-05-04 21:00","2013","05","04","21:00","21.3","","1.1","","26","","","","11","","22","","","M","99.15","","","","","","NA"
"-79.78","44.23","EGBERT CS","611E001","2013-05-04 22:00","2013","05","04","22:00","20.9","","0.5","","26","","","","14","","19","","","M","99.13","","","","","","NA"
"-79.78","44.23","EGBERT CS","611E001","2013-05-04 23:00","2013","05","04","23:00","19.6","","0.2","","27","","","","14","","15","","","M","99.12","","","","","","NA"
"-79.78","44.23","EGBERT CS","611E001","2013-05-05 00:00","2013","05","05","00:00","17.7","","-0.3","","30","","","","16","","7","","","M","99.13","","","","","","NA"
"-79.78","44.23","EGBERT CS","611E001","2013-05-05 01:00","2013","05","05","01:00","14.7","","-0.6","","35","","","","15","","7","","","M","99.15","","","","","","NA"
"-79.78","44.23","EGBERT CS","611E001","2013-05-05 02:00","2013","05","05","02:00","12.7","","1.2","","45","","","","10","","9","","","M","99.16","","","","","","NA"
"-79.78","44.23","EGBERT CS","611E001","2013-05-05 03:00","2013","05","05","03:00","12.1","","1.4","","48","","","","13","","9","","","M","99.17","","","","","","NA"
"-79.78","44.23","EGBERT CS","611E001","2013-05-05 04:00","2013","05","05","04:00","11.2","","1.7","","52","","","","21","","6","","","M","99.15","","","","","","NA"
"-79.78","44.23","EGBERT CS","611E001","2013-05-05 05:00","2013","05","05","05:00","10.2","","2.2","","58","","","","14","","4","","","M","99.14","","","","","","NA"
"-79.78","44.23","EGBERT CS","611E001","2013-05-05 06:00","2013","05","05","06:00","9.0","","2.9","","66","","","","","","0","","","M","99.11","","","","","","NA"
"-79.78","44.23","EGBERT CS","611E001","2013-05-05 07:00","2013","05","05","07:00","8.2","","3.3","","71","","","","16","","4","","","M","99.10","","","","","","NA"
"-79.78","44.23","EGBERT CS","611E001","2013-05-05 08:00","2013","05","05","08:00","7.2","","3.3","","76","","","","","","0","","","M","99.10","","","","","","NA"
"-79.78","44.23","EGBERT CS","611E001","2013-05-05 09:00","2013","05","05","09:00","7.6","","3.0","","73","","","","","","0","","","M","99.11","","","","","","NA"
"-79.78","44.23","EGBERT CS","611E001","2013-05-05 10:00","2013","05","05","10:00","7.0","","3.4","","78","","","","17","","6","","","M","99.12","","","","","","NA"
"-79.78","44.23","EGBERT CS","611E001","2013-05-05 11:00","2013","05","05","11:00","7.6","","3.9","","77","","","","15","","4","","","M","99.16","","","","","","NA"
"-79.78","44.23","EGBERT CS","611E001","2013-05-05 12:00","2013","05","05","12:00","11.3","","5.2","","66","","","","17","","6","","","M","99.18","","","","","","NA"
"-79.78","44.23","EGBERT CS","611E001","2013-05-05 13:00","2013","05","05","13:00","15.9","","5.9","","51","","","","18","","6","","","M","99.19","","","","","","NA"
"-79.78","44.23","EGBERT CS","611E001","2013-05-05 14:00","2013","05","05","14:00","18.0","","8.0","","52","","","","17","","7","","","M","99.19","","","","","","NA"
"-79.78","44.23","EGBERT CS","611E001","2013-05-05 15:00","2013","05","05","15:00","20.3","","7.3","","43","","","","15","","4","","","M","99.17","","","","","","NA"
"-79.78","44.23","EGBERT CS","611E001","2013-05-05 16:00","2013","05","05","16:00","21.2","","5.2","","35","","","","19","","7","","","M","99.15","","","","","","NA"
"-79.78","44.23","EGBERT CS","611E001","2013-05-05 17:00","2013","05","05","17:00","22.3","","4.4","","31","","","","16","","7","","","M","99.08","","","","","","NA"
"-79.78","44.23","EGBERT CS","611E001","2013-05-05 18:00","2013","05","05","18:00","22.5","","3.1","","28","","","","13","","15","","","M","99.05","","","","","","NA"
"-79.78","44.23","EGBERT CS","611E001","2013-05-05 19:00","2013","05","05","19:00","22.9","","2.6","","26","","","","10","","7","","","M","98.99","","","","","","NA"
"-79.78","44.23","EGBERT CS","611E001","2013-05-05 20:00","2013","05","05","20:00","23.1","","0.1","","22","","","","11","","7","","","M","98.93","","","","","","NA"
"-79.78","44.23","EGBERT CS","611E001","2013-05-05 21:00","2013","05","05","21:00","23.4","","1.9","","24","","","","18","","11","","","M","98.88","","","","","","NA"
"-79.78","44.23","EGBERT CS","611E001","2013-05-05 22:00","2013","05","05","22:00","22.9","","5.8","","33","","","","13","","11","","","M","98.87","","","","","","NA"
"-79.78","44.23","EGBERT CS","611E001","2013-05-05 23:00","2013","05","05","23:00","21.4","","3.5","","31","","","","17","","13","","","M","98.87","","","","","","NA"
"-79.78","44.23","EGBERT CS","611E001","2013-05-06 00:00","2013","05","06","00:00","20.4","","3.7","","33","","","","16","","7","","","M","98.89","","","","","","NA"
"-79.78","44.23","EGBERT CS","611E001","2013-05-06 01:00","2013","05","06","01:00","17.3","","5.6","","46","","","","34","","7","","","M","98.93","","","","","","NA"
"-79.78","44.23","EGBERT CS","611E001","2013-05-06 02:00","2013","05","06","02:00","15.0","","5.0","","51","","","","34","","6","","","M","98.96","","","","","","NA"
"-79.78","44.23","EGBERT CS","611E001","2013-05-06 03:00","2013","05","06","03:00","12.8","","5.6","","62","","","","12","","7","","","M","98.93","","","","","","NA"
"-79.78","44.23","EGBERT CS","611E001","2013-05-06 04:00","2013","05","06","04:00","10.2","","5.4","","72","","","","33","","7","","","M","98.93","","","","","","NA"
"-79.78","44.23","EGBERT CS","611E001","2013-05-06 05:00","2013","05","06","05:00","9.5","","5.6","","77","","","","","","0","","","M","98.91","","","","","","NA"
"-79.78","44.23","EGBERT CS","611E001","2013-05-06 06:00","2013","05","06","06:00","8.8","","5.9","","82","","","","20","","4","","","M","98.91","","","","","","NA"
"-79.78","44.23","EGBERT CS","611E001","2013-05-06 07:00","2013","05","06","07:00","8.6","","5.7","","82","","","","","","0","","","M","98.90","","","","","","NA"
"-79.78","44.23","EGBERT CS","611E001","2013-05-06 08:00","2013","05","06","08:00","8.3","","5.4","","82","","","","13","","4","","","M","98.90","","","","","","NA"
"-79.78","44.23","EGBERT CS","611E001","2013-05-06 09:00","2013","05","06","09:00","8.0","","4.7","","80","","","","18","","4","","","M","98.91","","","","","","NA"
"-79.78","44.23","EGBERT CS","611E001","2013-05-06 10:00","2013","05","06","10:00","7.6","","5.1","","84","","","","14","","4","","","M","98.93","","","","","","NA"
"-79.78","44.23","EGBERT CS","611E001","2013-05-06 11:00","2013","05","06","11:00","7.3","","5.3","","87","","","","16","","6","","","M","98.98","","","","","","NA"
"-79.78","44.23","EGBERT CS","611E001","2013-05-06 12:00","2013","05","06","12:00","11.4","","7.4","","76","","","","18","","4","","","M","99.02","","","","","","NA"
"-79.78","44.23","EGBERT CS","611E001","2013-05-06 13:00","2013","05","06","13:00","14.5","","6.3","","58","","","","20","","7","","","M","99.03","","","","","","NA"
"-79.78","44.23","EGBERT CS","611E001","2013-05-06 14:00","2013","05","06","14:00","17.8","","5.1","","43","","","","20","","6","","","M","99.02","","","","","","NA"
"-79.78","44.23","EGBERT CS","611E001","2013-05-06 15:00","2013","05","06","15:00","20.6","","4.9","","36","","","","16","","6","","","M","99.02","","","","","","NA"
"-79.78","44.23","EGBERT CS","611E001","2013-05-06 16:00","2013","05","06","16:00","21.4","","-1.4","","22","","","","17","","9","","","M","98.99","","","","","","NA"
"-79.78","44.23","EGBERT CS","611E001","2013-05-06 17:00","2013","05","06","17:00","22.5","","3.3","","28","","","","18","","9","","","M","98.92","","","","","","NA"
"-79.78","44.23","EGBERT CS","611E001","2013-05-06 18:00","2013","05","06","18:00","22.8","","3.3","","28","","","","12","","9","","","M","98.87","","","","","","NA"
"-79.78","44.23","EGBERT CS","611E001","2013-05-06 19:00","2013","05","06","19:00","23.1","","0.3","","22","","","","18","","13","","","M","98.81","","","","","","NA"
"-79.78","44.23","EGBERT CS","611E001","2013-05-06 20:00","2013","05","06","20:00","23.6","","3.1","","26","","","","16","","7","","","M","98.73","","","","","","NA"
"-79.78","44.23","EGBERT CS","611E001","2013-05-06 21:00","2013","05","06","21:00","23.2","","0.6","","22","","","","14","","7","","","M","98.68","","","","","","NA"
"-79.78","44.23","EGBERT CS","611E001","2013-05-06 22:00","2013","05","06","22:00","22.7","","1.1","","24","","","","14","","13","","","M","98.65","","","","","","NA"
"-79.78","44.23","EGBERT CS","611E001","2013-05-06 23:00","2013","05","06","23:00","21.2","","-2.3","","21","","","","17","","15","","","M","98.65","","","","","","NA"
"-79.78","44.23","EGBERT CS","611E001","2013-05-07 00:00","2013","05","07","00:00","18.7","","-0.7","","27","","","","16","","7","","","M","98.70","","","","","","NA"
"-79.78","44.23","EGBERT CS","611E001","2013-05-07 01:00","2013","05","07","01:00","17.1","","-1.7","","28","","","","14","","4","","","M","98.74","","","","","","NA"
"-79.78","44.23","EGBERT CS","611E001","2013-05-07 02:00","2013","05","07","02:00","13.3","","0.8","","42","","","","12","","6","","","M","98.78","","","","","","NA"
"-79.78","44.23","EGBERT CS","611E001","2013-05-07 03:00","2013","05","07","03:00","12.6","","-0.4","","41","","","","","","0","","","M","98.79","","","","","","NA"
"-79.78","44.23","EGBERT CS","611E001","2013-05-07 04:00","2013","05","07","04:00","12.0","","-2.1","","37","","","","","","0","","","M","98.79","","","","","","NA"
"-79.78","44.23","EGBERT CS","611E001","2013-05-07 05:00","2013","05","07","05:00","9.4","","0.9","","55","","","","17","","6","","","M","98.80","","","","","","NA"
"-79.78","44.23","EGBERT CS","611E001","2013-05-07 06:00","2013","05","07","06:00","8.0","","1.4","","63","","","","23","","4","","","M","98.81","","","","","","NA"
"-79.78","44.23","EGBERT CS","611E001","2013-05-07 07:00","2013","05","07","07:00","8.8","","0.7","","57","","","","","","0","","","M","98.78","","","","","","NA"
"-79.78","44.23","EGBERT CS","611E001","2013-05-07 08:00","2013","05","07","08:00","5.1","","2.2","","82","","","","13","","6","","","M","98.80","","","","","","NA"
"-79.78","44.23","EGBERT CS","611E001","2013-05-07 09:00","2013","05","07","09:00","5.4","","1.7","","77","","","","15","","6","","","M","98.81","","","","","","NA"
"-79.78","44.23","EGBERT CS","611E001","2013-05-07 10:00","2013","05","07","10:00","4.7","","2.0","","83","","","","19","","9","","","M","98.85","","","","","","NA"
"-79.78","44.23","EGBERT CS","611E001","2013-05-07 11:00","2013","05","07","11:00","6.3","","3.0","","79","","","","16","","4","","","M","98.87","","","","","","NA"
"-79.78","44.23","EGBERT CS","611E001","2013-05-07 12:00","2013","05","07","12:00","9.8","","4.8","","71","","","","21","","4","","","M","98.91","","","","","","NA"
"-79.78","44.23","EGBERT CS","611E001","2013-05-07 13:00","2013","05","07","13:00","15.7","","6.8","","55","","","","","","0","","","M","98.92","","","","","","NA"
"-79.78","44.23","EGBERT CS","611E001","2013-05-07 14:00","2013","05","07","14:00","18.8","","0.7","","30","","","","","","0","","","M","98.95","","","","","","NA"
"-79.78","44.23","EGBERT CS","611E001","2013-05-07 15:00","2013","05","07","15:00","21.1","","-1.5","","22","","","","3","","7","","","M","98.94","","","","","","NA"
"-79.78","44.23","EGBERT CS","611E001","2013-05-07 16:00","2013","05","07","16:00","22.3","","-2.6","","19","","","","2","","9","","","M","98.90","","","","","","NA"
"-79.78","44.23","EGBERT CS","611E001","2013-05-07 17:00","2013","05","07","17:00","22.8","","-1.4","","20","","","","9","","7","","","M","98.86","","","","","","NA"
"-79.78","44.23","EGBERT CS","611E001","2013-05-07 18:00","2013","05","07","18:00","23.4","","0.1","","21","","","","11","","6","","","M","98.82","","","","","","NA"
"-79.78","44.23","EGBERT CS","611E001","2013-05-07 19:00","2013","05","07","19:00","23.9","","-0.4","","20","","","","3","","6","","","M","98.78","","","","","","NA"
"-79.78","44.23","EGBERT CS","611E001","2013-05-07 20:00","2013","05","07","20:00","24.4","","2.3","","24","","","","14","","7","","","M","98.71","","","","","","NA"
"-79.78","44.23","EGBERT CS","611E001","2013-05-07 21:00","2013","05","07","21:00","23.5","","2.8","","26","","","","15","","13","","","M","98.66","","","","","","NA"
"-79.78","44.23","EGBERT CS","611E001","2013-05-07 22:00","2013","05","07","22:00","24.3","","1.6","","23","","","","15","","7","","","M","98.65","","","","","","NA"
"-79.78","44.23","EGBERT CS","611E001","2013-05-07 23:00","2013","05","07","23:00","23.7","","2.3","","25","","","","32","","4","","","M","98.67","","","","","","NA"
"-79.78","44.23","EGBERT CS","611E001","2013-05-08 00:00","2013","05","08","00:00","21.0","","1.9","","28","","","","31","","7","","","M","98.71","","","","","","NA"
"-79.78","44.23","EGBERT CS","611E001","2013-05-08 01:00","2013","05","08","01:00","17.8","","1.6","","34","","","","33","","6","","","M","98.75","","","","","","NA"
"-79.78","44.23","EGBERT CS","611E001","2013-05-08 02:00","2013","05","08","02:00","15.2","","2.1","","41","","","","1","","6","","","M","98.77","","","","","","NA"
"-79.78","44.23","EGBERT CS","611E001","2013-05-08 03:00","2013","05","08","03:00","13.6","","1.4","","43","","","","2","","4","","","M","98.78","","","","","","NA"
"-79.78","44.23","EGBERT CS","611E001","2013-05-08 04:00","2013","05","08","04:00","12.5","","1.9","","48","","","","35","","4","","","M","98.78","","","","","","NA"
"-79.78","44.23","EGBERT CS","611E001","2013-05-08 05:00","2013","05","08","05:00","10.8","","2.1","","55","","","","30","","4","","","M","98.76","","","","","","NA"
"-79.78","44.23","EGBERT CS","611E001","2013-05-08 06:00","2013","05","08","06:00","8.8","","3.2","","68","","","","34","","7","","","M","98.73","","","","","","NA"
"-79.78","44.23","EGBERT CS","611E001","2013-05-08 07:00","2013","05","08","07:00","8.8","","2.2","","63","","","","","","0","","","M","98.71","","","","","","NA"
"-79.78","44.23","EGBERT CS","611E001","2013-05-08 08:00","2013","05","08","08:00","7.3","","3.3","","76","","","","18","","9","","","M","98.72","","","","","","NA"
"-79.78","44.23","EGBERT CS","611E001","2013-05-08 09:00","2013","05","08","09:00","7.8","","3.2","","73","","","","","","0","","","M","98.72","","","","","","NA"
"-79.78","44.23","EGBERT CS","611E001","2013-05-08 10:00","2013","05","08","10:00","7.7","","3.6","","75","","","","","","0","","","M","98.72","","","","","","NA"
"-79.78","44.23","EGBERT CS","611E001","2013-05-08 11:00","2013","05","08","11:00","8.4","","4.9","","79","","","","17","","4","","","M","98.75","","","","","","NA"
"-79.78","44.23","EGBERT CS","611E001","2013-05-08 12:00","2013","05","08","12:00","11.7","","5.7","","67","","","","","","0","","","M","98.74","","","","","","NA"
"-79.78","44.23","EGBERT CS","611E001","2013-05-08 13:00","2013","05","08","13:00","16.5","","7.1","","54","","","","","","0","","","M","98.73","","","","","","NA"
"-79.78","44.23","EGBERT CS","611E001","2013-05-08 14:00","2013","05","08","14:00","21.0","","8.2","","44","","","","9","","9","","","M","98.72","","","","","","NA"
"-79.78","44.23","EGBERT CS","611E001","2013-05-08 15:00","2013","05","08","15:00","22.2","","7.7","","39","","","","8","","9","","","M","98.71","","","","","","NA"
"-79.78","44.23","EGBERT CS","611E001","2013-05-08 16:00","2013","05","08","16:00","22.2","","8.9","","43","","","","10","","9","","","M","98.66","","","","","","NA"
"-79.78","44.23","EGBERT CS","611E001","2013-05-08 17:00","2013","05","08","17:00","23.1","","8.9","","40","","","","10","","9","","","M","98.60","","","","","","NA"
"-79.78","44.23","EGBERT CS","611E001","2013-05-08 18:00","2013","05","08","18:00","23.5","","9.2","","40","","","","12","","7","","","M","98.57","","","","","","NA"
"-79.78","44.23","EGBERT CS","611E001","2013-05-08 19:00","2013","05","08","19:00","23.8","","10.1","","42","","","","9","","15","","","M","98.52","","25","","","","NA"
"-79.78","44.23","EGBERT CS","611E001","2013-05-08 20:00","2013","05","08","20:00","23.9","","10.6","","43","","","","10","","15","","","M","98.47","","25","","","","NA"
"-79.78","44.23","EGBERT CS","611E001","2013-05-08 21:00","2013","05","08","21:00","23.4","","7.7","","37","","","","8","","15","","","M","98.44","","","","","","NA"
"-79.78","44.23","EGBERT CS","611E001","2013-05-08 22:00","2013","05","08","22:00","22.7","","9.3","","42","","","","15","","15","","","M","98.44","","","","","","NA"
"-79.78","44.23","EGBERT CS","611E001","2013-05-08 23:00","2013","05","08","23:00","20.6","","12.5","","60","","","","15","","15","","","M","98.46","","","","","","NA"
"-79.78","44.23","EGBERT CS","611E001","2013-05-09 00:00","2013","05","09","00:00","18.4","","12.8","","70","","","","12","","7","","","M","98.49","","","","","","NA"
"-79.78","44.23","EGBERT CS","611E001","2013-05-09 01:00","2013","05","09","01:00","17.2","","12.8","","75","","","","12","","6","","","M","98.49","","","","","","NA"
"-79.78","44.23","EGBERT CS","611E001","2013-05-09 02:00","2013","05","09","02:00","16.7","","13.1","","79","","","","13","","7","","","M","98.50","","","","","","NA"
"-79.78","44.23","EGBERT CS","611E001","2013-05-09 03:00","2013","05","09","03:00","16.3","","13.5","","83","","","","12","","7","","","M","98.50","","","","","","NA"
"-79.78","44.23","EGBERT CS","611E001","2013-05-09 04:00","2013","05","09","04:00","16.2","","12.8","","80","","","","","","0","","","M","98.47","","","","","","NA"
"-79.78","44.23","EGBERT CS","611E001","2013-05-09 05:00","2013","05","09","05:00","14.8","","13.1","","90","","","","12","","6","","","M","98.42","","","","","","NA"
"-79.78","44.23","EGBERT CS","611E001","2013-05-09 06:00","2013","05","09","06:00","14.6","","13.1","","91","","","","15","","4","","","M","98.37","","","","","","NA"
"-79.78","44.23","EGBERT CS","611E001","2013-05-09 07:00","2013","05","09","07:00","14.2","","12.9","","92","","","","23","","4","","","M","98.29","","","","","","NA"
"-79.78","44.23","EGBERT CS","611E001","2013-05-09 08:00","2013","05","09","08:00","14.3","","13.1","","92","","","","","","0","","","M","98.29","","","","","","NA"
"-79.78","44.23","EGBERT CS","611E001","2013-05-09 09:00","2013","05","09","09:00","14.2","","13.1","","93","","","","8","","4","","","M","98.29","","","","","","NA"
"-79.78","44.23","EGBERT CS","611E001","2013-05-09 10:00","2013","05","09","10:00","13.8","","13.1","","96","","","","11","","4","","","M","98.28","","","","","","NA"
"-79.78","44.23","EGBERT CS","611E001","2013-05-09 11:00","2013","05","09","11:00","14.3","","13.5","","95","","","","","","0","","","M","98.30","","","","","","NA"
"-79.78","44.23","EGBERT CS","611E001","2013-05-09 12:00","2013","05","09","12:00","14.4","","13.3","","93","","","","28","","4","","","M","98.33","","","","","","NA"
"-79.78","44.23","EGBERT CS","611E001","2013-05-09 13:00","2013","05","09","13:00","14.9","","13.3","","90","","","","","","0","","","M","98.36","","","","","","NA"
"-79.78","44.23","EGBERT CS","611E001","2013-05-09 14:00","2013","05","09","14:00","15.4","","13.9","","91","","","","27","","6","","","M","98.36","","","","","","NA"
"-79.78","44.23","EGBERT CS","611E001","2013-05-09 15:00","2013","05","09","15:00","16.5","","13.5","","82","","","","25","","6","","","M","98.36","","","","","","NA"
"-79.78","44.23","EGBERT CS","611E001","2013-05-09 16:00","2013","05","09","16:00","17.7","","12.8","","73","","","","4","","6","","","M","98.37","","","","","","NA"
"-79.78","44.23","EGBERT CS","611E001","2013-05-09 17:00","2013","05","09","17:00","20.3","","12.4","","60","","","","7","","4","","","M","98.33","","","","","","NA"
"-79.78","44.23","EGBERT CS","611E001","2013-05-09 18:00","2013","05","09","18:00","22.7","","8.2","","39","","","","1","","11","","","M","98.30","","","","","","NA"
"-79.78","44.23","EGBERT CS","611E001","2013-05-09 19:00","2013","05","09","19:00","23.7","","6.5","","33","","","","34","","9","","","M","98.27","","","","","","NA"
"-79.78","44.23","EGBERT CS","611E001","2013-05-09 20:00","2013","05","09","20:00","21.0","","8.2","","44","","","","35","","19","","","M","98.28","","","","","","NA"
"-79.78","44.23","EGBERT CS","611E001","2013-05-09 21:00","2013","05","09","21:00","20.7","","8.0","","44","","","","33","","19","","","M","98.28","","","","","","NA"
"-79.78","44.23","EGBERT CS","611E001","2013-05-09 22:00","2013","05","09","22:00","18.8","","6.2","","44","","","","35","","20","","","M","98.29","","","","","","NA"
"-79.78","44.23","EGBERT CS","611E001","2013-05-09 23:00","2013","05","09","23:00","17.3","","6.6","","49","","","","34","","17","","","M","98.31","","","","","","NA"
"-79.78","44.23","EGBERT CS","611E001","2013-05-10 00:00","2013","05","10","00:00","14.9","","7.2","","60","","","","34","","13","","","M","98.33","","","","","","NA"
"-79.78","44.23","EGBERT CS","611E001","2013-05-10 01:00","2013","05","10","01:00","13.5","","6.2","","61","","","","33","","9","","","M","98.39","","","","","","NA"
"-79.78","44.23","EGBERT CS","611E001","2013-05-10 02:00","2013","05","10","02:00","12.0","","6.6","","69","","","","35","","7","","","M","98.44","","","","","","NA"
"-79.78","44.23","EGBERT CS","611E001","2013-05-10 03:00","2013","05","10","03:00","11.4","","5.8","","68","","","","","","0","","","M","98.43","","","","","","NA"
"-79.78","44.23","EGBERT CS","611E001","2013-05-10 04:00","2013","05","10","04:00","10.0","","5.9","","76","","","","34","","7","","","M","98.42","","","","","","NA"
"-79.78","44.23","EGBERT CS","611E001","2013-05-10 05:00","2013","05","10","05:00","8.7","","5.8","","82","","","","32","","7","","","M","98.42","","","","","","NA"
"-79.78","44.23","EGBERT CS","611E001","2013-05-10 06:00","2013","05","10","06:00","8.1","","5.5","","84","","","","35","","4","","","M","98.44","","","","","","NA"
"-79.78","44.23","EGBERT CS","611E001","2013-05-10 07:00","2013","05","10","07:00","7.6","","5.3","","85","","","","32","","7","","","M","98.40","","","","","","NA"
"-79.78","44.23","EGBERT CS","611E001","2013-05-10 08:00","2013","05","10","08:00","7.9","","5.8","","87","","","","1","","9","","","M","98.36","","","","","","NA"
"-79.78","44.23","EGBERT CS","611E001","2013-05-10 09:00","2013","05","10","09:00","6.6","","5.3","","91","","","","35","","7","","","M","98.34","","","","","","NA"
"-79.78","44.23","EGBERT CS","611E001","2013-05-10 10:00","2013","05","10","10:00","6.1","","4.9","","92","","","","31","","6","","","M","98.33","","","","","","NA"
"-79.78","44.23","EGBERT CS","611E001","2013-05-10 11:00","2013","05","10","11:00","7.6","","6.6","","93","","","","33","","7","","","M","98.33","","","","","","NA"
"-79.78","44.23","EGBERT CS","611E001","2013-05-10 12:00","2013","05","10","12:00","8.7","","7.2","","90","","","","33","","9","","","M","98.35","","","","","","NA"
"-79.78","44.23","EGBERT CS","611E001","2013-05-10 13:00","2013","05","10","13:00","9.5","","7.5","","87","","","","33","","6","","","M","98.38","","","","","","NA"
"-79.78","44.23","EGBERT CS","611E001","2013-05-10 14:00","2013","05","10","14:00","10.2","","7.8","","85","","","","5","","9","","","M","98.30","","","","","","NA"
"-79.78","44.23","EGBERT CS","611E001","2013-05-10 15:00","2013","05","10","15:00","9.6","","8.0","","90","","","","4","","7","","","M","98.25","","","","","","NA"
"-79.78","44.23","EGBERT CS","611E001","2013-05-10 16:00","2013","05","10","16:00","9.8","","8.5","","92","","","","7","","19","","","M","98.09","","","","","","NA"
"-79.78","44.23","EGBERT CS","611E001","2013-05-10 17:00","2013","05","10","17:00","10.5","","9.4","","93","","","","9","","26","","","M","97.95","","","","","","NA"
"-79.78","44.23","EGBERT CS","611E001","2013-05-10 18:00","2013","05","10","18:00","11.3","","10.3","","94","","","","10","","9","","","M","97.93","","","","","","NA"
"-79.78","44.23","EGBERT CS","611E001","2013-05-10 19:00","2013","05","10","19:00","11.4","","10.7","","95","","","","1","","4","","","M","97.88","","","","","","NA"
"-79.78","44.23","EGBERT CS","611E001","2013-05-10 20:00","2013","05","10","20:00","11.5","","10.8","","95","","","","3","","6","","","M","97.81","","","","","","NA"
"-79.78","44.23","EGBERT CS","611E001","2013-05-10 21:00","2013","05","10","21:00","11.4","","10.7","","95","","","","35","","4","","","M","97.77","","","","","","NA"
"-79.78","44.23","EGBERT CS","611E001","2013-05-10 22:00","2013","05","10","22:00","10.3","","9.6","","95","","","","1","","9","","","M","97.76","","","","","","NA"
"-79.78","44.23","EGBERT CS","611E001","2013-05-10 23:00","2013","05","10","23:00","9.7","","8.9","","95","","","","1","","7","","","M","97.75","","","","","","NA"
"-79.78","44.23","EGBERT CS","611E001","2013-05-11 00:00","2013","05","11","00:00","8.9","","8.2","","95","","","","2","","9","","","M","97.72","","","","","","NA"
"-79.78","44.23","EGBERT CS","611E001","2013-05-11 01:00","2013","05","11","01:00","8.4","","7.8","","96","","","","1","","7","","","M","97.69","","","","","","NA"
"-79.78","44.23","EGBERT CS","611E001","2013-05-11 02:00","2013","05","11","02:00","8.1","","7.6","","97","","","","35","","9","","","M","97.68","","","","","","NA"
"-79.78","44.23","EGBERT CS","611E001","2013-05-11 03:00","2013","05","11","03:00","6.9","","6.5","","97","","","","33","","11","","","M","97.66","","","","","","NA"
"-79.78","44.23","EGBERT CS","611E001","2013-05-11 04:00","2013","05","11","04:00","6.5","","6.2","","98","","","","32","","11","","","M","97.64","","","","","","NA"
"-79.78","44.23","EGBERT CS","611E001","2013-05-11 05:00","2013","05","11","05:00","6.2","","5.9","","98","","","","32","","11","","","M","97.62","","","","","","NA"
"-79.78","44.23","EGBERT CS","611E001","2013-05-11 06:00","2013","05","11","06:00","6.2","","5.9","","98","","","","31","","11","","","M","97.59","","","","","","NA"
"-79.78","44.23","EGBERT CS","611E001","2013-05-11 07:00","2013","05","11","07:00","5.8","","5.5","","98","","","","31","","11","","","M","97.55","","","","","","NA"
"-79.78","44.23","EGBERT CS","611E001","2013-05-11 08:00","2013","05","11","08:00","5.3","","5.0","","98","","","","31","","11","","","M","97.55","","","","","","NA"
"-79.78","44.23","EGBERT CS","611E001","2013-05-11 09:00","2013","05","11","09:00","4.9","","4.6","","98","","","","30","","11","","","M","97.61","","","","","","NA"
"-79.78","44.23","EGBERT CS","611E001","2013-05-11 10:00","2013","05","11","10:00","4.5","","4.2","","98","","","","30","","13","","","M","97.66","","","","","","NA"
"-79.78","44.23","EGBERT CS","611E001","2013-05-11 11:00","2013","05","11","11:00","4.4","","4.1","","98","","","","31","","13","","","M","97.70","","","","","","NA"
"-79.78","44.23","EGBERT CS","611E001","2013-05-11 12:00","2013","05","11","12:00","4.3","","3.9","","97","","","","31","","15","","","M","97.72","","","","","","NA"
"-79.78","44.23","EGBERT CS","611E001","2013-05-11 13:00","2013","05","11","13:00","4.6","","4.2","","97","","","","32","","15","","","M","97.74","","","","","","NA"
"-79.78","44.23","EGBERT CS","611E001","2013-05-11 14:00","2013","05","11","14:00","5.4","","4.7","","95","","","","32","","15","","","M","97.76","","","","","","NA"
"-79.78","44.23","EGBERT CS","611E001","2013-05-11 15:00","2013","05","11","15:00","6.8","","5.2","","90","","","","32","","11","","","M","97.75","","","","","","NA"
"-79.78","44.23","EGBERT CS","611E001","2013-05-11 16:00","2013","05","11","16:00","8.2","","5.5","","83","","","","33","","9","","","M","97.76","","","","","","NA"
"-79.78","44.23","EGBERT CS","611E001","2013-05-11 17:00","2013","05","11","17:00","8.5","","5.7","","83","","","","32","","9","","","M","97.76","","","","","","NA"
"-79.78","44.23","EGBERT CS","611E001","2013-05-11 18:00","2013","05","11","18:00","9.8","","6.3","","79","","","","29","","7","","","M","97.75","","","","","","NA"
"-79.78","44.23","EGBERT CS","611E001","2013-05-11 19:00","2013","05","11","19:00","11.3","","6.1","","70","","","","35","","7","","","M","97.69","","","","","","NA"
"-79.78","44.23","EGBERT CS","611E001","2013-05-11 20:00","2013","05","11","20:00","12.2","","6.5","","68","","","","16","","6","","","M","97.63","","","","","","NA"
"-79.78","44.23","EGBERT CS","611E001","2013-05-11 21:00","2013","05","11","21:00","13.2","","7.3","","67","","","","18","","9","","","M","97.57","","","","","","NA"
"-79.78","44.23","EGBERT CS","611E001","2013-05-11 22:00","2013","05","11","22:00","14.0","","7.0","","63","","","","23","","19","","","M","97.56","","","","","","NA"
"-79.78","44.23","EGBERT CS","611E001","2013-05-11 23:00","2013","05","11","23:00","11.5","","5.5","","67","","","","23","","19","","","M","97.55","","","","","","NA"
"-79.78","44.23","EGBERT CS","611E001","2013-05-12 00:00","2013","05","12","00:00","11.0","","5.0","","66","","","","24","","17","","","M","97.54","","","","","","NA"
"-79.78","44.23","EGBERT CS","611E001","2013-05-12 01:00","2013","05","12","01:00","10.5","","5.0","","69","","","","20","","15","","","M","97.50","","","","","","NA"
"-79.78","44.23","EGBERT CS","611E001","2013-05-12 02:00","2013","05","12","02:00","10.1","","5.7","","74","","","","19","","11","","","M","97.47","","","","","","NA"
"-79.78","44.23","EGBERT CS","611E001","2013-05-12 03:00","2013","05","12","03:00","10.1","","6.3","","77","","","","20","","19","","","M","97.41","","","","","","NA"
"-79.78","44.23","EGBERT CS","611E001","2013-05-12 04:00","2013","05","12","04:00","5.2","","2.5","","83","","","","27","","24","","","M","97.54","","","","","","NA"
"-79.78","44.23","EGBERT CS","611E001","2013-05-12 05:00","2013","05","12","05:00","3.9","","0.6","","79","","","","28","","17","","","M","97.61","","","","","","NA"
"-79.78","44.23","EGBERT CS","611E001","2013-05-12 06:00","2013","05","12","06:00","3.2","","0.4","","82","","","","29","","15","","","M","97.60","","","","","","NA"
"-79.78","44.23","EGBERT CS","611E001","2013-05-12 07:00","2013","05","12","07:00","2.8","","-0.8","","77","","","","27","","13","","","M","97.63","","","","","","NA"
"-79.78","44.23","EGBERT CS","611E001","2013-05-12 08:00","2013","05","12","08:00","1.6","","-1.1","","82","","","","24","","11","","","M","97.61","","","","","","NA"
"-79.78","44.23","EGBERT CS","611E001","2013-05-12 09:00","2013","05","12","09:00","0.8","","-1.4","","85","","","","22","","9","","","M","97.56","","","","","","NA"
"-79.78","44.23","EGBERT CS","611E001","2013-05-12 10:00","2013","05","12","10:00","1.0","","-0.8","","88","","","","22","","11","","","M","97.52","","","","","","NA"
"-79.78","44.23","EGBERT CS","611E001","2013-05-12 11:00","2013","05","12","11:00","3.3","","0.8","","84","","","","23","","15","","","M","97.51","","","","","","NA"
"-79.78","44.23","EGBERT CS","611E001","2013-05-12 12:00","2013","05","12","12:00","4.2","","0.0","","74","","","","24","","15","","","M","97.49","","","","","","NA"
"-79.78","44.23","EGBERT CS","611E001","2013-05-12 13:00","2013","05","12","13:00","4.5","","0.7","","76","","","","25","","20","","","M","97.48","","","","","","NA"
"-79.78","44.23","EGBERT CS","611E001","2013-05-12 14:00","2013","05","12","14:00","5.0","","-0.6","","67","","","","24","","26","","","M","97.43","","","","","","NA"
"-79.78","44.23","EGBERT CS","611E001","2013-05-12 15:00","2013","05","12","15:00","2.8","","0.7","","86","","","","29","","20","","","M","97.49","","","","","","NA"
"-79.78","44.23","EGBERT CS","611E001","2013-05-12 16:00","2013","05","12","16:00","3.2","","1.0","","85","","","","27","","19","","","M","97.55","","","","","","NA"
"-79.78","44.23","EGBERT CS","611E001","2013-05-12 17:00","2013","05","12","17:00","5.0","","-1.9","","61","","","","28","","28","","","M","97.59","","","","","","NA"
"-79.78","44.23","EGBERT CS","611E001","2013-05-12 18:00","2013","05","12","18:00","4.7","","-2.3","","60","","","","27","","24","","","M","97.65","","","","","","NA"
"-79.78","44.23","EGBERT CS","611E001","2013-05-12 19:00","2013","05","12","19:00","3.9","","2.2","","89","","","","27","","15","","","M","97.68","","","","","","NA"
"-79.78","44.23","EGBERT CS","611E001","2013-05-12 20:00","2013","05","12","20:00","3.7","","-2.1","","66","","","","28","","28","","","M","97.73","","","","","","NA"
"-79.78","44.23","EGBERT CS","611E001","2013-05-12 21:00","2013","05","12","21:00","1.8","","0.1","","88","","","","27","","22","","","M","97.81","","","","","","NA"
"-79.78","44.23","EGBERT CS","611E001","2013-05-12 22:00","2013","05","12","22:00","1.3","","-1.0","","85","","","","28","","22","","","M","97.88","","","","","","NA"
"-79.78","44.23","EGBERT CS","611E001","2013-05-12 23:00","2013","05","12","23:00","0.9","","-0.8","","88","","","","27","","22","","","M","97.93","","","","","","NA"
"-79.78","44.23","EGBERT CS","611E001","2013-05-13 00:00","2013","05","13","00:00","0.9","","-1.0","","87","","","","28","","15","","","M","97.97","","","","","","NA"
"-79.78","44.23","EGBERT CS","611E001","2013-05-13 01:00","2013","05","13","01:00","0.9","","-1.0","","87","","","","27","","17","","","M","98.00","","","","","","NA"
"-79.78","44.23","EGBERT CS","611E001","2013-05-13 02:00","2013","05","13","02:00","1.2","","-0.7","","87","","","","28","","15","","","M","98.08","","","","","","NA"
"-79.78","44.23","EGBERT CS","611E001","2013-05-13 03:00","2013","05","13","03:00","1.0","","-0.1","","92","","","","27","","15","","","M","98.12","","","","","","NA"
"-79.78","44.23","EGBERT CS","611E001","2013-05-13 04:00","2013","05","13","04:00","1.7","","-0.7","","84","","","","29","","15","","","M","98.15","","","","","","NA"
"-79.78","44.23","EGBERT CS","611E001","2013-05-13 05:00","2013","05","13","05:00","1.8","","-0.7","","83","","","","28","","17","","","M","98.22","","","","","","NA"
"-79.78","44.23","EGBERT CS","611E001","2013-05-13 06:00","2013","05","13","06:00","1.9","","-0.8","","82","","","","28","","13","","","M","98.25","","","","","","NA"
"-79.78","44.23","EGBERT CS","611E001","2013-05-13 07:00","2013","05","13","07:00","1.8","","-0.9","","82","","","","28","","13","","","M","98.26","","","","","","NA"
"-79.78","44.23","EGBERT CS","611E001","2013-05-13 08:00","2013","05","13","08:00","1.5","","-1.1","","83","","","","28","","11","","","M","98.28","","","","","","NA"
"-79.78","44.23","EGBERT CS","611E001","2013-05-13 09:00","2013","05","13","09:00","1.2","","-1.2","","84","","","","29","","11","","","M","98.30","","","","","","NA"
"-79.78","44.23","EGBERT CS","611E001","2013-05-13 10:00","2013","05","13","10:00","1.3","","-1.2","","83","","","","29","","13","","","M","98.35","","","","","","NA"
"-79.78","44.23","EGBERT CS","611E001","2013-05-13 11:00","2013","05","13","11:00","1.4","","-1.1","","83","","","","28","","9","","","M","98.39","","","","","","NA"
"-79.78","44.23","EGBERT CS","611E001","2013-05-13 12:00","2013","05","13","12:00","2.8","","-0.8","","77","","","","28","","9","","","M","98.44","","","","","","NA"
"-79.78","44.23","EGBERT CS","611E001","2013-05-13 13:00","2013","05","13","13:00","4.4","","-0.9","","68","","","","30","","13","","","M","98.51","","","","","","NA"
"-79.78","44.23","EGBERT CS","611E001","2013-05-13 14:00","2013","05","13","14:00","5.3","","-0.9","","64","","","","26","","19","","","M","98.54","","","","","","NA"
"-79.78","44.23","EGBERT CS","611E001","2013-05-13 15:00","2013","05","13","15:00","5.8","","-2.0","","57","","","","29","","15","","","M","98.59","","","","","","NA"
"-79.78","44.23","EGBERT CS","611E001","2013-05-13 16:00","2013","05","13","16:00","7.3","","-2.5","","50","","","","29","","15","","","M","98.63","","","","","","NA"
"-79.78","44.23","EGBERT CS","611E001","2013-05-13 17:00","2013","05","13","17:00","7.5","","-4.3","","43","","","","29","","15","","","M","98.66","","","","","","NA"
"-79.78","44.23","EGBERT CS","611E001","2013-05-13 18:00","2013","05","13","18:00","7.3","","-2.8","","49","","","","31","","19","","","M","98.69","","","","","","NA"
"-79.78","44.23","EGBERT CS","611E001","2013-05-13 19:00","2013","05","13","19:00","7.9","","-4.4","","41","","","","28","","17","","","M","98.73","","","","","","NA"
"-79.78","44.23","EGBERT CS","611E001","2013-05-13 20:00","2013","05","13","20:00","7.8","","-4.1","","43","","","","30","","17","","","M","98.74","","","","","","NA"
"-79.78","44.23","EGBERT CS","611E001","2013-05-13 21:00","2013","05","13","21:00","7.7","","-5.1","","40","","","","32","","15","","","M","98.74","","","","","","NA"
"-79.78","44.23","EGBERT CS","611E001","2013-05-13 22:00","2013","05","13","22:00","7.7","","-7.8","","32","","","","31","","15","","","M","98.77","","","","","","NA"
"-79.78","44.23","EGBERT CS","611E001","2013-05-13 23:00","2013","05","13","23:00","7.5","","-9.4","","29","","","","29","","15","","","M","98.78","","","","","","NA"
"-79.78","44.23","EGBERT CS","611E001","2013-05-14 00:00","2013","05","14","00:00","6.2","","-10.4","","29","","","","30","","13","","","M","98.82","","","","","","NA"
"-79.78","44.23","EGBERT CS","611E001","2013-05-14 01:00","2013","05","14","01:00","4.3","","-7.7","","41","","","","29","","7","","","M","98.85","","","","","","NA"
"-79.78","44.23","EGBERT CS","611E001","2013-05-14 02:00","2013","05","14","02:00","3.1","","-5.9","","52","","","","26","","6","","","M","98.90","","","","","","NA"
"-79.78","44.23","EGBERT CS","611E001","2013-05-14 03:00","2013","05","14","03:00","2.6","","-5.3","","56","","","","24","","6","","","M","98.89","","","","","","NA"
"-79.78","44.23","EGBERT CS","611E001","2013-05-14 04:00","2013","05","14","04:00","0.5","","-4.8","","68","","","","24","","4","","","M","98.90","","","","","","NA"
"-79.78","44.23","EGBERT CS","611E001","2013-05-14 05:00","2013","05","14","05:00","-0.1","","-4.2","","74","","","","29","","4","","","M","98.91","","","","-1","","NA"
"-79.78","44.23","EGBERT CS","611E001","2013-05-14 06:00","2013","05","14","06:00","-0.5","","-3.9","","78","","","","12","","6","","","M","98.87","","","","-3","","NA"
"-79.78","44.23","EGBERT CS","611E001","2013-05-14 07:00","2013","05","14","07:00","-0.4","","-3.5","","80","","","","12","","4","","","M","98.87","","","","-2","","NA"
"-79.78","44.23","EGBERT CS","611E001","2013-05-14 08:00","2013","05","14","08:00","0.0","","-2.5","","83","","","","12","","7","","","M","98.84","","","","-2","","NA"
"-79.78","44.23","EGBERT CS","611E001","2013-05-14 09:00","2013","05","14","09:00","0.5","","-2.2","","82","","","","13","","6","","","M","98.85","","","","","","NA"
"-79.78","44.23","EGBERT CS","611E001","2013-05-14 10:00","2013","05","14","10:00","0.5","","-1.8","","85","","","","11","","7","","","M","98.87","","","","","","NA"
"-79.78","44.23","EGBERT CS","611E001","2013-05-14 11:00","2013","05","14","11:00","1.4","","-1.1","","83","","","","11","","7","","","M","98.90","","","","","","NA"
"-79.78","44.23","EGBERT CS","611E001","2013-05-14 12:00","2013","05","14","12:00","4.5","","-0.2","","71","","","","15","","4","","","M","98.90","","","","","","NA"
"-79.78","44.23","EGBERT CS","611E001","2013-05-14 13:00","2013","05","14","13:00","6.8","","0.1","","62","","","","19","","9","","","M","98.84","","","","","","NA"
"-79.78","44.23","EGBERT CS","611E001","2013-05-14 14:00","2013","05","14","14:00","9.8","","0.4","","52","","","","21","","13","","","M","98.79","","","","","","NA"
"-79.78","44.23","EGBERT CS","611E001","2013-05-14 15:00","2013","05","14","15:00","10.8","","-0.5","","45","","","","18","","11","","","M","98.74","","","","","","NA"
"-79.78","44.23","EGBERT CS","611E001","2013-05-14 16:00","2013","05","14","16:00","11.3","","-1.4","","41","","","","23","","15","","","M","98.75","","","","","","NA"
"-79.78","44.23","EGBERT CS","611E001","2013-05-14 17:00","2013","05","14","17:00","10.7","","-2.7","","39","","","","22","","20","","","M","98.69","","","","","","NA"
"-79.78","44.23","EGBERT CS","611E001","2013-05-14 18:00","2013","05","14","18:00","10.8","","-1.6","","42","","","","21","","15","","","M","98.67","","","","","","NA"
"-79.78","44.23","EGBERT CS","611E001","2013-05-14 19:00","2013","05","14","19:00","11.1","","-0.7","","44","","","","17","","17","","","M","98.57","","","","","","NA"
"-79.78","44.23","EGBERT CS","611E001","2013-05-14 20:00","2013","05","14","20:00","10.9","","-0.6","","45","","","","18","","20","","","M","98.49","","","","","","NA"
"-79.78","44.23","EGBERT CS","611E001","2013-05-14 21:00","2013","05","14","21:00","10.9","","-0.8","","44","","","","18","","20","","","M","98.47","","","","","","NA"
"-79.78","44.23","EGBERT CS","611E001","2013-05-14 22:00","2013","05","14","22:00","10.8","","-1.0","","44","","","","15","","19","","","M","98.41","","","","","","NA"
"-79.78","44.23","EGBERT CS","611E001","2013-05-14 23:00","2013","05","14","23:00","10.3","","-0.3","","48","","","","16","","17","","","M","98.42","","","","","","NA"
"-79.78","44.23","EGBERT CS","611E001","2013-05-15 00:00","2013","05","15","00:00","9.9","","0.2","","51","","","","15","","15","","","M","98.38","","","","","","NA"
"-79.78","44.23","EGBERT CS","611E001","2013-05-15 01:00","2013","05","15","01:00","9.0","","1.1","","58","","","","15","","15","","","M","98.35","","","","","","NA"
"-79.78","44.23","EGBERT CS","611E001","2013-05-15 02:00","2013","05","15","02:00","8.4","","1.3","","61","","","","13","","19","","","M","98.34","","","","","","NA"
"-79.78","44.23","EGBERT CS","611E001","2013-05-15 03:00","2013","05","15","03:00","7.3","","0.6","","62","","","","14","","15","","","M","98.29","","","","","","NA"
"-79.78","44.23","EGBERT CS","611E001","2013-05-15 04:00","2013","05","15","04:00","7.2","","0.3","","61","","","","14","","13","","","M","98.17","","","","","","NA"
"-79.78","44.23","EGBERT CS","611E001","2013-05-15 05:00","2013","05","15","05:00","7.8","","0.4","","59","","","","15","","17","","","M","98.09","","","","","","NA"
"-79.78","44.23","EGBERT CS","611E001","2013-05-15 06:00","2013","05","15","06:00","7.9","","0.8","","61","","","","14","","13","","","M","98.07","","","","","","NA"
"-79.78","44.23","EGBERT CS","611E001","2013-05-15 07:00","2013","05","15","07:00","7.6","","0.7","","62","","","","12","","15","","","M","97.95","","","","","","NA"
"-79.78","44.23","EGBERT CS","611E001","2013-05-15 08:00","2013","05","15","08:00","6.9","","2.9","","76","","","","12","","13","","","M","97.82","","","","","","NA"
"-79.78","44.23","EGBERT CS","611E001","2013-05-15 09:00","2013","05","15","09:00","7.1","","3.7","","79","","","","14","","15","","","M","97.69","","","","","","NA"
"-79.78","44.23","EGBERT CS","611E001","2013-05-15 10:00","2013","05","15","10:00","7.5","","4.3","","80","","","","12","","19","","","M","97.53","","","","","","NA"
"-79.78","44.23","EGBERT CS","611E001","2013-05-15 11:00","2013","05","15","11:00","7.0","","4.8","","86","","","","15","","15","","","M","97.43","","","","","","NA"
"-79.78","44.23","EGBERT CS","611E001","2013-05-15 12:00","2013","05","15","12:00","8.7","","5.8","","82","","","","16","","19","","","M","97.35","","","","","","NA"
"-79.78","44.23","EGBERT CS","611E001","2013-05-15 13:00","2013","05","15","13:00","10.0","","6.5","","79","","","","15","","20","","","M","97.19","","","","","","NA"
"-79.78","44.23","EGBERT CS","611E001","2013-05-15 14:00","2013","05","15","14:00","12.8","","7.3","","69","","","","17","","24","","","M","97.06","","","","","","NA"
"-79.78","44.23","EGBERT CS","611E001","2013-05-15 15:00","2013","05","15","15:00","15.2","","9.5","","69","","","","17","","20","","","M","97.01","","","","","","NA"
"-79.78","44.23","EGBERT CS","611E001","2013-05-15 16:00","2013","05","15","16:00","17.4","","11.6","","69","","","","18","","19","","","M","96.97","","","","","","NA"
"-79.78","44.23","EGBERT CS","611E001","2013-05-15 17:00","2013","05","15","17:00","22.3","","11.3","","50","","","","29","","22","","","M","96.95","","","","","","NA"
"-79.78","44.23","EGBERT CS","611E001","2013-05-15 18:00","2013","05","15","18:00","21.4","","8.7","","44","","","","28","","28","","","M","97.07","","","","","","NA"
"-79.78","44.23","EGBERT CS","611E001","2013-05-15 19:00","2013","05","15","19:00","19.5","","7.8","","47","","","","29","","32","","","M","97.21","","","","","","NA"
"-79.78","44.23","EGBERT CS","611E001","2013-05-15 20:00","2013","05","15","20:00","19.7","","6.1","","41","","","","30","","28","","","M","97.31","","","","","","NA"
"-79.78","44.23","EGBERT CS","611E001","2013-05-15 21:00","2013","05","15","21:00","19.2","","4.0","","37","","","","29","","26","","","M","97.40","","","","","","NA"
"-79.78","44.23","EGBERT CS","611E001","2013-05-15 22:00","2013","05","15","22:00","19.6","","2.2","","31","","","","29","","22","","","M","97.47","","","","","","NA"
"-79.78","44.23","EGBERT CS","611E001","2013-05-15 23:00","2013","05","15","23:00","19.5","","4.0","","36","","","","29","","20","","","M","97.49","","","","","","NA"
"-79.78","44.23","EGBERT CS","611E001","2013-05-16 00:00","2013","05","16","00:00","18.7","","4.1","","38","","","","29","","15","","","M","97.55","","","","","","NA"
"-79.78","44.23","EGBERT CS","611E001","2013-05-16 01:00","2013","05","16","01:00","16.3","","4.8","","46","","","","28","","9","","","M","97.60","","","","","","NA"
"-79.78","44.23","EGBERT CS","611E001","2013-05-16 02:00","2013","05","16","02:00","14.6","","4.9","","52","","","","28","","9","","","M","97.71","","","","","","NA"
"-79.78","44.23","EGBERT CS","611E001","2013-05-16 03:00","2013","05","16","03:00","13.4","","5.3","","58","","","","27","","9","","","M","97.73","","","","","","NA"
"-79.78","44.23","EGBERT CS","611E001","2013-05-16 04:00","2013","05","16","04:00","11.7","","5.2","","64","","","","24","","7","","","M","97.68","","","","","","NA"
"-79.78","44.23","EGBERT CS","611E001","2013-05-16 05:00","2013","05","16","05:00","10.7","","4.7","","66","","","","24","","9","","","M","97.67","","","","","","NA"
"-79.78","44.23","EGBERT CS","611E001","2013-05-16 06:00","2013","05","16","06:00","10.3","","3.9","","64","","","","24","","7","","","M","97.62","","","","","","NA"
"-79.78","44.23","EGBERT CS","611E001","2013-05-16 07:00","2013","05","16","07:00","9.9","","3.8","","66","","","","22","","13","","","M","97.60","","","","","","NA"
"-79.78","44.23","EGBERT CS","611E001","2013-05-16 08:00","2013","05","16","08:00","9.4","","3.5","","67","","","","20","","7","","","M","97.59","","","","","","NA"
"-79.78","44.23","EGBERT CS","611E001","2013-05-16 09:00","2013","05","16","09:00","10.1","","2.8","","60","","","","22","","7","","","M","97.61","","","","","","NA"
"-79.78","44.23","EGBERT CS","611E001","2013-05-16 10:00","2013","05","16","10:00","11.1","","2.5","","55","","","","27","","9","","","M","97.68","","","","","","NA"
"-79.78","44.23","EGBERT CS","611E001","2013-05-16 11:00","2013","05","16","11:00","12.7","","2.9","","51","","","","29","","6","","","M","97.76","","","","","","NA"
"-79.78","44.23","EGBERT CS","611E001","2013-05-16 12:00","2013","05","16","12:00","14.6","","4.2","","50","","","","30","","7","","","M","97.81","","","","","","NA"
"-79.78","44.23","EGBERT CS","611E001","2013-05-16 13:00","2013","05","16","13:00","16.5","","3.7","","42","","","","32","","15","","","M","97.84","","","","","","NA"
"-79.78","44.23","EGBERT CS","611E001","2013-05-16 14:00","2013","05","16","14:00","17.5","","2.7","","37","","","","30","","17","","","M","97.88","","","","","","NA"
"-79.78","44.23","EGBERT CS","611E001","2013-05-16 15:00","2013","05","16","15:00","18.1","","1.7","","33","","","","33","","17","","","M","97.91","","","","","","NA"
"-79.78","44.23","EGBERT CS","611E001","2013-05-16 16:00","2013","05","16","16:00","19.2","","1.3","","30","","","","31","","20","","","M","97.89","","","","","","NA"
"-79.78","44.23","EGBERT CS","611E001","2013-05-16 17:00","2013","05","16","17:00","15.6","","2.6","","42","","","","33","","28","","","M","97.95","","","","","","NA"
"-79.78","44.23","EGBERT CS","611E001","2013-05-16 18:00","2013","05","16","18:00","14.4","","3.3","","47","","","","33","","26","","","M","98.00","","","","","","NA"
"-79.78","44.23","EGBERT CS","611E001","2013-05-16 19:00","2013","05","16","19:00","13.3","","3.1","","50","","","","32","","28","","","M","98.08","","","","","","NA"
"-79.78","44.23","EGBERT CS","611E001","2013-05-16 20:00","2013","05","16","20:00","13.3","","3.1","","50","","","","32","","30","","","M","98.15","","","","","","NA"
"-79.78","44.23","EGBERT CS","611E001","2013-05-16 21:00","2013","05","16","21:00","13.4","","2.5","","48","","","","33","","26","","","M","98.24","","","","","","NA"
"-79.78","44.23","EGBERT CS","611E001","2013-05-16 22:00","2013","05","16","22:00","13.5","","3.1","","49","","","","33","","20","","","M","98.31","","","","","","NA"
"-79.78","44.23","EGBERT CS","611E001","2013-05-16 23:00","2013","05","16","23:00","12.5","","3.0","","52","","","","32","","20","","","M","98.36","","","","","","NA"
"-79.78","44.23","EGBERT CS","611E001","2013-05-17 00:00","2013","05","17","00:00","11.5","","2.7","","55","","","","33","","13","","","M","98.48","","","","","","NA"
"-79.78","44.23","EGBERT CS","611E001","2013-05-17 01:00","2013","05","17","01:00","9.4","","2.7","","63","","","","32","","6","","","M","98.55","","","","","","NA"
"-79.78","44.23","EGBERT CS","611E001","2013-05-17 02:00","2013","05","17","02:00","8.2","","2.8","","69","","","","33","","11","","","M","98.64","","","","","","NA"
"-79.78","44.23","EGBERT CS","611E001","2013-05-17 03:00","2013","05","17","03:00","7.2","","2.8","","74","","","","34","","9","","","M","98.70","","","","","","NA"
"-79.78","44.23","EGBERT CS","611E001","2013-05-17 04:00","2013","05","17","04:00","6.1","","3.0","","80","","","","32","","4","","","M","98.76","","","","","","NA"
"-79.78","44.23","EGBERT CS","611E001","2013-05-17 05:00","2013","05","17","05:00","4.5","","2.8","","89","","","","33","","6","","","M","98.80","","","","","","NA"
"-79.78","44.23","EGBERT CS","611E001","2013-05-17 06:00","2013","05","17","06:00","4.0","","2.7","","91","","","","1","","6","","","M","98.80","","","","","","NA"
"-79.78","44.23","EGBERT CS","611E001","2013-05-17 07:00","2013","05","17","07:00","4.1","","3.0","","93","","","","31","","4","","","M","98.85","","","","","","NA"
"-79.78","44.23","EGBERT CS","611E001","2013-05-17 08:00","2013","05","17","08:00","3.2","","2.5","","95","","","","36","","6","","","M","98.88","","","","","","NA"
"-79.78","44.23","EGBERT CS","611E001","2013-05-17 09:00","2013","05","17","09:00","3.3","","2.5","","94","","","","","","0","","","M","98.92","","","","","","NA"
"-79.78","44.23","EGBERT CS","611E001","2013-05-17 10:00","2013","05","17","10:00","2.2","","1.7","","96","","","","32","","4","","","M","99.01","","","","","","NA"
"-79.78","44.23","EGBERT CS","611E001","2013-05-17 11:00","2013","05","17","11:00","3.9","","3.3","","96","","","","21","","4","","","M","99.09","","","","","","NA"
"-79.78","44.23","EGBERT CS","611E001","2013-05-17 12:00","2013","05","17","12:00","6.2","","4.3","","88","","","","","","0","","","M","99.17","","","","","","NA"
"-79.78","44.23","EGBERT CS","611E001","2013-05-17 13:00","2013","05","17","13:00","9.9","","5.1","","72","","","","","","0","","","M","99.21","","","","","","NA"
"-79.78","44.23","EGBERT CS","611E001","2013-05-17 14:00","2013","05","17","14:00","12.6","","5.8","","63","","","","20","","4","","","M","99.24","","","","","","NA"
"-79.78","44.23","EGBERT CS","611E001","2013-05-17 15:00","2013","05","17","15:00","14.4","","4.2","","50","","","","8","","7","","","M","99.27","","","","","","NA"
"-79.78","44.23","EGBERT CS","611E001","2013-05-17 16:00","2013","05","17","16:00","14.8","","3.1","","45","","","","1","","7","","","M","99.25","","","","","","NA"
"-79.78","44.23","EGBERT CS","611E001","2013-05-17 17:00","2013","05","17","17:00","16.3","","5.1","","47","","","","33","","7","","","M","99.21","","","","","","NA"
"-79.78","44.23","EGBERT CS","611E001","2013-05-17 18:00","2013","05","17","18:00","17.1","","5.8","","47","","","","11","","6","","","M","99.22","","","","","","NA"
"-79.78","44.23","EGBERT CS","611E001","2013-05-17 19:00","2013","05","17","19:00","17.5","","3.8","","40","","","","13","","9","","","M","99.19","","","","","","NA"
"-79.78","44.23","EGBERT CS","611E001","2013-05-17 20:00","2013","05","17","20:00","18.5","","4.1","","38","","","","29","","7","","","M","99.18","","","","","","NA"
"-79.78","44.23","EGBERT CS","611E001","2013-05-17 21:00","2013","05","17","21:00","18.3","","4.7","","41","","","","28","","6","","","M","99.17","","","","","","NA"
"-79.78","44.23","EGBERT CS","611E001","2013-05-17 22:00","2013","05","17","22:00","17.9","","4.2","","40","","","","35","","9","","","M","99.15","","","","","","NA"
"-79.78","44.23","EGBERT CS","611E001","2013-05-17 23:00","2013","05","17","23:00","17.2","","2.9","","38","","","","34","","13","","","M","99.15","","","","","","NA"
"-79.78","44.23","EGBERT CS","611E001","2013-05-18 00:00","2013","05","18","00:00","15.4","","3.2","","44","","","","33","","9","","","M","99.19","","","","","","NA"
"-79.78","44.23","EGBERT CS","611E001","2013-05-18 01:00","2013","05","18","01:00","12.5","","2.6","","51","","","","32","","7","","","M","99.24","","","","","","NA"
"-79.78","44.23","EGBERT CS","611E001","2013-05-18 02:00","2013","05","18","02:00","10.0","","3.0","","62","","","","33","","7","","","M","99.29","","","","","","NA"
"-79.78","44.23","EGBERT CS","611E001","2013-05-18 03:00","2013","05","18","03:00","9.3","","2.8","","64","","","","21","","4","","","M","99.34","","","","","","NA"
"-79.78","44.23","EGBERT CS","611E001","2013-05-18 04:00","2013","05","18","04:00","7.5","","3.2","","74","","","","2","","4","","","M","99.33","","","","","","NA"
"-79.78","44.23","EGBERT CS","611E001","2013-05-18 05:00","2013","05","18","05:00","7.8","","3.1","","72","","","","","","0","","","M","99.34","","","","","","NA"
"-79.78","44.23","EGBERT CS","611E001","2013-05-18 06:00","2013","05","18","06:00","8.5","","3.7","","72","","","","","","0","","","M","99.32","","","","","","NA"
"-79.78","44.23","EGBERT CS","611E001","2013-05-18 07:00","2013","05","18","07:00","8.3","","4.4","","76","","","","","","0","","","M","99.28","","","","","","NA"
"-79.78","44.23","EGBERT CS","611E001","2013-05-18 08:00","2013","05","18","08:00","7.5","","5.0","","84","","","","17","","4","","","M","99.28","","","","","","NA"
"-79.78","44.23","EGBERT CS","611E001","2013-05-18 09:00","2013","05","18","09:00","6.6","","4.3","","85","","","","","","0","","","M","99.29","","","","","","NA"
"-79.78","44.23","EGBERT CS","611E001","2013-05-18 10:00","2013","05","18","10:00","5.6","","3.7","","88","","","","","","0","","","M","99.34","","","","","","NA"
"-79.78","44.23","EGBERT CS","611E001","2013-05-18 11:00","2013","05","18","11:00","6.4","","4.4","","87","","","","","","0","","","M","99.42","","","","","","NA"
"-79.78","44.23","EGBERT CS","611E001","2013-05-18 12:00","2013","05","18","12:00","9.5","","5.7","","77","","","","","","0","","","M","99.41","","","","","","NA"
"-79.78","44.23","EGBERT CS","611E001","2013-05-18 13:00","2013","05","18","13:00","14.1","","6.5","","60","","","","13","","7","","","M","99.43","","","","","","NA"
"-79.78","44.23","EGBERT CS","611E001","2013-05-18 14:00","2013","05","18","14:00","16.2","","8.2","","59","","","","7","","6","","","M","99.42","","","","","","NA"
"-79.78","44.23","EGBERT CS","611E001","2013-05-18 15:00","2013","05","18","15:00","17.5","","7.3","","51","","","","9","","11","","","M","99.41","","","","","","NA"
"-79.78","44.23","EGBERT CS","611E001","2013-05-18 16:00","2013","05","18","16:00","18.5","","7.9","","50","","","","10","","11","","","M","99.39","","","","","","NA"
"-79.78","44.23","EGBERT CS","611E001","2013-05-18 17:00","2013","05","18","17:00","19.8","","6.3","","41","","","","15","","13","","","M","99.31","","","","","","NA"
"-79.78","44.23","EGBERT CS","611E001","2013-05-18 18:00","2013","05","18","18:00","20.0","","4.2","","35","","","","15","","11","","","M","99.24","","","","","","NA"
"-79.78","44.23","EGBERT CS","611E001","2013-05-18 19:00","2013","05","18","19:00","21.0","","5.8","","37","","","","14","","17","","","M","99.19","","","","","","NA"
"-79.78","44.23","EGBERT CS","611E001","2013-05-18 20:00","2013","05","18","20:00","21.2","","4.9","","34","","","","12","","9","","","M","99.13","","","","","","NA"
"-79.78","44.23","EGBERT CS","611E001","2013-05-18 21:00","2013","05","18","21:00","21.2","","4.6","","34","","","","14","","15","","","M","99.09","","","","","","NA"
"-79.78","44.23","EGBERT CS","611E001","2013-05-18 22:00","2013","05","18","22:00","20.6","","3.3","","32","","","","16","","17","","","M","99.07","","","","","","NA"
"-79.78","44.23","EGBERT CS","611E001","2013-05-18 23:00","2013","05","18","23:00","19.1","","3.5","","36","","","","17","","13","","","M","99.09","","","","","","NA"
"-79.78","44.23","EGBERT CS","611E001","2013-05-19 00:00","2013","05","19","00:00","17.6","","2.9","","37","","","","15","","13","","","M","99.11","","","","","","NA"
"-79.78","44.23","EGBERT CS","611E001","2013-05-19 01:00","2013","05","19","01:00","16.2","","3.2","","42","","","","15","","7","","","M","99.11","","","","","","NA"
"-79.78","44.23","EGBERT CS","611E001","2013-05-19 02:00","2013","05","19","02:00","15.4","","3.0","","43","","","","15","","6","","","M","99.12","","","","","","NA"
"-79.78","44.23","EGBERT CS","611E001","2013-05-19 03:00","2013","05","19","03:00","14.5","","4.0","","49","","","","17","","4","","","M","99.07","","","","","","NA"
"-79.78","44.23","EGBERT CS","611E001","2013-05-19 04:00","2013","05","19","04:00","13.8","","5.4","","57","","","","21","","6","","","M","99.03","","","","","","NA"
"-79.78","44.23","EGBERT CS","611E001","2013-05-19 05:00","2013","05","19","05:00","14.0","","5.1","","55","","","","21","","6","","","M","99.03","","","","","","NA"
"-79.78","44.23","EGBERT CS","611E001","2013-05-19 06:00","2013","05","19","06:00","13.8","","5.7","","58","","","","14","","7","","","M","98.97","","","","","","NA"
"-79.78","44.23","EGBERT CS","611E001","2013-05-19 07:00","2013","05","19","07:00","13.4","","5.7","","60","","","","","","0","","","M","98.92","","","","","","NA"
"-79.78","44.23","EGBERT CS","611E001","2013-05-19 08:00","2013","05","19","08:00","13.5","","6.1","","61","","","","","","0","","","M","98.87","","","","","","NA"
"-79.78","44.23","EGBERT CS","611E001","2013-05-19 09:00","2013","05","19","09:00","12.4","","7.9","","74","","","","17","","7","","","M","98.87","","","","","","NA"
"-79.78","44.23","EGBERT CS","611E001","2013-05-19 10:00","2013","05","19","10:00","12.7","","6.0","","64","","","","","","0","","","M","98.88","","","","","","NA"
"-79.78","44.23","EGBERT CS","611E001","2013-05-19 11:00","2013","05","19","11:00","12.1","","7.9","","75","","","","14","","4","","","M","98.91","","","","","","NA"
"-79.78","44.23","EGBERT CS","611E001","2013-05-19 12:00","2013","05","19","12:00","14.3","","9.7","","74","","","","13","","9","","","M","98.93","","","","","","NA"
"-79.78","44.23","EGBERT CS","611E001","2013-05-19 13:00","2013","05","19","13:00","15.3","","10.1","","71","","","","15","","9","","","M","98.93","","","","","","NA"
"-79.78","44.23","EGBERT CS","611E001","2013-05-19 14:00","2013","05","19","14:00","17.6","","11.5","","67","","","","17","","15","","","M","98.86","","","","","","NA"
"-79.78","44.23","EGBERT CS","611E001","2013-05-19 15:00","2013","05","19","15:00","19.8","","13.7","","68","","","","17","","17","","","M","98.81","","","","","","NA"
"-79.78","44.23","EGBERT CS","611E001","2013-05-19 16:00","2013","05","19","16:00","21.3","","14.3","","64","","","","16","","17","","","M","98.75","","25","","","","NA"
"-79.78","44.23","EGBERT CS","611E001","2013-05-19 17:00","2013","05","19","17:00","22.3","","15.2","","64","","","","15","","20","","","M","98.69","","26","","","","NA"
"-79.78","44.23","EGBERT CS","611E001","2013-05-19 18:00","2013","05","19","18:00","23.3","","14.9","","59","","","","16","","19","","","M","98.66","","27","","","","NA"
"-79.78","44.23","EGBERT CS","611E001","2013-05-19 19:00","2013","05","19","19:00","23.2","","14.5","","58","","","","16","","19","","","M","98.60","","27","","","","NA"
"-79.78","44.23","EGBERT CS","611E001","2013-05-19 20:00","2013","05","19","20:00","23.2","","14.4","","58","","","","17","","20","","","M","98.52","","27","","","","NA"
"-79.78","44.23","EGBERT CS","611E001","2013-05-19 21:00","2013","05","19","21:00","24.4","","14.4","","54","","","","17","","15","","","M","98.49","","28","","","","NA"
"-79.78","44.23","EGBERT CS","611E001","2013-05-19 22:00","2013","05","19","22:00","24.1","","14.4","","55","","","","17","","15","","","M","98.48","","28","","","","NA"
"-79.78","44.23","EGBERT CS","611E001","2013-05-19 23:00","2013","05","19","23:00","22.7","","14.8","","61","","","","16","","11","","","M","98.47","","27","","","","NA"
"-79.78","44.23","EGBERT CS","611E001","2013-05-20 00:00","2013","05","20","00:00","20.9","","14.0","","65","","","","16","","13","","","M","98.45","","","","","","NA"
"-79.78","44.23","EGBERT CS","611E001","2013-05-20 01:00","2013","05","20","01:00","18.3","","13.0","","71","","","","16","","9","","","M","98.48","","","","","","NA"
"-79.78","44.23","EGBERT CS","611E001","2013-05-20 02:00","2013","05","20","02:00","16.8","","13.0","","78","","","","16","","7","","","M","98.54","","","","","","NA"
"-79.78","44.23","EGBERT CS","611E001","2013-05-20 03:00","2013","05","20","03:00","15.9","","13.0","","83","","","","17","","6","","","M","98.59","","","","","","NA"
"-79.78","44.23","EGBERT CS","611E001","2013-05-20 04:00","2013","05","20","04:00","15.6","","13.1","","85","","","","18","","6","","","M","98.57","","","","","","NA"
"-79.78","44.23","EGBERT CS","611E001","2013-05-20 05:00","2013","05","20","05:00","14.5","","12.6","","88","","","","18","","7","","","M","98.53","","","","","","NA"
"-79.78","44.23","EGBERT CS","611E001","2013-05-20 06:00","2013","05","20","06:00","13.3","","12.0","","92","","","","15","","7","","","M","98.48","","","","","","NA"
"-79.78","44.23","EGBERT CS","611E001","2013-05-20 07:00","2013","05","20","07:00","14.8","","13.1","","90","","","","18","","4","","","M","98.49","","","","","","NA"
"-79.78","44.23","EGBERT CS","611E001","2013-05-20 08:00","2013","05","20","08:00","14.5","","12.7","","89","","","","18","","7","","","M","98.49","","","","","","NA"
"-79.78","44.23","EGBERT CS","611E001","2013-05-20 09:00","2013","05","20","09:00","15.2","","13.4","","89","","","","19","","7","","","M","98.49","","","","","","NA"
"-79.78","44.23","EGBERT CS","611E001","2013-05-20 10:00","2013","05","20","10:00","16.2","","14.2","","88","","","","18","","9","","","M","98.52","","","","","","NA"
"-79.78","44.23","EGBERT CS","611E001","2013-05-20 11:00","2013","05","20","11:00","16.6","","14.5","","87","","","","20","","9","","","M","98.58","","","","","","NA"
"-79.78","44.23","EGBERT CS","611E001","2013-05-20 12:00","2013","05","20","12:00","18.6","","15.4","","82","","","","19","","6","","","M","98.59","","","","","","NA"
"-79.78","44.23","EGBERT CS","611E001","2013-05-20 13:00","2013","05","20","13:00","20.2","","15.9","","76","","","","15","","4","","","M","98.54","","25","","","","NA"
"-79.78","44.23","EGBERT CS","611E001","2013-05-20 14:00","2013","05","20","14:00","22.2","","17.2","","73","","","","20","","4","","","M","98.50","","28","","","","NA"
"-79.78","44.23","EGBERT CS","611E001","2013-05-20 15:00","2013","05","20","15:00","23.8","","17.6","","68","","","","13","","6","","","M","98.45","","30","","","","NA"
"-79.78","44.23","EGBERT CS","611E001","2013-05-20 16:00","2013","05","20","16:00","24.8","","17.3","","63","","","","10","","11","","","M","98.46","","30","","","","NA"
"-79.78","44.23","EGBERT CS","611E001","2013-05-20 17:00","2013","05","20","17:00","26.4","","17.8","","59","","","","13","","13","","","M","98.45","","32","","","","NA"
"-79.78","44.23","EGBERT CS","611E001","2013-05-20 18:00","2013","05","20","18:00","26.0","","17.9","","61","","","","14","","17","","","M","98.35","","32","","","","NA"
"-79.78","44.23","EGBERT CS","611E001","2013-05-20 19:00","2013","05","20","19:00","27.4","","18.1","","57","","","","17","","15","","","M","98.30","","33","","","","NA"
"-79.78","44.23","EGBERT CS","611E001","2013-05-20 20:00","2013","05","20","20:00","27.2","","16.8","","53","","","","17","","20","","","M","98.22","","32","","","","NA"
"-79.78","44.23","EGBERT CS","611E001","2013-05-20 21:00","2013","05","20","21:00","27.4","","17.1","","53","","","","17","","19","","","M","98.18","","33","","","","NA"
"-79.78","44.23","EGBERT CS","611E001","2013-05-20 22:00","2013","05","20","22:00","26.4","","16.6","","55","","","","16","","20","","","M","98.08","","31","","","","NA"
"-79.78","44.23","EGBERT CS","611E001","2013-05-20 23:00","2013","05","20","23:00","26.0","","16.9","","57","","","","17","","19","","","M","98.04","","31","","","","NA"
"-79.78","44.23","EGBERT CS","611E001","2013-05-21 00:00","2013","05","21","00:00","24.2","","16.4","","62","","","","17","","13","","","M","98.08","","29","","","","NA"
"-79.78","44.23","EGBERT CS","611E001","2013-05-21 01:00","2013","05","21","01:00","21.8","","16.3","","71","","","","15","","11","","","M","98.18","","27","","","","NA"
"-79.78","44.23","EGBERT CS","611E001","2013-05-21 02:00","2013","05","21","02:00","20.3","","16.6","","79","","","","24","","22","","","M","98.40","","25","","","","NA"
"-79.78","44.23","EGBERT CS","611E001","2013-05-21 03:00","2013","05","21","03:00","17.4","","16.3","","93","","","","1","","6","","","M","98.35","","","","","","NA"
"-79.78","44.23","EGBERT CS","611E001","2013-05-21 04:00","2013","05","21","04:00","17.3","","15.8","","91","","","","18","","15","","","M","98.15","","","","","","NA"
"-79.78","44.23","EGBERT CS","611E001","2013-05-21 05:00","2013","05","21","05:00","16.6","","15.4","","93","","","","19","","11","","","M","98.07","","","","","","NA"
"-79.78","44.23","EGBERT CS","611E001","2013-05-21 06:00","2013","05","21","06:00","16.4","","15.4","","94","","","","19","","7","","","M","98.07","","","","","","NA"
"-79.78","44.23","EGBERT CS","611E001","2013-05-21 07:00","2013","05","21","07:00","16.3","","15.4","","94","","","","18","","9","","","M","98.02","","","","","","NA"
"-79.78","44.23","EGBERT CS","611E001","2013-05-21 08:00","2013","05","21","08:00","16.3","","15.1","","93","","","","17","","7","","","M","98.04","","","","","","NA"
"-79.78","44.23","EGBERT CS","611E001","2013-05-21 09:00","2013","05","21","09:00","15.9","","14.9","","94","","","","15","","6","","","M","98.07","","","","","","NA"
"-79.78","44.23","EGBERT CS","611E001","2013-05-21 10:00","2013","05","21","10:00","16.0","","15.2","","95","","","","12","","6","","","M","98.13","","","","","","NA"
"-79.78","44.23","EGBERT CS","611E001","2013-05-21 11:00","2013","05","21","11:00","16.7","","15.7","","94","","","","13","","7","","","M","98.12","","","","","","NA"
"-79.78","44.23","EGBERT CS","611E001","2013-05-21 12:00","2013","05","21","12:00","18.8","","16.0","","84","","","","16","","7","","","M","98.11","","","","","","NA"
"-79.78","44.23","EGBERT CS","611E001","2013-05-21 13:00","2013","05","21","13:00","20.2","","17.5","","84","","","","13","","11","","","M","98.02","","26","","","","NA"
"-79.78","44.23","EGBERT CS","611E001","2013-05-21 14:00","2013","05","21","14:00","21.1","","18.3","","84","","","","15","","9","","","M","98.02","","27","","","","NA"
"-79.78","44.23","EGBERT CS","611E001","2013-05-21 15:00","2013","05","21","15:00","22.1","","18.7","","81","","","","14","","15","","","M","97.96","","29","","","","NA"
"-79.78","44.23","EGBERT CS","611E001","2013-05-21 16:00","2013","05","21","16:00","23.8","","19.7","","78","","","","14","","19","","","M","97.91","","31","","","","NA"
"-79.78","44.23","EGBERT CS","611E001","2013-05-21 17:00","2013","05","21","17:00","25.1","","19.9","","73","","","","16","","19","","","M","97.75","","33","","","","NA"
"-79.78","44.23","EGBERT CS","611E001","2013-05-21 18:00","2013","05","21","18:00","23.1","","19.6","","81","","","","18","","17","","","M","97.90","","30","","","","NA"
"-79.78","44.23","EGBERT CS","611E001","2013-05-21 19:00","2013","05","21","19:00","17.7","","16.7","","94","","","","4","","4","","","M","97.92","","","","","","NA"
"-79.78","44.23","EGBERT CS","611E001","2013-05-21 20:00","2013","05","21","20:00","20.7","","18.0","","85","","","","13","","6","","","M","97.83","","27","","","","NA"
"-79.78","44.23","EGBERT CS","611E001","2013-05-21 21:00","2013","05","21","21:00","20.4","","18.1","","87","","","","13","","9","","","M","97.75","","26","","","","NA"
"-79.78","44.23","EGBERT CS","611E001","2013-05-21 22:00","2013","05","21","22:00","19.1","","18.2","","95","","","","15","","13","","","M","97.80","","","","","","NA"
"-79.78","44.23","EGBERT CS","611E001","2013-05-21 23:00","2013","05","21","23:00","19.1","","18.2","","95","","","","27","","6","","","M","97.91","","","","","","NA"
"-79.78","44.23","EGBERT CS","611E001","2013-05-22 00:00","2013","05","22","00:00","18.6","","17.5","","93","","","","16","","9","","","M","97.82","","","","","","NA"
"-79.78","44.23","EGBERT CS","611E001","2013-05-22 01:00","2013","05","22","01:00","17.8","","16.7","","93","","","","17","","6","","","M","97.80","","","","","","NA"
"-79.78","44.23","EGBERT CS","611E001","2013-05-22 02:00","2013","05","22","02:00","16.9","","15.9","","94","","","","11","","7","","","M","97.82","","","","","","NA"
"-79.78","44.23","EGBERT CS","611E001","2013-05-22 03:00","2013","05","22","03:00","17.1","","16.2","","94","","","","15","","7","","","M","97.81","","","","","","NA"
"-79.78","44.23","EGBERT CS","611E001","2013-05-22 04:00","2013","05","22","04:00","16.9","","16.3","","96","","","","18","","13","","","M","97.81","","","","","","NA"
"-79.78","44.23","EGBERT CS","611E001","2013-05-22 05:00","2013","05","22","05:00","17.2","","16.5","","96","","","","18","","15","","","M","97.81","","","","","","NA"
"-79.78","44.23","EGBERT CS","611E001","2013-05-22 06:00","2013","05","22","06:00","16.9","","16.1","","95","","","","18","","13","","","M","97.83","","","","","","NA"
"-79.78","44.23","EGBERT CS","611E001","2013-05-22 07:00","2013","05","22","07:00","16.0","","15.4","","96","","","","17","","11","","","M","97.78","","","","","","NA"
"-79.78","44.23","EGBERT CS","611E001","2013-05-22 08:00","2013","05","22","08:00","15.7","","15.2","","97","","","","17","","9","","","M","97.78","","","","","","NA"
"-79.78","44.23","EGBERT CS","611E001","2013-05-22 09:00","2013","05","22","09:00","15.3","","14.9","","97","","","","18","","9","","","M","97.77","","","","","","NA"
"-79.78","44.23","EGBERT CS","611E001","2013-05-22 10:00","2013","05","22","10:00","14.8","","14.4","","97","","","","18","","13","","","M","97.75","","","","","","NA"
"-79.78","44.23","EGBERT CS","611E001","2013-05-22 11:00","2013","05","22","11:00","14.8","","14.4","","97","","","","17","","9","","","M","97.78","","","","","","NA"
"-79.78","44.23","EGBERT CS","611E001","2013-05-22 12:00","2013","05","22","12:00","14.7","","14.3","","97","","","","17","","13","","","M","97.79","","","","","","NA"
"-79.78","44.23","EGBERT CS","611E001","2013-05-22 13:00","2013","05","22","13:00","16.2","","15.8","","97","","","","16","","7","","","M","97.75","","","","","","NA"
"-79.78","44.23","EGBERT CS","611E001","2013-05-22 14:00","2013","05","22","14:00","17.8","","16.3","","91","","","","17","","9","","","M","97.77","","","","","","NA"
"-79.78","44.23","EGBERT CS","611E001","2013-05-22 15:00","2013","05","22","15:00","19.0","","17.4","","90","","","","16","","9","","","M","97.75","","","","","","NA"
"-79.78","44.23","EGBERT CS","611E001","2013-05-22 16:00","2013","05","22","16:00","19.9","","17.7","","87","","","","17","","13","","","M","97.74","","","","","","NA"
"-79.78","44.23","EGBERT CS","611E001","2013-05-22 17:00","2013","05","22","17:00","20.0","","18.1","","89","","","","18","","15","","","M","97.69","","26","","","","NA"
"-79.78","44.23","EGBERT CS","611E001","2013-05-22 18:00","2013","05","22","18:00","21.1","","18.7","","86","","","","18","","13","","","M","97.63","","28","","","","NA"
"-79.78","44.23","EGBERT CS","611E001","2013-05-22 19:00","2013","05","22","19:00","23.0","","19.0","","78","","","","18","","17","","","M","97.54","","30","","","","NA"
"-79.78","44.23","EGBERT CS","611E001","2013-05-22 20:00","2013","05","22","20:00","25.0","","18.2","","66","","","","22","","19","","","M","97.48","","31","","","","NA"
"-79.78","44.23","EGBERT CS","611E001","2013-05-22 21:00","2013","05","22","21:00","25.0","","17.7","","64","","","","21","","9","","","M","97.37","","31","","","","NA"
"-79.78","44.23","EGBERT CS","611E001","2013-05-22 22:00","2013","05","22","22:00","20.3","","18.1","","87","","","","27","","13","","","M","97.41","","26","","","","NA"
"-79.78","44.23","EGBERT CS","611E001","2013-05-22 23:00","2013","05","22","23:00","22.2","","17.6","","75","","","","22","","15","","","M","97.38","","28","","","","NA"
"-79.78","44.23","EGBERT CS","611E001","2013-05-23 00:00","2013","05","23","00:00","22.1","","16.5","","71","","","","23","","13","","","M","97.38","","27","","","","NA"
"-79.78","44.23","EGBERT CS","611E001","2013-05-23 01:00","2013","05","23","01:00","21.3","","16.8","","76","","","","22","","7","","","M","97.39","","26","","","","NA"
"-79.78","44.23","EGBERT CS","611E001","2013-05-23 02:00","2013","05","23","02:00","19.4","","16.6","","84","","","","14","","6","","","M","97.36","","","","","","NA"
"-79.78","44.23","EGBERT CS","611E001","2013-05-23 03:00","2013","05","23","03:00","17.9","","16.8","","93","","","","28","","4","","","M","97.42","","","","","","NA"
"-79.78","44.23","EGBERT CS","611E001","2013-05-23 04:00","2013","05","23","04:00","17.4","","16.5","","94","","","","20","","6","","","M","97.40","","","","","","NA"
"-79.78","44.23","EGBERT CS","611E001","2013-05-23 05:00","2013","05","23","05:00","17.4","","15.7","","90","","","","21","","7","","","M","97.42","","","","","","NA"
"-79.78","44.23","EGBERT CS","611E001","2013-05-23 06:00","2013","05","23","06:00","16.8","","15.0","","89","","","","18","","7","","","M","97.43","","","","","","NA"
"-79.78","44.23","EGBERT CS","611E001","2013-05-23 07:00","2013","05","23","07:00","16.5","","14.7","","89","","","","20","","9","","","M","97.41","","","","","","NA"
"-79.78","44.23","EGBERT CS","611E001","2013-05-23 08:00","2013","05","23","08:00","16.0","","14.6","","91","","","","19","","9","","","M","97.44","","","","","","NA"
"-79.78","44.23","EGBERT CS","611E001","2013-05-23 09:00","2013","05","23","09:00","16.1","","14.8","","92","","","","19","","7","","","M","97.42","","","","","","NA"
"-79.78","44.23","EGBERT CS","611E001","2013-05-23 10:00","2013","05","23","10:00","16.0","","14.6","","91","","","","18","","7","","","M","97.41","","","","","","NA"
"-79.78","44.23","EGBERT CS","611E001","2013-05-23 11:00","2013","05","23","11:00","16.0","","14.8","","93","","","","20","","7","","","M","97.47","","","","","","NA"
"-79.78","44.23","EGBERT CS","611E001","2013-05-23 12:00","2013","05","23","12:00","17.5","","15.1","","86","","","","22","","9","","","M","97.50","","","","","","NA"
"-79.78","44.23","EGBERT CS","611E001","2013-05-23 13:00","2013","05","23","13:00","17.8","","14.2","","79","","","","24","","19","","","M","97.55","","","","","","NA"
"-79.78","44.23","EGBERT CS","611E001","2013-05-23 14:00","2013","05","23","14:00","18.6","","14.6","","78","","","","23","","19","","","M","97.55","","","","","","NA"
"-79.78","44.23","EGBERT CS","611E001","2013-05-23 15:00","2013","05","23","15:00","12.2","","10.7","","91","","","","34","","19","","","M","97.65","","","","","","NA"
"-79.78","44.23","EGBERT CS","611E001","2013-05-23 16:00","2013","05","23","16:00","9.0","","7.2","","88","","","","32","","19","","","M","97.79","","","","","","NA"
"-79.78","44.23","EGBERT CS","611E001","2013-05-23 17:00","2013","05","23","17:00","9.1","","7.3","","88","","","","31","","15","","","M","97.87","","","","","","NA"
"-79.78","44.23","EGBERT CS","611E001","2013-05-23 18:00","2013","05","23","18:00","9.2","","6.6","","84","","","","32","","19","","","M","97.92","","","","","","NA"
"-79.78","44.23","EGBERT CS","611E001","2013-05-23 19:00","2013","05","23","19:00","7.0","","5.7","","91","","","","32","","20","","","M","97.99","","","","","","NA"
"-79.78","44.23","EGBERT CS","611E001","2013-05-23 20:00","2013","05","23","20:00","6.8","","6.1","","95","","","","32","","20","","","M","98.01","","","","","","NA"
"-79.78","44.23","EGBERT CS","611E001","2013-05-23 21:00","2013","05","23","21:00","7.0","","5.7","","91","","","","34","","22","","","M","98.06","","","","","","NA"
"-79.78","44.23","EGBERT CS","611E001","2013-05-23 22:00","2013","05","23","22:00","6.4","","4.6","","88","","","","34","","22","","","M","98.17","","","","","","NA"
"-79.78","44.23","EGBERT CS","611E001","2013-05-23 23:00","2013","05","23","23:00","6.0","","4.8","","92","","","","35","","17","","","M","98.23","","","","","","NA"
"-79.78","44.23","EGBERT CS","611E001","2013-05-24 00:00","2013","05","24","00:00","4.9","","4.1","","95","","","","34","","20","","","M","98.33","","","","","","NA"
"-79.78","44.23","EGBERT CS","611E001","2013-05-24 01:00","2013","05","24","01:00","3.8","","2.6","","92","","","","35","","30","","","M","98.41","","","","","","NA"
"-79.78","44.23","EGBERT CS","611E001","2013-05-24 02:00","2013","05","24","02:00","3.4","","2.1","","91","","","","35","","24","","","M","98.54","","","","","","NA"
"-79.78","44.23","EGBERT CS","611E001","2013-05-24 03:00","2013","05","24","03:00","2.2","","1.4","","94","","","","34","","20","","","M","98.64","","","","","","NA"
"-79.78","44.23","EGBERT CS","611E001","2013-05-24 04:00","2013","05","24","04:00","2.4","","1.9","","96","","","","34","","17","","","M","98.67","","","","","","NA"
"-79.78","44.23","EGBERT CS","611E001","2013-05-24 05:00","2013","05","24","05:00","3.1","","2.5","","96","","","","33","","15","","","M","98.70","","","","","","NA"
"-79.78","44.23","EGBERT CS","611E001","2013-05-24 06:00","2013","05","24","06:00","3.2","","2.5","","95","","","","33","","17","","","M","98.73","","","","","","NA"
"-79.78","44.23","EGBERT CS","611E001","2013-05-24 07:00","2013","05","24","07:00","2.9","","1.6","","91","","","","34","","17","","","M","98.76","","","","","","NA"
"-79.78","44.23","EGBERT CS","611E001","2013-05-24 08:00","2013","05","24","08:00","2.5","","0.9","","89","","","","34","","19","","","M","98.82","","","","","","NA"
"-79.78","44.23","EGBERT CS","611E001","2013-05-24 09:00","2013","05","24","09:00","2.1","","-0.2","","85","","","","34","","17","","","M","98.86","","","","","","NA"
"-79.78","44.23","EGBERT CS","611E001","2013-05-24 10:00","2013","05","24","10:00","1.9","","0.2","","88","","","","34","","19","","","M","98.94","","","","","","NA"
"-79.78","44.23","EGBERT CS","611E001","2013-05-24 11:00","2013","05","24","11:00","1.8","","-1.0","","82","","","","34","","22","","","M","99.05","","","","","","NA"
"-79.78","44.23","EGBERT CS","611E001","2013-05-24 12:00","2013","05","24","12:00","2.3","","-0.9","","79","","","","34","","22","","","M","99.10","","","","","","NA"
"-79.78","44.23","EGBERT CS","611E001","2013-05-24 13:00","2013","05","24","13:00","3.0","","-0.7","","77","","","","34","","24","","","M","99.17","","","","","","NA"
"-79.78","44.23","EGBERT CS","611E001","2013-05-24 14:00","2013","05","24","14:00","3.8","","-0.8","","72","","","","35","","20","","","M","99.23","","","","","","NA"
"-79.78","44.23","EGBERT CS","611E001","2013-05-24 15:00","2013","05","24","15:00","4.5","","-0.6","","69","","","","35","","24","","","M","99.27","","","","","","NA"
"-79.78","44.23","EGBERT CS","611E001","2013-05-24 16:00","2013","05","24","16:00","5.4","","0.3","","70","","","","33","","20","","","M","99.29","","","","","","NA"
"-79.78","44.23","EGBERT CS","611E001","2013-05-24 17:00","2013","05","24","17:00","6.4","","0.5","","66","","","","32","","24","","","M","99.27","","","","","","NA"
"-79.78","44.23","EGBERT CS","611E001","2013-05-24 18:00","2013","05","24","18:00","7.3","","1.7","","68","","","","32","","20","","","M","99.27","","","","","","NA"
"-79.78","44.23","EGBERT CS","611E001","2013-05-24 19:00","2013","05","24","19:00","7.1","","0.2","","61","","","","33","","28","","","M","99.31","","","","","","NA"
"-79.78","44.23","EGBERT CS","611E001","2013-05-24 20:00","2013","05","24","20:00","7.4","","0.1","","60","","","","33","","28","","","M","99.33","","","","","","NA"
"-79.78","44.23","EGBERT CS","611E001","2013-05-24 21:00","2013","05","24","21:00","7.2","","-1.0","","56","","","","33","","30","","","M","99.35","","","","","","NA"
"-79.78","44.23","EGBERT CS","611E001","2013-05-24 22:00","2013","05","24","22:00","7.3","","-0.9","","56","","","","32","","22","","","M","99.34","","","","","","NA"
"-79.78","44.23","EGBERT CS","611E001","2013-05-24 23:00","2013","05","24","23:00","7.1","","-1.4","","55","","","","32","","22","","","M","99.37","","","","","","NA"
"-79.78","44.23","EGBERT CS","611E001","2013-05-25 00:00","2013","05","25","00:00","6.5","","-1.1","","58","","","","33","","19","","","M","99.35","","","","","","NA"
"-79.78","44.23","EGBERT CS","611E001","2013-05-25 01:00","2013","05","25","01:00","5.2","","-0.5","","67","","","","33","","13","","","M","99.36","","","","","","NA"
"-79.78","44.23","EGBERT CS","611E001","2013-05-25 02:00","2013","05","25","02:00","3.8","","-0.1","","76","","","","33","","9","","","M","99.40","","","","","","NA"
"-79.78","44.23","EGBERT CS","611E001","2013-05-25 03:00","2013","05","25","03:00","3.7","","0.9","","82","","","","33","","11","","","M","99.45","","","","","","NA"
"-79.78","44.23","EGBERT CS","611E001","2013-05-25 04:00","2013","05","25","04:00","3.2","","1.6","","89","","","","33","","11","","","M","99.43","","","","","","NA"
"-79.78","44.23","EGBERT CS","611E001","2013-05-25 05:00","2013","05","25","05:00","2.8","","1.4","","90","","","","34","","11","","","M","99.44","","","","","","NA"
"-79.78","44.23","EGBERT CS","611E001","2013-05-25 06:00","2013","05","25","06:00","2.4","","1.0","","90","","","","34","","6","","","M","99.45","","","","","","NA"
"-79.78","44.23","EGBERT CS","611E001","2013-05-25 07:00","2013","05","25","07:00","2.5","","1.5","","93","","","","31","","6","","","M","99.48","","","","","","NA"
"-79.78","44.23","EGBERT CS","611E001","2013-05-25 08:00","2013","05","25","08:00","1.3","","0.7","","96","","","","32","","4","","","M","99.44","","","","","","NA"
"-79.78","44.23","EGBERT CS","611E001","2013-05-25 09:00","2013","05","25","09:00","0.9","","0.6","","98","","","","31","","7","","","M","99.45","","","","","","NA"
"-79.78","44.23","EGBERT CS","611E001","2013-05-25 10:00","2013","05","25","10:00","1.1","","0.8","","98","","","","32","","7","","","M","99.48","","","","","","NA"
"-79.78","44.23","EGBERT CS","611E001","2013-05-25 11:00","2013","05","25","11:00","2.9","","2.1","","94","","","","33","","9","","","M","99.52","","","","","","NA"
"-79.78","44.23","EGBERT CS","611E001","2013-05-25 12:00","2013","05","25","12:00","4.5","","1.6","","81","","","","34","","15","","","M","99.56","","","","","","NA"
"-79.78","44.23","EGBERT CS","611E001","2013-05-25 13:00","2013","05","25","13:00","6.6","","1.1","","68","","","","34","","17","","","M","99.56","","","","","","NA"
"-79.78","44.23","EGBERT CS","611E001","2013-05-25 14:00","2013","05","25","14:00","8.3","","1.0","","60","","","","33","","17","","","M","99.53","","","","","","NA"
"-79.78","44.23","EGBERT CS","611E001","2013-05-25 15:00","2013","05","25","15:00","9.6","","1.4","","57","","","","32","","17","","","M","99.54","","","","","","NA"
"-79.78","44.23","EGBERT CS","611E001","2013-05-25 16:00","2013","05","25","16:00","9.3","","0.2","","53","","","","32","","22","","","M","99.55","","","","","","NA"
"-79.78","44.23","EGBERT CS","611E001","2013-05-25 17:00","2013","05","25","17:00","9.4","","0.2","","53","","","","33","","22","","","M","99.49","","","","","","NA"
"-79.78","44.23","EGBERT CS","611E001","2013-05-25 18:00","2013","05","25","18:00","9.4","","0.8","","55","","","","33","","28","","","M","99.43","","","","","","NA"
"-79.78","44.23","EGBERT CS","611E001","2013-05-25 19:00","2013","05","25","19:00","9.3","","0.6","","54","","","","33","","28","","","M","99.42","","","","","","NA"
"-79.78","44.23","EGBERT CS","611E001","2013-05-25 20:00","2013","05","25","20:00","9.3","","0.1","","53","","","","33","","26","","","M","99.41","","","","","","NA"
"-79.78","44.23","EGBERT CS","611E001","2013-05-25 21:00","2013","05","25","21:00","9.5","","-0.9","","48","","","","33","","28","","","M","99.42","","","","","","NA"
"-79.78","44.23","EGBERT CS","611E001","2013-05-25 22:00","2013","05","25","22:00","10.6","","-0.1","","47","","","","33","","20","","","M","99.40","","","","","","NA"
"-79.78","44.23","EGBERT CS","611E001","2013-05-25 23:00","2013","05","25","23:00","10.3","","-1.2","","45","","","","33","","26","","","M","99.36","","","","","","NA"
"-79.78","44.23","EGBERT CS","611E001","2013-05-26 00:00","2013","05","26","00:00","9.6","","-0.9","","48","","","","33","","17","","","M","99.36","","","","","","NA"
"-79.78","44.23","EGBERT CS","611E001","2013-05-26 01:00","2013","05","26","01:00","7.9","","-0.2","","57","","","","33","","15","","","M","99.34","","","","","","NA"
"-79.78","44.23","EGBERT CS","611E001","2013-05-26 02:00","2013","05","26","02:00","6.5","","1.0","","68","","","","34","","11","","","M","99.39","","","","","","NA"
"-79.78","44.23","EGBERT CS","611E001","2013-05-26 03:00","2013","05","26","03:00","5.4","","2.3","","80","","","","34","","11","","","M","99.38","","","","","","NA"
"-79.78","44.23","EGBERT CS","611E001","2013-05-26 04:00","2013","05","26","04:00","4.9","","2.4","","84","","","","34","","6","","","M","99.37","","","","","","NA"
"-79.78","44.23","EGBERT CS","611E001","2013-05-26 05:00","2013","05","26","05:00","4.3","","2.3","","87","","","","36","","6","","","M","99.34","","","","","","NA"
"-79.78","44.23","EGBERT CS","611E001","2013-05-26 06:00","2013","05","26","06:00","3.7","","2.1","","89","","","","33","","9","","","M","99.32","","","","","","NA"
"-79.78","44.23","EGBERT CS","611E001","2013-05-26 07:00","2013","05","26","07:00","3.6","","2.0","","89","","","","33","","7","","","M","99.29","","","","","","NA"
"-79.78","44.23","EGBERT CS","611E001","2013-05-26 08:00","2013","05","26","08:00","2.9","","1.6","","91","","","","30","","6","","","M","99.28","","","","","","NA"
"-79.78","44.23","EGBERT CS","611E001","2013-05-26 09:00","2013","05","26","09:00","2.0","","1.3","","95","","","","33","","6","","","M","99.28","","","","","","NA"
"-79.78","44.23","EGBERT CS","611E001","2013-05-26 10:00","2013","05","26","10:00","2.5","","1.8","","95","","","","32","","9","","","M","99.34","","","","","","NA"
"-79.78","44.23","EGBERT CS","611E001","2013-05-26 11:00","2013","05","26","11:00","4.7","","3.1","","89","","","","32","","7","","","M","99.36","","","","","","NA"
"-79.78","44.23","EGBERT CS","611E001","2013-05-26 12:00","2013","05","26","12:00","6.8","","3.3","","78","","","","32","","13","","","M","99.40","","","","","","NA"
"-79.78","44.23","EGBERT CS","611E001","2013-05-26 13:00","2013","05","26","13:00","9.0","","2.5","","64","","","","34","","17","","","M","99.44","","","","","","NA"
"-79.78","44.23","EGBERT CS","611E001","2013-05-26 14:00","2013","05","26","14:00","10.4","","1.3","","53","","","","32","","17","","","M","99.40","","","","","","NA"
"-79.78","44.23","EGBERT CS","611E001","2013-05-26 15:00","2013","05","26","15:00","11.3","","-0.1","","45","","","","32","","19","","","M","99.39","","","","","","NA"
"-79.78","44.23","EGBERT CS","611E001","2013-05-26 16:00","2013","05","26","16:00","11.3","","-0.5","","44","","","","33","","24","","","M","99.41","","","","","","NA"
"-79.78","44.23","EGBERT CS","611E001","2013-05-26 17:00","2013","05","26","17:00","11.4","","-1.3","","41","","","","33","","26","","","M","99.43","","","","","","NA"
"-79.78","44.23","EGBERT CS","611E001","2013-05-26 18:00","2013","05","26","18:00","11.3","","-1.3","","42","","","","33","","28","","","M","99.47","","","","","","NA"
"-79.78","44.23","EGBERT CS","611E001","2013-05-26 19:00","2013","05","26","19:00","12.0","","-1.5","","39","","","","33","","20","","","M","99.42","","","","","","NA"
"-79.78","44.23","EGBERT CS","611E001","2013-05-26 20:00","2013","05","26","20:00","12.3","","-0.7","","41","","","","32","","20","","","M","99.39","","","","","","NA"
"-79.78","44.23","EGBERT CS","611E001","2013-05-26 21:00","2013","05","26","21:00","13.1","","-2.1","","35","","","","32","","17","","","M","99.32","","","","","","NA"
"-79.78","44.23","EGBERT CS","611E001","2013-05-26 22:00","2013","05","26","22:00","13.3","","-2.8","","33","","","","33","","22","","","M","99.29","","","","","","NA"
"-79.78","44.23","EGBERT CS","611E001","2013-05-26 23:00","2013","05","26","23:00","13.7","","-2.4","","33","","","","32","","11","","","M","99.28","","","","","","NA"
"-79.78","44.23","EGBERT CS","611E001","2013-05-27 00:00","2013","05","27","00:00","12.7","","-2.3","","35","","","","34","","6","","","M","99.27","","","","","","NA"
"-79.78","44.23","EGBERT CS","611E001","2013-05-27 01:00","2013","05","27","01:00","9.9","","-0.8","","47","","","","35","","6","","","M","99.26","","","","","","NA"
"-79.78","44.23","EGBERT CS","611E001","2013-05-27 02:00","2013","05","27","02:00","9.0","","-1.5","","48","","","","36","","6","","","M","99.28","","","","","","NA"
"-79.78","44.23","EGBERT CS","611E001","2013-05-27 03:00","2013","05","27","03:00","7.1","","-0.4","","59","","","","36","","7","","","M","99.31","","","","","","NA"
"-79.78","44.23","EGBERT CS","611E001","2013-05-27 04:00","2013","05","27","04:00","5.4","","1.4","","75","","","","35","","7","","","M","99.33","","","","","","NA"
"-79.78","44.23","EGBERT CS","611E001","2013-05-27 05:00","2013","05","27","05:00","5.4","","1.8","","78","","","","28","","6","","","M","99.38","","","","","","NA"
"-79.78","44.23","EGBERT CS","611E001","2013-05-27 06:00","2013","05","27","06:00","4.7","","1.8","","81","","","","","","0","","","M","99.37","","","","","","NA"
"-79.78","44.23","EGBERT CS","611E001","2013-05-27 07:00","2013","05","27","07:00","5.2","","1.4","","76","","","","25","","4","","","M","99.37","","","","","","NA"
"-79.78","44.23","EGBERT CS","611E001","2013-05-27 08:00","2013","05","27","08:00","2.9","","1.4","","90","","","","20","","6","","","M","99.40","","","","","","NA"
"-79.78","44.23","EGBERT CS","611E001","2013-05-27 09:00","2013","05","27","09:00","3.6","","1.4","","86","","","","4","","4","","","M","99.35","","","","","","NA"
"-79.78","44.23","EGBERT CS","611E001","2013-05-27 10:00","2013","05","27","10:00","1.7","","0.5","","92","","","","19","","6","","","M","99.40","","","","","","NA"
"-79.78","44.23","EGBERT CS","611E001","2013-05-27 11:00","2013","05","27","11:00","5.7","","2.7","","81","","","","","","0","","","M","99.42","","","","","","NA"
"-79.78","44.23","EGBERT CS","611E001","2013-05-27 12:00","2013","05","27","12:00"
"-79.78","44.23","EGBERT CS","611E001","2013-05-27 13:00","2013","05","27","13:00"
"-79.78","44.23","EGBERT CS","611E001","2013-05-27 14:00","2013","05","27","14:00","13.9","","0.1","","39","","","","34","","11","","","M","99.42","","","","","","NA"
"-79.78","44.23","EGBERT CS","611E001","2013-05-27 15:00","2013","05","27","15:00","15.9","","3.4","","43","","","","1","","7","","","M","99.40","","","","","","NA"
"-79.78","44.23","EGBERT CS","611E001","2013-05-27 16:00","2013","05","27","16:00","17.1","","2.1","","36","","","","33","","7","","","M","99.37","","","","","","NA"
"-79.78","44.23","EGBERT CS","611E001","2013-05-27 17:00","2013","05","27","17:00","18.5","","1.1","","31","","","","28","","7","","","M","99.30","","","","","","NA"
"-79.78","44.23","EGBERT CS","611E001","2013-05-27 18:00","2013","05","27","18:00","19.2","","1.2","","30","","","","2","","7","","","M","99.20","","","","","","NA"
"-79.78","44.23","EGBERT CS","611E001","2013-05-27 19:00","2013","05","27","19:00","19.1","","1.3","","30","","","","29","","4","","","M","99.13","","","","","","NA"
"-79.78","44.23","EGBERT CS","611E001","2013-05-27 20:00","2013","05","27","20:00","20.0","","0.9","","28","","","","21","","7","","","M","99.12","","","","","","NA"
"-79.78","44.23","EGBERT CS","611E001","2013-05-27 21:00","2013","05","27","21:00","19.9","","1.6","","30","","","","34","","9","","","M","99.05","","","","","","NA"
"-79.78","44.23","EGBERT CS","611E001","2013-05-27 22:00","2013","05","27","22:00","20.1","","3.3","","33","","","","35","","7","","","M","99.02","","","","","","NA"
"-79.78","44.23","EGBERT CS","611E001","2013-05-27 23:00","2013","05","27","23:00","19.3","","1.6","","31","","","","34","","7","","","M","98.95","","","","","","NA"
"-79.78","44.23","EGBERT CS","611E001","2013-05-28 00:00","2013","05","28","00:00","18.0","","2.0","","34","","","","","","0","","","M","98.96","","","","","","NA"
"-79.78","44.23","EGBERT CS","611E001","2013-05-28 01:00","2013","05","28","01:00","14.7","","5.7","","55","","","","6","","4","","","M","98.96","","","","","","NA"
"-79.78","44.23","EGBERT CS","611E001","2013-05-28 02:00","2013","05","28","02:00","13.4","","4.4","","54","","","","13","","7","","","M","99.00","","","","","","NA"
"-79.78","44.23","EGBERT CS","611E001","2013-05-28 03:00","2013","05","28","03:00","12.9","","4.2","","55","","","","14","","6","","","M","99.02","","","","","","NA"
"-79.78","44.23","EGBERT CS","611E001","2013-05-28 04:00","2013","05","28","04:00","12.9","","3.8","","54","","","","12","","7","","","M","99.01","","","","","","NA"
"-79.78","44.23","EGBERT CS","611E001","2013-05-28 05:00","2013","05","28","05:00","11.9","","3.4","","56","","","","10","","6","","","M","98.97","","","","","","NA"
"-79.78","44.23","EGBERT CS","611E001","2013-05-28 06:00","2013","05","28","06:00","11.6","","3.3","","57","","","","12","","4","","","M","98.92","","","","","","NA"
"-79.78","44.23","EGBERT CS","611E001","2013-05-28 07:00","2013","05","28","07:00","11.7","","2.8","","54","","","","16","","4","","","M","98.86","","","","","","NA"
"-79.78","44.23","EGBERT CS","611E001","2013-05-28 08:00","2013","05","28","08:00","10.8","","3.3","","60","","","","13","","9","","","M","98.75","","","","","","NA"
"-79.78","44.23","EGBERT CS","611E001","2013-05-28 09:00","2013","05","28","09:00","10.5","","2.9","","59","","","","12","","11","","","M","98.73","","","","","","NA"
"-79.78","44.23","EGBERT CS","611E001","2013-05-28 10:00","2013","05","28","10:00","10.4","","4.1","","65","","","","9","","7","","","M","98.74","","","","","","NA"
"-79.78","44.23","EGBERT CS","611E001","2013-05-28 11:00","2013","05","28","11:00","10.7","","5.2","","69","","","","9","","4","","","M","98.77","","","","","","NA"
"-79.78","44.23","EGBERT CS","611E001","2013-05-28 12:00","2013","05","28","12:00","11.4","","5.8","","68","","","","20","","6","","","M","98.79","","","","","","NA"
"-79.78","44.23","EGBERT CS","611E001","2013-05-28 13:00","2013","05","28","13:00","11.0","","7.0","","76","","","","15","","9","","","M","98.75","","","","","","NA"
"-79.78","44.23","EGBERT CS","611E001","2013-05-28 14:00","2013","05","28","14:00","11.7","","8.1","","79","","","","14","","11","","","M","98.74","","","","","","NA"
"-79.78","44.23","EGBERT CS","611E001","2013-05-28 15:00","2013","05","28","15:00","12.8","","8.6","","76","","","","12","","15","","","M","98.67","","","","","","NA"
"-79.78","44.23","EGBERT CS","611E001","2013-05-28 16:00","2013","05","28","16:00","15.3","","10.0","","71","","","","11","","20","","","M","98.62","","","","","","NA"
"-79.78","44.23","EGBERT CS","611E001","2013-05-28 17:00","2013","05","28","17:00","15.5","","10.8","","74","","","","13","","20","","","M","98.61","","","","","","NA"
"-79.78","44.23","EGBERT CS","611E001","2013-05-28 18:00","2013","05","28","18:00","14.9","","12.3","","84","","","","15","","19","","","M","98.57","","","","","","NA"
"-79.78","44.23","EGBERT CS","611E001","2013-05-28 19:00","2013","05","28","19:00","14.2","","11.9","","86","","","","16","","15","","","M","98.58","","","","","","NA"
"-79.78","44.23","EGBERT CS","611E001","2013-05-28 20:00","2013","05","28","20:00","13.7","","11.8","","88","","","","14","","20","","","M","98.47","","","","","","NA"
"-79.78","44.23","EGBERT CS","611E001","2013-05-28 21:00","2013","05","28","21:00","12.5","","11.5","","94","","","","14","","17","","","M","98.51","","","","","","NA"
"-79.78","44.23","EGBERT CS","611E001","2013-05-28 22:00","2013","05","28","22:00","12.8","","11.7","","93","","","","14","","13","","","M","98.47","","","","","","NA"
"-79.78","44.23","EGBERT CS","611E001","2013-05-28 23:00","2013","05","28","23:00","12.8","","12.0","","95","","","","13","","20","","","M","98.30","","","","","","NA"
"-79.78","44.23","EGBERT CS","611E001","2013-05-29 00:00","2013","05","29","00:00","13.3","","12.4","","94","","","","15","","9","","","M","98.31","","","","","","NA"
"-79.78","44.23","EGBERT CS","611E001","2013-05-29 01:00","2013","05","29","01:00","13.5","","12.6","","94","","","","15","","6","","","M","98.30","","","","","","NA"
"-79.78","44.23","EGBERT CS","611E001","2013-05-29 02:00","2013","05","29","02:00","13.7","","13.0","","96","","","","13","","6","","","M","98.31","","","","","","NA"
"-79.78","44.23","EGBERT CS","611E001","2013-05-29 03:00","2013","05","29","03:00","13.7","","13.2","","97","","","","14","","11","","","M","98.27","","","","","","NA"
"-79.78","44.23","EGBERT CS","611E001","2013-05-29 04:00","2013","05","29","04:00","13.9","","13.5","","97","","","","15","","7","","","M","98.22","","","","","","NA"
"-79.78","44.23","EGBERT CS","611E001","2013-05-29 05:00","2013","05","29","05:00","14.2","","13.8","","97","","","","15","","9","","","M","98.18","","","","","","NA"
"-79.78","44.23","EGBERT CS","611E001","2013-05-29 06:00","2013","05","29","06:00","14.3","","13.9","","97","","","","17","","7","","","M","98.11","","","","","","NA"
"-79.78","44.23","EGBERT CS","611E001","2013-05-29 07:00","2013","05","29","07:00","15.2","","14.8","","97","","","","15","","6","","","M","98.06","","","","","","NA"
"-79.78","44.23","EGBERT CS","611E001","2013-05-29 08:00","2013","05","29","08:00","15.6","","15.0","","96","","","","16","","9","","","M","98.11","","","","","","NA"
"-79.78","44.23","EGBERT CS","611E001","2013-05-29 09:00","2013","05","29","09:00","15.8","","15.0","","95","","","","14","","7","","","M","98.07","","","","","","NA"
"-79.78","44.23","EGBERT CS","611E001","2013-05-29 10:00","2013","05","29","10:00","15.9","","15.1","","95","","","","18","","7","","","M","98.08","","","","","","NA"
"-79.78","44.23","EGBERT CS","611E001","2013-05-29 11:00","2013","05","29","11:00","16.6","","15.6","","94","","","","17","","15","","","M","98.08","","","","","","NA"
"-79.78","44.23","EGBERT CS","611E001","2013-05-29 12:00","2013","05","29","12:00","17.8","","16.3","","91","","","","16","","9","","","M","98.10","","","","","","NA"
"-79.78","44.23","EGBERT CS","611E001","2013-05-29 13:00","2013","05","29","13:00","20.2","","17.9","","87","","","","17","","9","","","M","98.07","","26","","","","NA"
"-79.78","44.23","EGBERT CS","611E001","2013-05-29 14:00","2013","05","29","14:00","20.1","","17.0","","82","","","","23","","19","","","M","98.09","","25","","","","NA"
"-79.78","44.23","EGBERT CS","611E001","2013-05-29 15:00","2013","05","29","15:00","20.2","","16.1","","77","","","","24","","24","","","M","98.12","","25","","","","NA"
"-79.78","44.23","EGBERT CS","611E001","2013-05-29 16:00","2013","05","29","16:00","20.5","","17.2","","81","","","","23","","19","","","M","98.17","","26","","","","NA"
"-79.78","44.23","EGBERT CS","611E001","2013-05-29 17:00","2013","05","29","17:00","21.2","","17.6","","80","","","","25","","17","","","M","98.27","","27","","","","NA"
"-79.78","44.23","EGBERT CS","611E001","2013-05-29 18:00","2013","05","29","18:00","21.7","","18.1","","80","","","","25","","15","","","M","98.30","","28","","","","NA"
"-79.78","44.23","EGBERT CS","611E001","2013-05-29 19:00","2013","05","29","19:00","23.7","","18.4","","72","","","","24","","15","","","M","98.29","","30","","","","NA"
"-79.78","44.23","EGBERT CS","611E001","2013-05-29 20:00","2013","05","29","20:00","24.7","","18.3","","68","","","","25","","15","","","M","98.32","","31","","","","NA"
"-79.78","44.23","EGBERT CS","611E001","2013-05-29 21:00","2013","05","29","21:00","21.6","","17.9","","79","","","","35","","15","","","M","98.32","","28","","","","NA"
"-79.78","44.23","EGBERT CS","611E001","2013-05-29 22:00","2013","05","29","22:00","21.9","","17.5","","76","","","","34","","9","","","M","98.37","","28","","","","NA"
"-79.78","44.23","EGBERT CS","611E001","2013-05-29 23:00","2013","05","29","23:00","21.3","","17.0","","76","","","","34","","11","","","M","98.43","","27","","","","NA"
"-79.78","44.23","EGBERT CS","611E001","2013-05-30 00:00","2013","05","30","00:00","20.9","","17.2","","79","","","","35","","6","","","M","98.44","","26","","","","NA"
"-79.78","44.23","EGBERT CS","611E001","2013-05-30 01:00","2013","05","30","01:00","18.9","","16.9","","88","","","","","","0","","","M","98.45","","","","","","NA"
"-79.78","44.23","EGBERT CS","611E001","2013-05-30 02:00","2013","05","30","02:00","16.7","","15.7","","94","","","","","","0","","","M","98.47","","","","","","NA"
"-79.78","44.23","EGBERT CS","611E001","2013-05-30 03:00","2013","05","30","03:00","16.7","","16.1","","96","","","","15","","4","","","M","98.52","","","","","","NA"
"-79.78","44.23","EGBERT CS","611E001","2013-05-30 04:00","2013","05","30","04:00","16.5","","15.9","","96","","","","20","","4","","","M","98.55","","","","","","NA"
"-79.78","44.23","EGBERT CS","611E001","2013-05-30 05:00","2013","05","30","05:00","16.7","","16.1","","96","","","","19","","9","","","M","98.59","","","","","","NA"
"-79.78","44.23","EGBERT CS","611E001","2013-05-30 06:00","2013","05","30","06:00","17.0","","16.2","","95","","","","19","","9","","","M","98.61","","","","","","NA"
"-79.78","44.23","EGBERT CS","611E001","2013-05-30 07:00","2013","05","30","07:00","16.5","","15.9","","96","","","","19","","7","","","M","98.63","","","","","","NA"
"-79.78","44.23","EGBERT CS","611E001","2013-05-30 08:00","2013","05","30","08:00","16.5","","15.9","","96","","","","","","0","","","M","98.69","","","","","","NA"
"-79.78","44.23","EGBERT CS","611E001","2013-05-30 09:00","2013","05","30","09:00","15.6","","15.0","","96","","","","18","","7","","","M","98.70","","","","","","NA"
"-79.78","44.23","EGBERT CS","611E001","2013-05-30 10:00","2013","05","30","10:00","16.2","","15.6","","96","","","","19","","9","","","M","98.75","","","","","","NA"
"-79.78","44.23","EGBERT CS","611E001","2013-05-30 11:00","2013","05","30","11:00","17.3","","16.5","","95","","","","18","","4","","","M","98.78","","","","","","NA"
"-79.78","44.23","EGBERT CS","611E001","2013-05-30 12:00","2013","05","30","12:00","20.0","","17.9","","88","","","","","","0","","","M","98.77","","26","","","","NA"
"-79.78","44.23","EGBERT CS","611E001","2013-05-30 13:00","2013","05","30","13:00","22.1","","19.0","","83","","","","17","","4","","","M","98.83","","29","","","","NA"
"-79.78","44.23","EGBERT CS","611E001","2013-05-30 14:00","2013","05","30","14:00","23.8","","19.2","","75","","","","19","","6","","","M","98.82","","31","","","","NA"
"-79.78","44.23","EGBERT CS","611E001","2013-05-30 15:00","2013","05","30","15:00","26.4","","19.7","","67","","","","20","","7","","","M","98.80","","34","","","","NA"
"-79.78","44.23","EGBERT CS","611E001","2013-05-30 16:00","2013","05","30","16:00","27.9","","17.5","","53","","","","23","","17","","","M","98.81","","34","","","","NA"
"-79.78","44.23","EGBERT CS","611E001","2013-05-30 17:00","2013","05","30","17:00","28.6","","15.0","","44","","","","22","","17","","","M","98.76","","33","","","","NA"
"-79.78","44.23","EGBERT CS","611E001","2013-05-30 18:00","2013","05","30","18:00","28.9","","16.0","","46","","","","22","","20","","","M","98.75","","34","","","","NA"
"-79.78","44.23","EGBERT CS","611E001","2013-05-30 19:00","2013","05","30","19:00","29.3","","17.2","","48","","","","23","","19","","","M","98.72","","35","","","","NA"
"-79.78","44.23","EGBERT CS","611E001","2013-05-30 20:00","2013","05","30","20:00","29.2","","16.9","","47","","","","23","","17","","","M","98.68","","34","","","","NA"
"-79.78","44.23","EGBERT CS","611E001","2013-05-30 21:00","2013","05","30","21:00","29.2","","17.4","","49","","","","22","","19","","","M","98.66","","35","","","","NA"
"-79.78","44.23","EGBERT CS","611E001","2013-05-30 22:00","2013","05","30","22:00","27.7","","18.2","","56","","","","21","","22","","","M","98.65","","34","","","","NA"
"-79.78","44.23","EGBERT CS","611E001","2013-05-30 23:00","2013","05","30","23:00","27.4","","18.3","","58","","","","22","","19","","","M","98.66","","34","","","","NA"
"-79.78","44.23","EGBERT CS","611E001","2013-05-31 00:00","2013","05","31","00:00","26.3","","18.2","","61","","","","21","","9","","","M","98.66","","32","","","","NA"
"-79.78","44.23","EGBERT CS","611E001","2013-05-31 01:00","2013","05","31","01:00","24.0","","17.2","","66","","","","22","","7","","","M","98.67","","29","","","","NA"
"-79.78","44.23","EGBERT CS","611E001","2013-05-31 02:00","2013","05","31","02:00","23.1","","17.1","","69","","","","17","","6","","","M","98.68","","28","","","","NA"
"-79.78","44.23","EGBERT CS","611E001","2013-05-31 03:00","2013","05","31","03:00","21.7","","17.2","","76","","","","17","","7","","","M","98.66","","27","","","","NA"
"-79.78","44.23","EGBERT CS","611E001","2013-05-31 04:00","2013","05","31","04:00","20.9","","16.9","","78","","","","15","","7","","","M","98.65","","26","","","","NA"
"-79.78","44.23","EGBERT CS","611E001","2013-05-31 05:00","2013","05","31","05:00","21.5","","16.8","","75","","","","19","","6","","","M","98.64","","27","","","","NA"
"-79.78","44.23","EGBERT CS","611E001","2013-05-31 06:00","2013","05","31","06:00","20.7","","16.6","","77","","","","13","","7","","","M","98.61","","26","","","","NA"
"-79.78","44.23","EGBERT CS","611E001","2013-05-31 07:00","2013","05","31","07:00","21.7","","16.6","","73","","","","19","","9","","","M","98.60","","27","","","","NA"
"-79.78","44.23","EGBERT CS","611E001","2013-05-31 08:00","2013","05","31","08:00","20.7","","16.2","","75","","","","19","","11","","","M","98.59","","25","","","","NA"
"-79.78","44.23","EGBERT CS","611E001","2013-05-31 09:00","2013","05","31","09:00","20.8","","15.9","","74","","","","18","","9","","","M","98.61","","25","","","","NA"
"-79.78","44.23","EGBERT CS","611E001","2013-05-31 10:00","2013","05","31","10:00","21.1","","15.8","","72","","","","20","","7","","","M","98.64","","26","","","","NA"
"-79.78","44.23","EGBERT CS","611E001","2013-05-31 11:00","2013","05","31","11:00","21.5","","16.7","","74","","","","18","","4","","","M","98.64","","27","","","","NA"
"-79.78","44.23","EGBERT CS","611E001","2013-05-31 12:00","2013","05","31","12:00","23.1","","17.4","","70","","","","18","","9","","","M","98.62","","29","","","","NA"
"-79.78","44.23","EGBERT CS","611E001","2013-05-31 13:00","2013","05","31","13:00","24.5","","17.8","","66","","","","19","","13","","","M","98.61","","30","","","","NA"
"-79.78","44.23","EGBERT CS","611E001","2013-05-31 14:00","2013","05","31","14:00","26.4","","18.9","","63","","","","18","","15","","","M","98.57","","33","","","","NA"
"-79.78","44.23","EGBERT CS","611E001","2013-05-31 15:00","2013","05","31","15:00","27.9","","20.2","","63","","","","20","","15","","","M","98.53","","36","","","","NA"
"-79.78","44.23","EGBERT CS","611E001","2013-05-31 16:00","2013","05","31","16:00","28.4","","16.5","","48","","","","20","","24","","","M","98.50","","33","","","","NA"
"-79.78","44.23","EGBERT CS","611E001","2013-05-31 17:00","2013","05","31","17:00","28.6","","16.1","","47","","","","20","","22","","","M","98.46","","33","","","","NA"
"-79.78","44.23","EGBERT CS","611E001","2013-05-31 18:00","2013","05","31","18:00","28.0","","17.7","","54","","","","20","","19","","","M","98.41","","34","","","","NA"
"-79.78","44.23","EGBERT CS","611E001","2013-05-31 19:00","2013","05","31","19:00","28.5","","17.3","","51","","","","19","","22","","","M","98.32","","34","","","","NA"
"-79.78","44.23","EGBERT CS","611E001","2013-05-31 20:00","2013","05","31","20:00","28.8","","17.5","","50","","","","21","","22","","","M","98.28","","34","","","","NA"
"-79.78","44.23","EGBERT CS","611E001","2013-05-31 21:00","2013","05","31","21:00","27.9","","17.3","","53","","","","20","","30","","","M","98.25","","33","","","","NA"
"-79.78","44.23","EGBERT CS","611E001","2013-05-31 22:00","2013","05","31","22:00","23.5","","16.8","","66","","","","27","","17","","","M","98.37","","29","","","","NA"
"-79.78","44.23","EGBERT CS","611E001","2013-05-31 23:00","2013","05","31","23:00","20.5","","18.9","","91","","","","21","","11","","","M","98.36","","27","","","","NA"
