"Longitude (x)","Latitude (y)","Station Name","Climate ID","Date/Time (UTC)","Year","Month","Day","Time (UTC)","Temp (°C)","Temp Flag","Dew Point Temp (°C)","Dew Point Temp Flag","Rel Hum (%)","Rel Hum Flag","Precip. Amount (mm)","Precip. Amount Flag","Wind Dir (10s deg)","Wind Dir Flag","Wind Spd (km/h)","Wind Spd Flag","Visibility (km)","Visibility Flag","Stn Press (kPa)","Stn Press Flag","Hmdx","Hmdx Flag","Wind Chill","Wind Chill Flag","Weather"
"-79.17","43.19","ST CATHARINES A","6137304","2022-07-01 00:00","2022","07","01","00:00","27.1","","15.2","","48","","","M","22","","14","","","M","100.44","","31","","","","NA"
"-79.17","43.19","ST CATHARINES A","6137304","2022-07-01 01:00","2022","07","01","01:00","24.5","","15.2","","56","","","M","19","","12","","","M","100.41","","29","","","","NA"
"-79.17","43.19","ST CATHARINES A","6137304","2022-07-01 02:00","2022","07","01","02:00","22.4","","16.7","","70","","","M","18","","17","","","M","100.42","","27","","","","NA"
"-79.17","43.19","ST CATHARINES A","6137304","2022-07-01 03:00","2022","07","01","03:00","21.1","","17.1","","78","","","M","20","","14","","","M","100.39","","26","","","","NA"
"-79.17","43.19","ST CATHARINES A","6137304","2022-07-01 04:00","2022","07","01","04:00","20.5","","16.2","","76","","","M","18","","15","","","M","100.35","","25","","","","NA"
"-79.17","43.19","ST CATHARINES A","6137304","2022-07-01 05:00","2022","07","01","05:00","21.6","","15.2","","66","","","M","19","","18","","","M","100.27","","26","","","","NA"
"-79.17","43.19","ST CATHARINES A","6137304","2022-07-01 06:00","2022","07","01","06:00","21.6","","15.8","","69","","","M","20","","17","","","M","100.26","","26","","","","NA"
"-79.17","43.19","ST CATHARINES A","6137304","2022-07-01 07:00","2022","07","01","07:00","22.2","","15.4","","65","","","M","20","","21","","","M","100.20","","26","","","","NA"
"-79.17","43.19","ST CATHARINES A","6137304","2022-07-01 08:00","2022","07","01","08:00","22.4","","15.0","","63","","","M","20","","22","","","M","100.13","","26","","","","NA"
"-79.17","43.19","ST CATHARINES A","6137304","2022-07-01 09:00","2022","07","01","09:00","22.2","","15.1","","64","","","M","20","","22","","","M","100.11","","26","","","","NA"
"-79.17","43.19","ST CATHARINES A","6137304","2022-07-01 10:00","2022","07","01","10:00","22.5","","16.2","","67","","","M","22","","22","","","M","100.13","","27","","","","NA"
"-79.17","43.19","ST CATHARINES A","6137304","2022-07-01 11:00","2022","07","01","11:00","23.6","","17.1","","67","","","M","22","","25","","","M","100.12","","29","","","","NA"
"-79.17","43.19","ST CATHARINES A","6137304","2022-07-01 12:00","2022","07","01","12:00","24.7","","17.3","","63","","","M","22","","24","","","M","100.13","","30","","","","NA"
"-79.17","43.19","ST CATHARINES A","6137304","2022-07-01 13:00","2022","07","01","13:00","26.4","","18.0","","60","","","M","22","","22","","","M","100.12","","32","","","","NA"
"-79.17","43.19","ST CATHARINES A","6137304","2022-07-01 14:00","2022","07","01","14:00","26.5","","17.8","","58","","","M","22","","23","","","M","100.10","","32","","","","NA"
"-79.17","43.19","ST CATHARINES A","6137304","2022-07-01 15:00","2022","07","01","15:00","27.6","","19.0","","59","","","M","23","","13","","","M","100.11","","34","","","","NA"
"-79.17","43.19","ST CATHARINES A","6137304","2022-07-01 16:00","2022","07","01","16:00","27.1","","19.6","","63","","","M","21","","8","","","M","100.11","","34","","","","NA"
"-79.17","43.19","ST CATHARINES A","6137304","2022-07-01 17:00","2022","07","01","17:00","25.8","","20.1","","70","","","M","18","","15","","","M","100.02","","33","","","","NA"
"-79.17","43.19","ST CATHARINES A","6137304","2022-07-01 18:00","2022","07","01","18:00","28.0","","19.7","","60","","","M","19","","21","","","M","100.01","","35","","","","NA"
"-79.17","43.19","ST CATHARINES A","6137304","2022-07-01 19:00","2022","07","01","19:00","28.1","","17.2","","51","","","M","23","","26","","","M","99.95","","34","","","","NA"
"-79.17","43.19","ST CATHARINES A","6137304","2022-07-01 20:00","2022","07","01","20:00","27.9","","17.9","","54","","","M","22","","22","","","M","99.89","","34","","","","NA"
"-79.17","43.19","ST CATHARINES A","6137304","2022-07-01 21:00","2022","07","01","21:00","27.0","","17.8","","57","","","M","21","","23","","","M","99.88","","33","","","","NA"
"-79.17","43.19","ST CATHARINES A","6137304","2022-07-01 22:00","2022","07","01","22:00","26.6","","17.3","","56","","","M","22","","19","","","M","99.83","","32","","","","NA"
"-79.17","43.19","ST CATHARINES A","6137304","2022-07-01 23:00","2022","07","01","23:00","25.7","","17.5","","60","","","M","22","","23","","","M","99.79","","31","","","","NA"
"-79.17","43.19","ST CATHARINES A","6137304","2022-07-02 00:00","2022","07","02","00:00","25.1","","17.6","","63","","","M","22","","23","","","M","99.85","","31","","","","NA"
"-79.17","43.19","ST CATHARINES A","6137304","2022-07-02 01:00","2022","07","02","01:00","23.9","","17.9","","69","","","M","21","","27","","","M","99.90","","30","","","","NA"
"-79.17","43.19","ST CATHARINES A","6137304","2022-07-02 02:00","2022","07","02","02:00","21.8","","19.3","","86","","","M","22","","29","","","M","99.93","","29","","","","NA"
"-79.17","43.19","ST CATHARINES A","6137304","2022-07-02 03:00","2022","07","02","03:00","21.6","","19.7","","88","","","M","22","","23","","","M","99.91","","29","","","","NA"
"-79.17","43.19","ST CATHARINES A","6137304","2022-07-02 04:00","2022","07","02","04:00","21.6","","19.6","","88","","","M","23","","19","","","M","99.91","","29","","","","NA"
"-79.17","43.19","ST CATHARINES A","6137304","2022-07-02 05:00","2022","07","02","05:00","20.9","","20.0","","94","","","M","23","","17","","","M","99.93","","28","","","","NA"
"-79.17","43.19","ST CATHARINES A","6137304","2022-07-02 06:00","2022","07","02","06:00","21.0","","20.0","","94","","","M","31","","13","","","M","99.95","","29","","","","NA"
"-79.17","43.19","ST CATHARINES A","6137304","2022-07-02 07:00","2022","07","02","07:00","19.8","","16.7","","82","","","M","32","","2","","","M","99.96","","","","","","NA"
"-79.17","43.19","ST CATHARINES A","6137304","2022-07-02 08:00","2022","07","02","08:00","20.0","","14.9","","73","","","M","33","","7","","","M","100.01","","","","","","NA"
"-79.17","43.19","ST CATHARINES A","6137304","2022-07-02 09:00","2022","07","02","09:00","18.6","","14.7","","77","","","M","29","","4","","","M","100.05","","","","","","NA"
"-79.17","43.19","ST CATHARINES A","6137304","2022-07-02 10:00","2022","07","02","10:00","17.5","","13.2","","76","","","M","30","","7","","","M","100.09","","","","","","NA"
"-79.17","43.19","ST CATHARINES A","6137304","2022-07-02 11:00","2022","07","02","11:00","18.6","","12.6","","68","","","M","30","","5","","","M","100.16","","","","","","NA"
"-79.17","43.19","ST CATHARINES A","6137304","2022-07-02 12:00","2022","07","02","12:00","20.6","","11.7","","56","","","M","32","","5","","","M","100.19","","","","","","NA"
"-79.17","43.19","ST CATHARINES A","6137304","2022-07-02 13:00","2022","07","02","13:00","21.8","","10.6","","48","","","M","34","","12","","","M","100.24","","","","","","NA"
"-79.17","43.19","ST CATHARINES A","6137304","2022-07-02 14:00","2022","07","02","14:00","22.4","","11.8","","51","","","M","33","","7","","","M","100.24","","25","","","","NA"
"-79.17","43.19","ST CATHARINES A","6137304","2022-07-02 15:00","2022","07","02","15:00","23.6","","9.8","","41","","","M","28","","7","","","M","100.25","","25","","","","NA"
"-79.17","43.19","ST CATHARINES A","6137304","2022-07-02 16:00","2022","07","02","16:00","25.6","","7.1","","30","","","M","25","","9","","","M","100.22","","26","","","","NA"
"-79.17","43.19","ST CATHARINES A","6137304","2022-07-02 17:00","2022","07","02","17:00","26.8","","8.1","","30","","","M","28","","4","","","M","100.20","","27","","","","NA"
"-79.17","43.19","ST CATHARINES A","6137304","2022-07-02 18:00","2022","07","02","18:00","27.6","","9.6","","32","","","M","29","","11","","","M","100.17","","29","","","","NA"
"-79.17","43.19","ST CATHARINES A","6137304","2022-07-02 19:00","2022","07","02","19:00","27.8","","9.8","","32","","","M","30","","17","","","M","100.17","","29","","","","NA"
"-79.17","43.19","ST CATHARINES A","6137304","2022-07-02 20:00","2022","07","02","20:00","28.6","","12.0","","35","","","M","25","","20","","","M","100.16","","31","","","","NA"
"-79.17","43.19","ST CATHARINES A","6137304","2022-07-02 21:00","2022","07","02","21:00","26.3","","14.4","","47","","","M","21","","22","","","M","100.17","","30","","","","NA"
"-79.17","43.19","ST CATHARINES A","6137304","2022-07-02 22:00","2022","07","02","22:00","26.3","","13.3","","44","","","M","22","","23","","","M","100.14","","29","","","","NA"
"-79.17","43.19","ST CATHARINES A","6137304","2022-07-02 23:00","2022","07","02","23:00","25.3","","13.2","","47","","","M","22","","26","","","M","100.15","","28","","","","NA"
"-79.17","43.19","ST CATHARINES A","6137304","2022-07-03 00:00","2022","07","03","00:00","23.9","","14.1","","54","","","M","23","","16","","","M","100.19","","27","","","","NA"
"-79.17","43.19","ST CATHARINES A","6137304","2022-07-03 01:00","2022","07","03","01:00","22.1","","10.0","","46","","","M","28","","14","","","M","100.27","","","","","","NA"
"-79.17","43.19","ST CATHARINES A","6137304","2022-07-03 02:00","2022","07","03","02:00","20.2","","9.2","","49","","","M","30","","9","","","M","100.37","","","","","","NA"
"-79.17","43.19","ST CATHARINES A","6137304","2022-07-03 03:00","2022","07","03","03:00","17.3","","10.1","","62","","","M","21","","9","","","M","100.39","","","","","","NA"
"-79.17","43.19","ST CATHARINES A","6137304","2022-07-03 04:00","2022","07","03","04:00","17.0","","10.7","","66","","","M","25","","5","","","M","100.43","","","","","","NA"
"-79.17","43.19","ST CATHARINES A","6137304","2022-07-03 05:00","2022","07","03","05:00","16.4","","11.3","","72","","","M","32","","12","","","M","100.47","","","","","","NA"
"-79.17","43.19","ST CATHARINES A","6137304","2022-07-03 06:00","2022","07","03","06:00","17.0","","11.5","","70","","","M","32","","7","","","M","100.54","","","","","","NA"
"-79.17","43.19","ST CATHARINES A","6137304","2022-07-03 07:00","2022","07","03","07:00","15.8","","10.6","","71","","","M","29","","6","","","M","100.59","","","","","","NA"
"-79.17","43.19","ST CATHARINES A","6137304","2022-07-03 08:00","2022","07","03","08:00","16.2","","11.0","","71","","","M","24","","6","","","M","100.60","","","","","","NA"
"-79.17","43.19","ST CATHARINES A","6137304","2022-07-03 09:00","2022","07","03","09:00","14.4","","9.8","","74","","","M","28","","12","","","M","100.63","","","","","","NA"
"-79.17","43.19","ST CATHARINES A","6137304","2022-07-03 10:00","2022","07","03","10:00","13.8","","8.8","","72","","","M","24","","9","","","M","100.67","","","","","","NA"
"-79.17","43.19","ST CATHARINES A","6137304","2022-07-03 11:00","2022","07","03","11:00","16.3","","9.9","","65","","","M","31","","14","","","M","100.78","","","","","","NA"
"-79.17","43.19","ST CATHARINES A","6137304","2022-07-03 12:00","2022","07","03","12:00","17.8","","9.1","","56","","","M","30","","11","","","M","100.82","","","","","","NA"
"-79.17","43.19","ST CATHARINES A","6137304","2022-07-03 13:00","2022","07","03","13:00","18.6","","9.9","","57","","","M","31","","12","","","M","100.91","","","","","","NA"
"-79.17","43.19","ST CATHARINES A","6137304","2022-07-03 14:00","2022","07","03","14:00","19.8","","10.1","","53","","","M","32","","7","","","M","100.89","","","","","","NA"
"-79.17","43.19","ST CATHARINES A","6137304","2022-07-03 15:00","2022","07","03","15:00","21.1","","10.2","","49","","","M","35","","10","","","M","100.94","","","","","","NA"
"-79.17","43.19","ST CATHARINES A","6137304","2022-07-03 16:00","2022","07","03","16:00","22.2","","9.8","","45","","","M","35","","6","","","M","100.94","","","","","","NA"
"-79.17","43.19","ST CATHARINES A","6137304","2022-07-03 17:00","2022","07","03","17:00","23.6","","9.8","","41","","","M","28","","9","","","M","100.89","","25","","","","NA"
"-79.17","43.19","ST CATHARINES A","6137304","2022-07-03 18:00","2022","07","03","18:00","24.0","","7.9","","35","","","M","29","","4","","","M","100.86","","","","","","NA"
"-79.17","43.19","ST CATHARINES A","6137304","2022-07-03 19:00","2022","07","03","19:00","25.2","","7.6","","32","","","M","27","","3","","","M","100.81","","25","","","","NA"
"-79.17","43.19","ST CATHARINES A","6137304","2022-07-03 20:00","2022","07","03","20:00","26.3","","9.7","","35","","","M","3","","3","","","M","100.74","","27","","","","NA"
"-79.17","43.19","ST CATHARINES A","6137304","2022-07-03 21:00","2022","07","03","21:00","27.0","","9.3","","32","","","M","29","","17","","","M","100.75","","28","","","","NA"
"-79.17","43.19","ST CATHARINES A","6137304","2022-07-03 22:00","2022","07","03","22:00","25.8","","10.4","","37","","","M","23","","20","","","M","100.75","","27","","","","NA"
"-79.17","43.19","ST CATHARINES A","6137304","2022-07-03 23:00","2022","07","03","23:00","24.5","","9.9","","39","","","M","22","","24","","","M","100.75","","26","","","","NA"
"-79.17","43.19","ST CATHARINES A","6137304","2022-07-04 00:00","2022","07","04","00:00","22.6","","8.3","","40","","","M","21","","18","","","M","100.76","","","","","","NA"
"-79.17","43.19","ST CATHARINES A","6137304","2022-07-04 01:00","2022","07","04","01:00","20.6","","8.8","","46","","","M","21","","14","","","M","100.75","","","","","","NA"
"-79.17","43.19","ST CATHARINES A","6137304","2022-07-04 02:00","2022","07","04","02:00","18.5","","9.9","","57","","","M","22","","13","","","M","100.81","","","","","","NA"
"-79.17","43.19","ST CATHARINES A","6137304","2022-07-04 03:00","2022","07","04","03:00","18.0","","11.2","","64","","","M","22","","12","","","M","100.84","","","","","","NA"
"-79.17","43.19","ST CATHARINES A","6137304","2022-07-04 04:00","2022","07","04","04:00","16.7","","11.4","","71","","","M","21","","8","","","M","100.85","","","","","","NA"
"-79.17","43.19","ST CATHARINES A","6137304","2022-07-04 05:00","2022","07","04","05:00","16.9","","11.9","","72","","","M","21","","6","","","M","100.89","","","","","","NA"
"-79.17","43.19","ST CATHARINES A","6137304","2022-07-04 06:00","2022","07","04","06:00","15.4","","12.1","","81","","","M","22","","8","","","M","100.89","","","","","","NA"
"-79.17","43.19","ST CATHARINES A","6137304","2022-07-04 07:00","2022","07","04","07:00","14.4","","11.7","","84","","","M","23","","8","","","M","100.90","","","","","","NA"
"-79.17","43.19","ST CATHARINES A","6137304","2022-07-04 08:00","2022","07","04","08:00","14.1","","11.2","","83","","","M","23","","5","","","M","100.91","","","","","","NA"
"-79.17","43.19","ST CATHARINES A","6137304","2022-07-04 09:00","2022","07","04","09:00","15.2","","11.4","","78","","","M","16","","5","","","M","100.90","","","","","","NA"
"-79.17","43.19","ST CATHARINES A","6137304","2022-07-04 10:00","2022","07","04","10:00","13.1","","11.8","","92","","","M","19","","8","","","M","100.95","","","","","","NA"
"-79.17","43.19","ST CATHARINES A","6137304","2022-07-04 11:00","2022","07","04","11:00","15.9","","14.5","","91","","","M","16","","1","","","M","100.96","","","","","","NA"
"-79.17","43.19","ST CATHARINES A","6137304","2022-07-04 12:00","2022","07","04","12:00","19.2","","14.4","","74","","","M","21","","3","","","M","100.98","","","","","","NA"
"-79.17","43.19","ST CATHARINES A","6137304","2022-07-04 13:00","2022","07","04","13:00","21.5","","14.8","","66","","","M","30","","2","","","M","100.98","","25","","","","NA"
"-79.17","43.19","ST CATHARINES A","6137304","2022-07-04 14:00","2022","07","04","14:00","23.5","","16.1","","62","","","M","33","","4","","","M","100.97","","28","","","","NA"
"-79.17","43.19","ST CATHARINES A","6137304","2022-07-04 15:00","2022","07","04","15:00","24.9","","16.0","","57","","","M","34","","10","","","M","100.96","","30","","","","NA"
"-79.17","43.19","ST CATHARINES A","6137304","2022-07-04 16:00","2022","07","04","16:00","26.4","","13.4","","44","","","M","33","","8","","","M","100.93","","29","","","","NA"
"-79.17","43.19","ST CATHARINES A","6137304","2022-07-04 17:00","2022","07","04","17:00","27.4","","13.0","","41","","","M","36","","13","","","M","100.89","","30","","","","NA"
"-79.17","43.19","ST CATHARINES A","6137304","2022-07-04 18:00","2022","07","04","18:00","27.8","","13.7","","42","","","M","5","","13","","","M","100.83","","31","","","","NA"
"-79.17","43.19","ST CATHARINES A","6137304","2022-07-04 19:00","2022","07","04","19:00","28.3","","13.8","","40","","","M","4","","11","","","M","100.80","","32","","","","NA"
"-79.17","43.19","ST CATHARINES A","6137304","2022-07-04 20:00","2022","07","04","20:00","25.6","","14.1","","48","","","M","1","","14","","","M","100.76","","29","","","","NA"
"-79.17","43.19","ST CATHARINES A","6137304","2022-07-04 21:00","2022","07","04","21:00","24.7","","13.7","","50","","","M","5","","10","","","M","100.73","","28","","","","NA"
"-79.17","43.19","ST CATHARINES A","6137304","2022-07-04 22:00","2022","07","04","22:00","25.8","","15.2","","51","","","M","10","","10","","","M","100.65","","30","","","","NA"
"-79.17","43.19","ST CATHARINES A","6137304","2022-07-04 23:00","2022","07","04","23:00","26.9","","15.2","","48","","","M","23","","8","","","M","100.64","","31","","","","NA"
"-79.17","43.19","ST CATHARINES A","6137304","2022-07-05 00:00","2022","07","05","00:00","25.2","","15.8","","55","","","M","19","","10","","","M","100.64","","30","","","","NA"
"-79.17","43.19","ST CATHARINES A","6137304","2022-07-05 01:00","2022","07","05","01:00","24.2","","15.8","","59","","","M","17","","7","","","M","100.61","","29","","","","NA"
"-79.17","43.19","ST CATHARINES A","6137304","2022-07-05 02:00","2022","07","05","02:00","23.0","","15.6","","63","","","M","17","","10","","","M","100.62","","27","","","","NA"
"-79.17","43.19","ST CATHARINES A","6137304","2022-07-05 03:00","2022","07","05","03:00","22.8","","15.6","","63","","","M","19","","7","","","M","100.59","","27","","","","NA"
"-79.17","43.19","ST CATHARINES A","6137304","2022-07-05 04:00","2022","07","05","04:00","22.0","","15.3","","65","","","M","20","","5","","","M","100.54","","26","","","","NA"
"-79.17","43.19","ST CATHARINES A","6137304","2022-07-05 05:00","2022","07","05","05:00","21.3","","16.2","","73","","","M","2","","4","","","M","100.47","","26","","","","NA"
"-79.17","43.19","ST CATHARINES A","6137304","2022-07-05 06:00","2022","07","05","06:00","22.0","","15.9","","68","","","M","19","","5","","","M","100.42","","27","","","","NA"
"-79.17","43.19","ST CATHARINES A","6137304","2022-07-05 07:00","2022","07","05","07:00","20.7","","16.7","","77","","","M","9","","2","","","M","100.32","","26","","","","NA"
"-79.17","43.19","ST CATHARINES A","6137304","2022-07-05 08:00","2022","07","05","08:00","21.7","","16.9","","74","","","M","19","","7","","","M","100.26","","27","","","","NA"
"-79.17","43.19","ST CATHARINES A","6137304","2022-07-05 09:00","2022","07","05","09:00","22.9","","16.7","","68","","","M","18","","14","","","M","100.18","","28","","","","NA"
"-79.17","43.19","ST CATHARINES A","6137304","2022-07-05 10:00","2022","07","05","10:00","23.3","","16.1","","64","","","M","18","","18","","","M","100.15","","28","","","","NA"
"-79.17","43.19","ST CATHARINES A","6137304","2022-07-05 11:00","2022","07","05","11:00","22.9","","16.4","","66","","","M","17","","19","","","M","100.07","","28","","","","NA"
"-79.17","43.19","ST CATHARINES A","6137304","2022-07-05 12:00","2022","07","05","12:00","22.8","","16.4","","67","","","M","19","","14","","","M","100.10","","28","","","","NA"
"-79.17","43.19","ST CATHARINES A","6137304","2022-07-05 13:00","2022","07","05","13:00","21.4","","18.1","","81","","","M","16","","5","","","M","100.03","","27","","","","NA"
"-79.17","43.19","ST CATHARINES A","6137304","2022-07-05 14:00","2022","07","05","14:00","21.8","","17.6","","77","","","M","18","","12","","","M","100.00","","28","","","","NA"
"-79.17","43.19","ST CATHARINES A","6137304","2022-07-05 15:00","2022","07","05","15:00","20.1","","18.9","","93","","","M","19","","12","","","M","99.95","","27","","","","NA"
"-79.17","43.19","ST CATHARINES A","6137304","2022-07-05 16:00","2022","07","05","16:00","20.4","","19.5","","95","","","M","16","","17","","","M","99.83","","28","","","","NA"
"-79.17","43.19","ST CATHARINES A","6137304","2022-07-05 17:00","2022","07","05","17:00","22.0","","19.9","","88","","","M","20","","25","","","M","99.76","","29","","","","NA"
"-79.17","43.19","ST CATHARINES A","6137304","2022-07-05 18:00","2022","07","05","18:00","22.5","","20.4","","88","","","M","21","","19","","","M","99.70","","30","","","","NA"
"-79.17","43.19","ST CATHARINES A","6137304","2022-07-05 19:00","2022","07","05","19:00","25.1","","22.0","","83","","","M","22","","20","","","M","99.65","","34","","","","NA"
"-79.17","43.19","ST CATHARINES A","6137304","2022-07-05 20:00","2022","07","05","20:00","25.8","","21.8","","78","","","M","23","","20","","","M","99.61","","35","","","","NA"
"-79.17","43.19","ST CATHARINES A","6137304","2022-07-05 21:00","2022","07","05","21:00","25.8","","21.9","","79","","","M","21","","21","","","M","99.59","","35","","","","NA"
"-79.17","43.19","ST CATHARINES A","6137304","2022-07-05 22:00","2022","07","05","22:00","26.4","","22.0","","76","","","M","22","","18","","","M","99.58","","36","","","","NA"
"-79.17","43.19","ST CATHARINES A","6137304","2022-07-05 23:00","2022","07","05","23:00","26.9","","22.4","","76","","","M","26","","13","","","M","99.58","","37","","","","NA"
"-79.17","43.19","ST CATHARINES A","6137304","2022-07-06 00:00","2022","07","06","00:00","25.3","","19.4","","69","","","M","30","","24","","","M","99.63","","32","","","","NA"
"-79.17","43.19","ST CATHARINES A","6137304","2022-07-06 01:00","2022","07","06","01:00","22.3","","17.9","","76","","","M","32","","19","","","M","99.68","","28","","","","NA"
"-79.17","43.19","ST CATHARINES A","6137304","2022-07-06 02:00","2022","07","06","02:00","20.8","","17.5","","81","","","M","33","","17","","","M","99.80","","26","","","","NA"
"-79.17","43.19","ST CATHARINES A","6137304","2022-07-06 03:00","2022","07","06","03:00","20.1","","17.1","","82","","","M","32","","17","","","M","99.86","","25","","","","NA"
"-79.17","43.19","ST CATHARINES A","6137304","2022-07-06 04:00","2022","07","06","04:00","19.8","","16.9","","84","","","M","32","","9","","","M","99.94","","","","","","NA"
"-79.17","43.19","ST CATHARINES A","6137304","2022-07-06 05:00","2022","07","06","05:00","17.8","","16.1","","90","","","M","35","","4","","","M","99.97","","","","","","NA"
"-79.17","43.19","ST CATHARINES A","6137304","2022-07-06 06:00","2022","07","06","06:00","16.7","","15.5","","93","","","M","24","","3","","","M","99.95","","","","","","NA"
"-79.17","43.19","ST CATHARINES A","6137304","2022-07-06 07:00","2022","07","06","07:00","17.0","","16.2","","95","","","M","27","","7","","","M","100.02","","","","","","NA"
"-79.17","43.19","ST CATHARINES A","6137304","2022-07-06 08:00","2022","07","06","08:00","17.0","","16.0","","94","","","M","26","","3","","","M","100.00","","","","","","NA"
"-79.17","43.19","ST CATHARINES A","6137304","2022-07-06 09:00","2022","07","06","09:00","17.5","","16.7","","95","","","M","30","","9","","","M","100.05","","","","","","NA"
"-79.17","43.19","ST CATHARINES A","6137304","2022-07-06 10:00","2022","07","06","10:00","18.3","","16.8","","91","","","M","32","","9","","","M","100.12","","","","","","NA"
"-79.17","43.19","ST CATHARINES A","6137304","2022-07-06 11:00","2022","07","06","11:00","19.8","","17.3","","85","","","M","34","","10","","","M","100.16","","","","","","NA"
"-79.17","43.19","ST CATHARINES A","6137304","2022-07-06 12:00","2022","07","06","12:00","19.9","","17.0","","83","","","M","34","","9","","","M","100.20","","","","","","NA"
"-79.17","43.19","ST CATHARINES A","6137304","2022-07-06 13:00","2022","07","06","13:00","20.5","","17.1","","81","","","M","35","","9","","","M","100.24","","26","","","","NA"
"-79.17","43.19","ST CATHARINES A","6137304","2022-07-06 14:00","2022","07","06","14:00","21.8","","16.4","","71","","","M","35","","15","","","M","100.27","","27","","","","NA"
"-79.17","43.19","ST CATHARINES A","6137304","2022-07-06 15:00","2022","07","06","15:00","21.8","","16.4","","71","","","M","34","","17","","","M","100.35","","27","","","","NA"
"-79.17","43.19","ST CATHARINES A","6137304","2022-07-06 16:00","2022","07","06","16:00","22.3","","16.5","","70","","","M","1","","20","","","M","100.33","","27","","","","NA"
"-79.17","43.19","ST CATHARINES A","6137304","2022-07-06 17:00","2022","07","06","17:00","22.5","","16.8","","70","","","M","3","","18","","","M","100.37","","28","","","","NA"
"-79.17","43.19","ST CATHARINES A","6137304","2022-07-06 18:00","2022","07","06","18:00","22.5","","15.8","","65","","","M","4","","18","","","M","100.37","","27","","","","NA"
"-79.17","43.19","ST CATHARINES A","6137304","2022-07-06 19:00","2022","07","06","19:00","22.8","","15.0","","61","","","M","1","","14","","","M","100.39","","27","","","","NA"
"-79.17","43.19","ST CATHARINES A","6137304","2022-07-06 20:00","2022","07","06","20:00","23.2","","15.2","","60","","","M","1","","15","","","M","100.38","","27","","","","NA"
"-79.17","43.19","ST CATHARINES A","6137304","2022-07-06 21:00","2022","07","06","21:00","23.2","","15.0","","60","","","M","2","","17","","","M","100.35","","27","","","","NA"
"-79.17","43.19","ST CATHARINES A","6137304","2022-07-06 22:00","2022","07","06","22:00","23.2","","14.1","","56","","","M","3","","19","","","M","100.35","","27","","","","NA"
"-79.17","43.19","ST CATHARINES A","6137304","2022-07-06 23:00","2022","07","06","23:00","22.6","","13.7","","57","","","M","3","","13","","","M","100.38","","26","","","","NA"
"-79.17","43.19","ST CATHARINES A","6137304","2022-07-07 00:00","2022","07","07","00:00","22.0","","13.7","","59","","","M","6","","12","","","M","100.38","","25","","","","NA"
"-79.17","43.19","ST CATHARINES A","6137304","2022-07-07 01:00","2022","07","07","01:00","19.0","","14.8","","76","","","M","2","","10","","","M","100.37","","","","","","NA"
"-79.17","43.19","ST CATHARINES A","6137304","2022-07-07 02:00","2022","07","07","02:00","17.9","","14.9","","82","","","M","1","","7","","","M","100.44","","","","","","NA"
"-79.17","43.19","ST CATHARINES A","6137304","2022-07-07 03:00","2022","07","07","03:00","17.4","","16.4","","94","","","M","35","","9","","","M","100.47","","","","","","NA"
"-79.17","43.19","ST CATHARINES A","6137304","2022-07-07 04:00","2022","07","07","04:00","17.2","","16.6","","96","","","M","35","","5","","","M","100.47","","","","","","NA"
"-79.17","43.19","ST CATHARINES A","6137304","2022-07-07 05:00","2022","07","07","05:00","15.1","","14.8","","98","","","M","19","","6","","","M","100.46","","","","","","NA"
"-79.17","43.19","ST CATHARINES A","6137304","2022-07-07 06:00","2022","07","07","06:00","15.8","","15.7","","99","","","M","24","","2","","","M","100.45","","","","","","NA"
"-79.17","43.19","ST CATHARINES A","6137304","2022-07-07 07:00","2022","07","07","07:00","14.4","","14.3","","100","","","M","19","","4","","","M","100.46","","","","","","NA"
"-79.17","43.19","ST CATHARINES A","6137304","2022-07-07 08:00","2022","07","07","08:00","14.0","","13.8","","99","","","M","23","","8","","","M","100.46","","","","","","NA"
"-79.17","43.19","ST CATHARINES A","6137304","2022-07-07 09:00","2022","07","07","09:00","14.5","","14.4","","99","","","M","21","","6","","","M","100.48","","","","","","NA"
"-79.17","43.19","ST CATHARINES A","6137304","2022-07-07 10:00","2022","07","07","10:00","13.9","","13.8","","100","","","M","20","","7","","","M","100.53","","","","","","NA"
"-79.17","43.19","ST CATHARINES A","6137304","2022-07-07 11:00","2022","07","07","11:00","16.2","","16.1","","99","","","M","22","","6","","","M","100.60","","","","","","NA"
"-79.17","43.19","ST CATHARINES A","6137304","2022-07-07 12:00","2022","07","07","12:00","19.1","","17.0","","88","","","M","30","","5","","","M","100.61","","","","","","NA"
"-79.17","43.19","ST CATHARINES A","6137304","2022-07-07 13:00","2022","07","07","13:00","20.9","","17.4","","81","","","M","35","","7","","","M","100.57","","26","","","","NA"
"-79.17","43.19","ST CATHARINES A","6137304","2022-07-07 14:00","2022","07","07","14:00","21.9","","17.6","","76","","","M","34","","10","","","M","100.53","","28","","","","NA"
"-79.17","43.19","ST CATHARINES A","6137304","2022-07-07 15:00","2022","07","07","15:00","23.1","","17.2","","69","","","M","34","","16","","","M","100.53","","29","","","","NA"
"-79.17","43.19","ST CATHARINES A","6137304","2022-07-07 16:00","2022","07","07","16:00","23.8","","16.9","","64","","","M","35","","16","","","M","100.48","","29","","","","NA"
"-79.17","43.19","ST CATHARINES A","6137304","2022-07-07 17:00","2022","07","07","17:00","24.5","","17.1","","63","","","M","35","","18","","","M","100.48","","30","","","","NA"
"-79.17","43.19","ST CATHARINES A","6137304","2022-07-07 18:00","2022","07","07","18:00","25.1","","16.7","","59","","","M","34","","16","","","M","100.46","","30","","","","NA"
"-79.17","43.19","ST CATHARINES A","6137304","2022-07-07 19:00","2022","07","07","19:00","25.3","","16.2","","57","","","M","36","","12","","","M","100.44","","30","","","","NA"
"-79.17","43.19","ST CATHARINES A","6137304","2022-07-07 20:00","2022","07","07","20:00","25.7","","15.1","","51","","","M","34","","9","","","M","100.42","","30","","","","NA"
"-79.17","43.19","ST CATHARINES A","6137304","2022-07-07 21:00","2022","07","07","21:00","26.4","","11.3","","38","","","M","31","","8","","","M","100.37","","28","","","","NA"
"-79.17","43.19","ST CATHARINES A","6137304","2022-07-07 22:00","2022","07","07","22:00","27.1","","12.4","","40","","","M","9","","4","","","M","100.29","","30","","","","NA"
"-79.17","43.19","ST CATHARINES A","6137304","2022-07-07 23:00","2022","07","07","23:00","27.4","","13.0","","40","","","M","21","","7","","","M","100.26","","30","","","","NA"
"-79.17","43.19","ST CATHARINES A","6137304","2022-07-08 00:00","2022","07","08","00:00","25.3","","15.8","","55","","","M","22","","18","","","M","100.26","","30","","","","NA"
"-79.17","43.19","ST CATHARINES A","6137304","2022-07-08 01:00","2022","07","08","01:00","23.4","","14.8","","58","","","M","23","","16","","","M","100.26","","27","","","","NA"
"-79.17","43.19","ST CATHARINES A","6137304","2022-07-08 02:00","2022","07","08","02:00","22.0","","14.5","","62","","","M","23","","13","","","M","100.31","","26","","","","NA"
"-79.17","43.19","ST CATHARINES A","6137304","2022-07-08 03:00","2022","07","08","03:00","21.2","","15.1","","68","","","M","23","","16","","","M","100.35","","25","","","","NA"
"-79.17","43.19","ST CATHARINES A","6137304","2022-07-08 04:00","2022","07","08","04:00","20.2","","15.1","","72","","","M","28","","9","","","M","100.42","","","","","","NA"
"-79.17","43.19","ST CATHARINES A","6137304","2022-07-08 05:00","2022","07","08","05:00","18.4","","15.5","","83","","","M","19","","5","","","M","100.41","","","","","","NA"
"-79.17","43.19","ST CATHARINES A","6137304","2022-07-08 06:00","2022","07","08","06:00","16.2","","14.9","","92","","","M","21","","9","","","M","100.37","","","","","","NA"
"-79.17","43.19","ST CATHARINES A","6137304","2022-07-08 07:00","2022","07","08","07:00","16.8","","15.5","","92","","","M","28","","7","","","M","100.41","","","","","","NA"
"-79.17","43.19","ST CATHARINES A","6137304","2022-07-08 08:00","2022","07","08","08:00","16.2","","14.6","","90","","","M","22","","4","","","M","100.40","","","","","","NA"
"-79.17","43.19","ST CATHARINES A","6137304","2022-07-08 09:00","2022","07","08","09:00","16.1","","14.6","","91","","","M","22","","7","","","M","100.42","","","","","","NA"
"-79.17","43.19","ST CATHARINES A","6137304","2022-07-08 10:00","2022","07","08","10:00","16.9","","14.9","","88","","","M","23","","8","","","M","100.47","","","","","","NA"
"-79.17","43.19","ST CATHARINES A","6137304","2022-07-08 11:00","2022","07","08","11:00","18.5","","16.1","","86","","","M","21","","5","","","M","100.51","","","","","","NA"
"-79.17","43.19","ST CATHARINES A","6137304","2022-07-08 12:00","2022","07","08","12:00","21.6","","15.1","","66","","","M","23","","8","","","M","100.54","","26","","","","NA"
"-79.17","43.19","ST CATHARINES A","6137304","2022-07-08 13:00","2022","07","08","13:00","23.6","","13.6","","53","","","M","30","","10","","","M","100.57","","27","","","","NA"
"-79.17","43.19","ST CATHARINES A","6137304","2022-07-08 14:00","2022","07","08","14:00","25.5","","13.4","","47","","","M","32","","8","","","M","100.53","","29","","","","NA"
"-79.17","43.19","ST CATHARINES A","6137304","2022-07-08 15:00","2022","07","08","15:00","25.9","","15.3","","51","","","M","1","","5","","","M","100.54","","30","","","","NA"
"-79.17","43.19","ST CATHARINES A","6137304","2022-07-08 16:00","2022","07","08","16:00","26.1","","15.7","","52","","","M","32","","9","","","M","100.53","","31","","","","NA"
"-79.17","43.19","ST CATHARINES A","6137304","2022-07-08 17:00","2022","07","08","17:00","27.3","","16.0","","50","","","M","31","","7","","","M","100.49","","32","","","","NA"
"-79.17","43.19","ST CATHARINES A","6137304","2022-07-08 18:00","2022","07","08","18:00","26.5","","16.9","","55","","","M","34","","12","","","M","100.46","","32","","","","NA"
"-79.17","43.19","ST CATHARINES A","6137304","2022-07-08 19:00","2022","07","08","19:00","25.5","","15.9","","55","","","M","1","","10","","","M","100.46","","30","","","","NA"
"-79.17","43.19","ST CATHARINES A","6137304","2022-07-08 20:00","2022","07","08","20:00","25.6","","17.8","","62","","","M","4","","7","","","M","100.46","","31","","","","NA"
"-79.17","43.19","ST CATHARINES A","6137304","2022-07-08 21:00","2022","07","08","21:00","25.7","","17.0","","58","","","M","5","","10","","","M","100.44","","31","","","","NA"
"-79.17","43.19","ST CATHARINES A","6137304","2022-07-08 22:00","2022","07","08","22:00","25.2","","16.9","","59","","","M","1","","3","","","M","100.48","","30","","","","NA"
"-79.17","43.19","ST CATHARINES A","6137304","2022-07-08 23:00","2022","07","08","23:00","26.0","","17.0","","57","","","M","6","","9","","","M","100.47","","31","","","","NA"
"-79.17","43.19","ST CATHARINES A","6137304","2022-07-09 00:00","2022","07","09","00:00","24.1","","17.3","","65","","","M","3","","12","","","M","100.53","","30","","","","NA"
"-79.17","43.19","ST CATHARINES A","6137304","2022-07-09 01:00","2022","07","09","01:00","21.9","","16.3","","70","","","M","1","","10","","","M","100.54","","27","","","","NA"
"-79.17","43.19","ST CATHARINES A","6137304","2022-07-09 02:00","2022","07","09","02:00","22.1","","16.1","","69","","","M","2","","17","","","M","100.60","","27","","","","NA"
"-79.17","43.19","ST CATHARINES A","6137304","2022-07-09 03:00","2022","07","09","03:00","21.3","","14.1","","63","","","M","1","","17","","","M","100.64","","25","","","","NA"
"-79.17","43.19","ST CATHARINES A","6137304","2022-07-09 04:00","2022","07","09","04:00","19.7","","15.3","","76","","","M","36","","13","","","M","100.68","","","","","","NA"
"-79.17","43.19","ST CATHARINES A","6137304","2022-07-09 05:00","2022","07","09","05:00","18.8","","14.4","","75","","","M","36","","13","","","M","100.72","","","","","","NA"
"-79.17","43.19","ST CATHARINES A","6137304","2022-07-09 06:00","2022","07","09","06:00","18.2","","13.6","","74","","","M","1","","9","","","M","100.76","","","","","","NA"
"-79.17","43.19","ST CATHARINES A","6137304","2022-07-09 07:00","2022","07","09","07:00","18.0","","12.2","","69","","","M","4","","16","","","M","100.77","","","","","","NA"
"-79.17","43.19","ST CATHARINES A","6137304","2022-07-09 08:00","2022","07","09","08:00","17.9","","11.2","","65","","","M","6","","17","","","M","100.78","","","","","","NA"
"-79.17","43.19","ST CATHARINES A","6137304","2022-07-09 09:00","2022","07","09","09:00","17.4","","11.6","","68","","","M","5","","16","","","M","100.82","","","","","","NA"
"-79.17","43.19","ST CATHARINES A","6137304","2022-07-09 10:00","2022","07","09","10:00","16.1","","11.5","","74","","","M","7","","12","","","M","100.87","","","","","","NA"
"-79.17","43.19","ST CATHARINES A","6137304","2022-07-09 11:00","2022","07","09","11:00","17.5","","11.9","","69","","","M","7","","11","","","M","100.93","","","","","","NA"
"-79.17","43.19","ST CATHARINES A","6137304","2022-07-09 12:00","2022","07","09","12:00","18.8","","12.3","","65","","","M","5","","23","","","M","100.97","","","","","","NA"
"-79.17","43.19","ST CATHARINES A","6137304","2022-07-09 13:00","2022","07","09","13:00","19.5","","12.8","","65","","","M","4","","18","","","M","100.98","","","","","","NA"
"-79.17","43.19","ST CATHARINES A","6137304","2022-07-09 14:00","2022","07","09","14:00","19.9","","12.8","","63","","","M","4","","22","","","M","100.98","","","","","","NA"
"-79.17","43.19","ST CATHARINES A","6137304","2022-07-09 15:00","2022","07","09","15:00","19.8","","12.9","","64","","","M","3","","18","","","M","101.01","","","","","","NA"
"-79.17","43.19","ST CATHARINES A","6137304","2022-07-09 16:00","2022","07","09","16:00","20.7","","13.0","","61","","","M","3","","20","","","M","101.02","","","","","","NA"
"-79.17","43.19","ST CATHARINES A","6137304","2022-07-09 17:00","2022","07","09","17:00","21.0","","11.6","","54","","","M","3","","19","","","M","101.04","","","","","","NA"
"-79.17","43.19","ST CATHARINES A","6137304","2022-07-09 18:00","2022","07","09","18:00","21.4","","10.1","","48","","","M","2","","19","","","M","101.03","","","","","","NA"
"-79.17","43.19","ST CATHARINES A","6137304","2022-07-09 19:00","2022","07","09","19:00","22.3","","7.9","","39","","","M","3","","23","","","M","100.98","","","","","","NA"
"-79.17","43.19","ST CATHARINES A","6137304","2022-07-09 20:00","2022","07","09","20:00","22.6","","7.3","","37","","","M","2","","24","","","M","100.95","","","","","","NA"
"-79.17","43.19","ST CATHARINES A","6137304","2022-07-09 21:00","2022","07","09","21:00","22.8","","6.2","","34","","","M","3","","22","","","M","100.96","","","","","","NA"
"-79.17","43.19","ST CATHARINES A","6137304","2022-07-09 22:00","2022","07","09","22:00","22.7","","7.0","","36","","","M","4","","18","","","M","100.93","","","","","","NA"
"-79.17","43.19","ST CATHARINES A","6137304","2022-07-09 23:00","2022","07","09","23:00","22.4","","6.6","","36","","","M","7","","12","","","M","100.90","","","","","","NA"
"-79.17","43.19","ST CATHARINES A","6137304","2022-07-10 00:00","2022","07","10","00:00","20.7","","7.3","","42","","","M","8","","9","","","M","100.90","","","","","","NA"
"-79.17","43.19","ST CATHARINES A","6137304","2022-07-10 01:00","2022","07","10","01:00","18.9","","7.8","","48","","","M","11","","7","","","M","100.86","","","","","","NA"
"-79.17","43.19","ST CATHARINES A","6137304","2022-07-10 02:00","2022","07","10","02:00","16.8","","8.8","","59","","","M","12","","9","","","M","100.88","","","","","","NA"
"-79.17","43.19","ST CATHARINES A","6137304","2022-07-10 03:00","2022","07","10","03:00","13.6","","9.4","","75","","","M","17","","3","","","M","100.86","","","","","","NA"
"-79.17","43.19","ST CATHARINES A","6137304","2022-07-10 04:00","2022","07","10","04:00","13.1","","9.7","","79","","","M","34","","3","","","M","100.90","","","","","","NA"
"-79.17","43.19","ST CATHARINES A","6137304","2022-07-10 05:00","2022","07","10","05:00","13.0","","9.4","","79","","","M","21","","5","","","M","100.91","","","","","","NA"
"-79.17","43.19","ST CATHARINES A","6137304","2022-07-10 06:00","2022","07","10","06:00","12.3","","9.9","","85","","","M","22","","7","","","M","100.91","","","","","","NA"
"-79.17","43.19","ST CATHARINES A","6137304","2022-07-10 07:00","2022","07","10","07:00","12.4","","11.3","","93","","","M","20","","5","","","M","100.89","","","","","","NA"
"-79.17","43.19","ST CATHARINES A","6137304","2022-07-10 08:00","2022","07","10","08:00","11.6","","10.7","","95","","","M","20","","3","","","M","100.90","","","","","","NA"
"-79.17","43.19","ST CATHARINES A","6137304","2022-07-10 09:00","2022","07","10","09:00","11.1","","10.4","","96","","","M","21","","9","","","M","100.90","","","","","","NA"
"-79.17","43.19","ST CATHARINES A","6137304","2022-07-10 10:00","2022","07","10","10:00","12.0","","11.7","","98","","","M","20","","7","","","M","100.88","","","","","","NA"
"-79.17","43.19","ST CATHARINES A","6137304","2022-07-10 11:00","2022","07","10","11:00","14.5","","13.9","","97","","","M","20","","5","","","M","100.91","","","","","","NA"
"-79.17","43.19","ST CATHARINES A","6137304","2022-07-10 12:00","2022","07","10","12:00","18.4","","14.8","","79","","","M","22","","5","","","M","100.94","","","","","","NA"
"-79.17","43.19","ST CATHARINES A","6137304","2022-07-10 13:00","2022","07","10","13:00","20.4","","12.6","","60","","","M","16","","4","","","M","100.94","","","","","","NA"
"-79.17","43.19","ST CATHARINES A","6137304","2022-07-10 14:00","2022","07","10","14:00","22.5","","12.5","","53","","","M","22","","7","","","M","100.89","","25","","","","NA"
"-79.17","43.19","ST CATHARINES A","6137304","2022-07-10 15:00","2022","07","10","15:00","24.1","","12.0","","46","","","M","33","","2","","","M","100.84","","26","","","","NA"
"-79.17","43.19","ST CATHARINES A","6137304","2022-07-10 16:00","2022","07","10","16:00","25.7","","9.3","","35","","","M","8","","9","","","M","100.81","","27","","","","NA"
"-79.17","43.19","ST CATHARINES A","6137304","2022-07-10 17:00","2022","07","10","17:00","26.2","","12.4","","42","","","M","34","","7","","","M","100.76","","29","","","","NA"
"-79.17","43.19","ST CATHARINES A","6137304","2022-07-10 18:00","2022","07","10","18:00","27.1","","10.3","","34","","","M","14","","6","","","M","100.69","","29","","","","NA"
"-79.17","43.19","ST CATHARINES A","6137304","2022-07-10 19:00","2022","07","10","19:00","26.4","","11.9","","40","","","M","1","","14","","","M","100.62","","29","","","","NA"
"-79.17","43.19","ST CATHARINES A","6137304","2022-07-10 20:00","2022","07","10","20:00","27.0","","11.8","","38","","","M","36","","16","","","M","100.51","","29","","","","NA"
"-79.17","43.19","ST CATHARINES A","6137304","2022-07-10 21:00","2022","07","10","21:00","27.3","","11.8","","37","","","M","36","","15","","","M","100.46","","29","","","","NA"
"-79.17","43.19","ST CATHARINES A","6137304","2022-07-10 22:00","2022","07","10","22:00","27.0","","11.3","","37","","","M","36","","12","","","M","100.44","","29","","","","NA"
"-79.17","43.19","ST CATHARINES A","6137304","2022-07-10 23:00","2022","07","10","23:00","26.6","","10.5","","36","","","M","6","","5","","","M","100.38","","28","","","","NA"
"-79.17","43.19","ST CATHARINES A","6137304","2022-07-11 00:00","2022","07","11","00:00","25.6","","11.7","","41","","","M","14","","6","","","M","100.31","","28","","","","NA"
"-79.17","43.19","ST CATHARINES A","6137304","2022-07-11 01:00","2022","07","11","01:00","23.1","","12.3","","50","","","M","15","","10","","","M","100.26","","26","","","","NA"
"-79.17","43.19","ST CATHARINES A","6137304","2022-07-11 02:00","2022","07","11","02:00","21.3","","12.2","","56","","","M","14","","12","","","M","100.20","","","","","","NA"
"-79.17","43.19","ST CATHARINES A","6137304","2022-07-11 03:00","2022","07","11","03:00","18.7","","12.7","","68","","","M","30","","1","","","M","100.22","","","","","","NA"
"-79.17","43.19","ST CATHARINES A","6137304","2022-07-11 04:00","2022","07","11","04:00","18.9","","13.4","","70","","","M","14","","10","","","M","100.15","","","","","","NA"
"-79.17","43.19","ST CATHARINES A","6137304","2022-07-11 05:00","2022","07","11","05:00","18.7","","13.4","","71","","","M","15","","7","","","M","100.12","","","","","","NA"
"-79.17","43.19","ST CATHARINES A","6137304","2022-07-11 06:00","2022","07","11","06:00","16.3","","14.1","","86","","","M","23","","7","","","M","100.07","","","","","","NA"
"-79.17","43.19","ST CATHARINES A","6137304","2022-07-11 07:00","2022","07","11","07:00","17.1","","13.6","","80","","","M","20","","5","","","M","100.05","","","","","","NA"
"-79.17","43.19","ST CATHARINES A","6137304","2022-07-11 08:00","2022","07","11","08:00","16.0","","14.0","","88","","","M","20","","7","","","M","100.05","","","","","","NA"
"-79.17","43.19","ST CATHARINES A","6137304","2022-07-11 09:00","2022","07","11","09:00","15.2","","12.4","","83","","","M","18","","10","","","M","100.02","","","","","","NA"
"-79.17","43.19","ST CATHARINES A","6137304","2022-07-11 10:00","2022","07","11","10:00","14.3","","11.9","","85","","","M","19","","12","","","M","100.02","","","","","","NA"
"-79.17","43.19","ST CATHARINES A","6137304","2022-07-11 11:00","2022","07","11","11:00","15.8","","12.2","","79","","","M","22","","13","","","M","100.04","","","","","","NA"
"-79.17","43.19","ST CATHARINES A","6137304","2022-07-11 12:00","2022","07","11","12:00","20.5","","10.9","","54","","","M","22","","14","","","M","99.99","","","","","","NA"
"-79.17","43.19","ST CATHARINES A","6137304","2022-07-11 13:00","2022","07","11","13:00","24.0","","10.7","","43","","","M","22","","20","","","M","99.98","","26","","","","NA"
"-79.17","43.19","ST CATHARINES A","6137304","2022-07-11 14:00","2022","07","11","14:00","23.8","","10.7","","43","","","M","23","","19","","","M","99.93","","25","","","","NA"
"-79.17","43.19","ST CATHARINES A","6137304","2022-07-11 15:00","2022","07","11","15:00","26.2","","13.0","","43","","","M","22","","21","","","M","99.84","","29","","","","NA"
"-79.17","43.19","ST CATHARINES A","6137304","2022-07-11 16:00","2022","07","11","16:00","28.4","","14.6","","43","","","M","21","","25","","","M","99.81","","32","","","","NA"
"-79.17","43.19","ST CATHARINES A","6137304","2022-07-11 17:00","2022","07","11","17:00","29.0","","12.5","","36","","","M","22","","28","","","M","99.75","","32","","","","NA"
"-79.17","43.19","ST CATHARINES A","6137304","2022-07-11 18:00","2022","07","11","18:00","27.7","","10.3","","33","","","M","21","","32","","","M","99.74","","29","","","","NA"
"-79.17","43.19","ST CATHARINES A","6137304","2022-07-11 19:00","2022","07","11","19:00","28.8","","10.8","","32","","","M","22","","24","","","M","99.69","","30","","","","NA"
"-79.17","43.19","ST CATHARINES A","6137304","2022-07-11 20:00","2022","07","11","20:00","29.9","","11.0","","30","","","M","23","","29","","","M","99.59","","32","","","","NA"
"-79.17","43.19","ST CATHARINES A","6137304","2022-07-11 21:00","2022","07","11","21:00","29.7","","13.4","","36","","","M","22","","32","","","M","99.48","","33","","","","NA"
"-79.17","43.19","ST CATHARINES A","6137304","2022-07-11 22:00","2022","07","11","22:00","30.5","","12.9","","33","","","M","22","","33","","","M","99.40","","33","","","","NA"
"-79.17","43.19","ST CATHARINES A","6137304","2022-07-11 23:00","2022","07","11","23:00","29.3","","15.3","","42","","","M","21","","28","","","M","99.28","","33","","","","NA"
"-79.17","43.19","ST CATHARINES A","6137304","2022-07-12 00:00","2022","07","12","00:00","26.6","","16.7","","54","","","M","22","","22","","","M","99.30","","32","","","","NA"
"-79.17","43.19","ST CATHARINES A","6137304","2022-07-12 01:00","2022","07","12","01:00","26.3","","16.8","","55","","","M","22","","24","","","M","99.25","","31","","","","NA"
"-79.17","43.19","ST CATHARINES A","6137304","2022-07-12 02:00","2022","07","12","02:00","26.1","","17.0","","57","","","M","23","","18","","","M","99.26","","31","","","","NA"
"-79.17","43.19","ST CATHARINES A","6137304","2022-07-12 03:00","2022","07","12","03:00","21.6","","20.0","","91","","","M","22","","25","","","M","99.30","","29","","","","NA"
"-79.17","43.19","ST CATHARINES A","6137304","2022-07-12 04:00","2022","07","12","04:00","22.1","","20.1","","88","","","M","20","","23","","","M","99.19","","30","","","","NA"
"-79.17","43.19","ST CATHARINES A","6137304","2022-07-12 05:00","2022","07","12","05:00","23.7","","20.2","","80","","","M","22","","27","","","M","99.15","","31","","","","NA"
"-79.17","43.19","ST CATHARINES A","6137304","2022-07-12 06:00","2022","07","12","06:00","24.1","","19.7","","76","","","M","22","","27","","","M","99.08","","31","","","","NA"
"-79.17","43.19","ST CATHARINES A","6137304","2022-07-12 07:00","2022","07","12","07:00","23.9","","19.7","","77","","","M","22","","27","","","M","99.04","","31","","","","NA"
"-79.17","43.19","ST CATHARINES A","6137304","2022-07-12 08:00","2022","07","12","08:00","23.9","","19.9","","78","","","M","22","","29","","","M","98.96","","31","","","","NA"
"-79.17","43.19","ST CATHARINES A","6137304","2022-07-12 09:00","2022","07","12","09:00","23.8","","20.1","","80","","","M","22","","29","","","M","99.04","","31","","","","NA"
"-79.17","43.19","ST CATHARINES A","6137304","2022-07-12 10:00","2022","07","12","10:00","23.4","","20.1","","81","","","M","23","","18","","","M","99.07","","31","","","","NA"
"-79.17","43.19","ST CATHARINES A","6137304","2022-07-12 11:00","2022","07","12","11:00","23.4","","19.6","","79","","","M","24","","17","","","M","99.06","","31","","","","NA"
"-79.17","43.19","ST CATHARINES A","6137304","2022-07-12 12:00","2022","07","12","12:00","24.0","","18.6","","71","","","M","24","","21","","","M","99.12","","30","","","","NA"
"-79.17","43.19","ST CATHARINES A","6137304","2022-07-12 13:00","2022","07","12","13:00","24.5","","18.7","","70","","","M","25","","23","","","M","99.17","","31","","","","NA"
"-79.17","43.19","ST CATHARINES A","6137304","2022-07-12 14:00","2022","07","12","14:00","24.8","","18.8","","69","","","M","26","","17","","","M","99.20","","31","","","","NA"
"-79.17","43.19","ST CATHARINES A","6137304","2022-07-12 15:00","2022","07","12","15:00","24.9","","17.9","","65","","","M","28","","22","","","M","99.22","","31","","","","NA"
"-79.17","43.19","ST CATHARINES A","6137304","2022-07-12 16:00","2022","07","12","16:00","26.7","","17.4","","56","","","M","26","","21","","","M","99.28","","32","","","","NA"
"-79.17","43.19","ST CATHARINES A","6137304","2022-07-12 17:00","2022","07","12","17:00","27.2","","16.3","","51","","","M","26","","26","","","M","99.29","","32","","","","NA"
"-79.17","43.19","ST CATHARINES A","6137304","2022-07-12 18:00","2022","07","12","18:00","27.6","","15.5","","47","","","M","26","","29","","","M","99.31","","32","","","","NA"
"-79.17","43.19","ST CATHARINES A","6137304","2022-07-12 19:00","2022","07","12","19:00","27.6","","16.9","","52","","","M","30","","27","","","M","99.33","","33","","","","NA"
"-79.17","43.19","ST CATHARINES A","6137304","2022-07-12 20:00","2022","07","12","20:00","24.6","","16.1","","59","","","M","31","","20","","","M","99.42","","29","","","","NA"
"-79.17","43.19","ST CATHARINES A","6137304","2022-07-12 21:00","2022","07","12","21:00","27.0","","17.3","","55","","","M","31","","17","","","M","99.45","","32","","","","NA"
"-79.17","43.19","ST CATHARINES A","6137304","2022-07-12 22:00","2022","07","12","22:00","26.3","","16.0","","53","","","M","32","","21","","","M","99.49","","31","","","","NA"
"-79.17","43.19","ST CATHARINES A","6137304","2022-07-12 23:00","2022","07","12","23:00","24.2","","16.5","","62","","","M","32","","19","","","M","99.55","","29","","","","NA"
"-79.17","43.19","ST CATHARINES A","6137304","2022-07-13 00:00","2022","07","13","00:00","23.1","","15.6","","62","","","M","33","","18","","","M","99.62","","27","","","","NA"
"-79.17","43.19","ST CATHARINES A","6137304","2022-07-13 01:00","2022","07","13","01:00","22.3","","15.0","","63","","","M","33","","11","","","M","99.68","","26","","","","NA"
"-79.17","43.19","ST CATHARINES A","6137304","2022-07-13 02:00","2022","07","13","02:00","20.7","","14.8","","69","","","M","34","","8","","","M","99.76","","25","","","","NA"
"-79.17","43.19","ST CATHARINES A","6137304","2022-07-13 03:00","2022","07","13","03:00","20.6","","15.7","","73","","","M","31","","9","","","M","99.80","","25","","","","NA"
"-79.17","43.19","ST CATHARINES A","6137304","2022-07-13 04:00","2022","07","13","04:00","21.0","","15.9","","72","","","M","30","","7","","","M","99.84","","26","","","","NA"
"-79.17","43.19","ST CATHARINES A","6137304","2022-07-13 05:00","2022","07","13","05:00","20.0","","17.2","","84","","","M","34","","7","","","M","99.91","","25","","","","NA"
"-79.17","43.19","ST CATHARINES A","6137304","2022-07-13 06:00","2022","07","13","06:00","19.6","","17.7","","89","","","M","10","","2","","","M","99.92","","","","","","NA"
"-79.17","43.19","ST CATHARINES A","6137304","2022-07-13 07:00","2022","07","13","07:00","19.4","","17.6","","90","","","M","","","0","","","M","99.95","","","","","","NA"
"-79.17","43.19","ST CATHARINES A","6137304","2022-07-13 08:00","2022","07","13","08:00","19.1","","17.8","","92","","","M","9","","1","","","M","99.98","","","","","","NA"
"-79.17","43.19","ST CATHARINES A","6137304","2022-07-13 09:00","2022","07","13","09:00","18.9","","17.5","","92","","","M","34","","4","","","M","100.01","","","","","","NA"
"-79.17","43.19","ST CATHARINES A","6137304","2022-07-13 10:00","2022","07","13","10:00","18.2","","16.9","","92","","","M","2","","2","","","M","100.02","","","","","","NA"
"-79.17","43.19","ST CATHARINES A","6137304","2022-07-13 11:00","2022","07","13","11:00","18.7","","17.4","","92","","","M","34","","5","","","M","100.05","","","","","","NA"
"-79.17","43.19","ST CATHARINES A","6137304","2022-07-13 12:00","2022","07","13","12:00","20.5","","16.8","","79","","","M","36","","3","","","M","100.09","","26","","","","NA"
"-79.17","43.19","ST CATHARINES A","6137304","2022-07-13 13:00","2022","07","13","13:00","21.7","","16.7","","73","","","M","34","","8","","","M","100.13","","27","","","","NA"
"-79.17","43.19","ST CATHARINES A","6137304","2022-07-13 14:00","2022","07","13","14:00","21.6","","16.0","","70","","","M","34","","10","","","M","100.16","","26","","","","NA"
"-79.17","43.19","ST CATHARINES A","6137304","2022-07-13 15:00","2022","07","13","15:00","23.0","","16.8","","67","","","M","31","","9","","","M","100.18","","28","","","","NA"
"-79.17","43.19","ST CATHARINES A","6137304","2022-07-13 16:00","2022","07","13","16:00","23.8","","15.7","","60","","","M","29","","11","","","M","100.20","","28","","","","NA"
"-79.17","43.19","ST CATHARINES A","6137304","2022-07-13 17:00","2022","07","13","17:00","25.4","","14.3","","50","","","M","32","","17","","","M","100.23","","29","","","","NA"
"-79.17","43.19","ST CATHARINES A","6137304","2022-07-13 18:00","2022","07","13","18:00","23.7","","14.8","","57","","","M","33","","13","","","M","100.19","","28","","","","NA"
"-79.17","43.19","ST CATHARINES A","6137304","2022-07-13 19:00","2022","07","13","19:00","24.1","","13.2","","50","","","M","31","","20","","","M","100.19","","27","","","","NA"
"-79.17","43.19","ST CATHARINES A","6137304","2022-07-13 20:00","2022","07","13","20:00","23.6","","12.4","","49","","","M","30","","21","","","M","100.20","","26","","","","NA"
"-79.17","43.19","ST CATHARINES A","6137304","2022-07-13 21:00","2022","07","13","21:00","21.9","","12.3","","54","","","M","29","","13","","","M","100.22","","","","","","NA"
"-79.17","43.19","ST CATHARINES A","6137304","2022-07-13 22:00","2022","07","13","22:00","21.2","","13.6","","62","","","M","29","","9","","","M","100.20","","","","","","NA"
"-79.17","43.19","ST CATHARINES A","6137304","2022-07-13 23:00","2022","07","13","23:00","21.6","","11.1","","51","","","M","29","","12","","","M","100.23","","","","","","NA"
"-79.17","43.19","ST CATHARINES A","6137304","2022-07-14 00:00","2022","07","14","00:00","20.9","","12.6","","58","","","M","29","","9","","","M","100.25","","","","","","NA"
"-79.17","43.19","ST CATHARINES A","6137304","2022-07-14 01:00","2022","07","14","01:00","20.0","","15.9","","77","","","M","1","","14","","","M","100.30","","25","","","","NA"
"-79.17","43.19","ST CATHARINES A","6137304","2022-07-14 02:00","2022","07","14","02:00","19.5","","16.2","","81","","","M","4","","4","","","M","100.37","","","","","","NA"
"-79.17","43.19","ST CATHARINES A","6137304","2022-07-14 03:00","2022","07","14","03:00","19.0","","16.1","","83","","","M","34","","2","","","M","100.40","","","","","","NA"
"-79.17","43.19","ST CATHARINES A","6137304","2022-07-14 04:00","2022","07","14","04:00","18.2","","15.4","","83","","","M","35","","3","","","M","100.39","","","","","","NA"
"-79.17","43.19","ST CATHARINES A","6137304","2022-07-14 05:00","2022","07","14","05:00","16.5","","15.0","","91","","","M","21","","2","","","M","100.43","","","","","","NA"
"-79.17","43.19","ST CATHARINES A","6137304","2022-07-14 06:00","2022","07","14","06:00","15.2","","14.5","","95","","","M","22","","5","","","M","100.42","","","","","","NA"
"-79.17","43.19","ST CATHARINES A","6137304","2022-07-14 07:00","2022","07","14","07:00","15.4","","14.6","","95","","","M","25","","6","","","M","100.44","","","","","","NA"
"-79.17","43.19","ST CATHARINES A","6137304","2022-07-14 08:00","2022","07","14","08:00","14.7","","14.1","","96","","","M","23","","5","","","M","100.44","","","","","","NA"
"-79.17","43.19","ST CATHARINES A","6137304","2022-07-14 09:00","2022","07","14","09:00","14.3","","13.9","","97","","","M","22","","6","","","M","100.47","","","","","","NA"
"-79.17","43.19","ST CATHARINES A","6137304","2022-07-14 10:00","2022","07","14","10:00","13.4","","13.1","","98","","","M","24","","9","","","M","100.50","","","","","","NA"
"-79.17","43.19","ST CATHARINES A","6137304","2022-07-14 11:00","2022","07","14","11:00","17.4","","16.6","","95","","","M","28","","8","","","M","100.58","","","","","","NA"
"-79.17","43.19","ST CATHARINES A","6137304","2022-07-14 12:00","2022","07","14","12:00","18.9","","16.5","","86","","","M","32","","8","","","M","100.63","","","","","","NA"
"-79.17","43.19","ST CATHARINES A","6137304","2022-07-14 13:00","2022","07","14","13:00","20.7","","16.8","","78","","","M","35","","10","","","M","100.68","","26","","","","NA"
"-79.17","43.19","ST CATHARINES A","6137304","2022-07-14 14:00","2022","07","14","14:00","21.5","","16.5","","73","","","M","34","","14","","","M","100.71","","26","","","","NA"
"-79.17","43.19","ST CATHARINES A","6137304","2022-07-14 15:00","2022","07","14","15:00","21.8","","16.2","","70","","","M","34","","13","","","M","100.78","","27","","","","NA"
"-79.17","43.19","ST CATHARINES A","6137304","2022-07-14 16:00","2022","07","14","16:00","22.3","","15.0","","63","","","M","3","","5","","","M","100.79","","26","","","","NA"
"-79.17","43.19","ST CATHARINES A","6137304","2022-07-14 17:00","2022","07","14","17:00","24.9","","7.9","","33","","","M","3","","13","","","M","100.79","","25","","","","NA"
"-79.17","43.19","ST CATHARINES A","6137304","2022-07-14 18:00","2022","07","14","18:00","25.1","","8.7","","35","","","M","3","","7","","","M","100.76","","26","","","","NA"
"-79.17","43.19","ST CATHARINES A","6137304","2022-07-14 19:00","2022","07","14","19:00","26.5","","8.1","","31","","","M","5","","10","","","M","100.73","","27","","","","NA"
"-79.17","43.19","ST CATHARINES A","6137304","2022-07-14 20:00","2022","07","14","20:00","26.2","","8.2","","31","","","M","36","","5","","","M","100.70","","27","","","","NA"
"-79.17","43.19","ST CATHARINES A","6137304","2022-07-14 21:00","2022","07","14","21:00","26.8","","8.8","","32","","","M","1","","12","","","M","100.69","","28","","","","NA"
"-79.17","43.19","ST CATHARINES A","6137304","2022-07-14 22:00","2022","07","14","22:00","26.5","","8.4","","31","","","M","33","","10","","","M","100.66","","27","","","","NA"
"-79.17","43.19","ST CATHARINES A","6137304","2022-07-14 23:00","2022","07","14","23:00","25.6","","8.9","","34","","","M","2","","8","","","M","100.64","","26","","","","NA"
"-79.17","43.19","ST CATHARINES A","6137304","2022-07-15 00:00","2022","07","15","00:00","23.1","","11.6","","48","","","M","34","","2","","","M","100.69","","25","","","","NA"
"-79.17","43.19","ST CATHARINES A","6137304","2022-07-15 01:00","2022","07","15","01:00","21.5","","12.6","","56","","","M","24","","8","","","M","100.74","","","","","","NA"
"-79.17","43.19","ST CATHARINES A","6137304","2022-07-15 02:00","2022","07","15","02:00","19.4","","12.8","","65","","","M","22","","12","","","M","100.82","","","","","","NA"
"-79.17","43.19","ST CATHARINES A","6137304","2022-07-15 03:00","2022","07","15","03:00","19.1","","12.6","","66","","","M","23","","14","","","M","100.83","","","","","","NA"
"-79.17","43.19","ST CATHARINES A","6137304","2022-07-15 04:00","2022","07","15","04:00","18.5","","13.3","","72","","","M","20","","4","","","M","100.84","","","","","","NA"
"-79.17","43.19","ST CATHARINES A","6137304","2022-07-15 05:00","2022","07","15","05:00","16.4","","13.3","","82","","","M","3","","5","","","M","100.89","","","","","","NA"
"-79.17","43.19","ST CATHARINES A","6137304","2022-07-15 06:00","2022","07","15","06:00","15.3","","12.9","","85","","","M","14","","4","","","M","100.90","","","","","","NA"
"-79.17","43.19","ST CATHARINES A","6137304","2022-07-15 07:00","2022","07","15","07:00","14.2","","13.0","","93","","","M","17","","7","","","M","100.91","","","","","","NA"
"-79.17","43.19","ST CATHARINES A","6137304","2022-07-15 08:00","2022","07","15","08:00","14.4","","13.4","","94","","","M","22","","6","","","M","100.91","","","","","","NA"
"-79.17","43.19","ST CATHARINES A","6137304","2022-07-15 09:00","2022","07","15","09:00","15.3","","14.3","","94","","","M","23","","5","","","M","100.92","","","","","","NA"
"-79.17","43.19","ST CATHARINES A","6137304","2022-07-15 10:00","2022","07","15","10:00","15.9","","14.9","","94","","","M","19","","5","","","M","100.94","","","","","","NA"
"-79.17","43.19","ST CATHARINES A","6137304","2022-07-15 11:00","2022","07","15","11:00","16.5","","15.6","","95","","","M","22","","9","","","M","100.97","","","","","","NA"
"-79.17","43.19","ST CATHARINES A","6137304","2022-07-15 12:00","2022","07","15","12:00","19.6","","14.6","","72","","","M","31","","10","","","M","101.01","","","","","","NA"
"-79.17","43.19","ST CATHARINES A","6137304","2022-07-15 13:00","2022","07","15","13:00","20.6","","14.6","","68","","","M","31","","6","","","M","101.01","","","","","","NA"
"-79.17","43.19","ST CATHARINES A","6137304","2022-07-15 14:00","2022","07","15","14:00","22.0","","15.7","","67","","","M","21","","1","","","M","100.97","","26","","","","NA"
"-79.17","43.19","ST CATHARINES A","6137304","2022-07-15 15:00","2022","07","15","15:00","23.3","","16.1","","63","","","M","33","","11","","","M","100.99","","28","","","","NA"
"-79.17","43.19","ST CATHARINES A","6137304","2022-07-15 16:00","2022","07","15","16:00","24.5","","16.1","","59","","","M","29","","12","","","M","100.97","","29","","","","NA"
"-79.17","43.19","ST CATHARINES A","6137304","2022-07-15 17:00","2022","07","15","17:00","24.8","","16.6","","60","","","M","35","","14","","","M","100.94","","30","","","","NA"
"-79.17","43.19","ST CATHARINES A","6137304","2022-07-15 18:00","2022","07","15","18:00","26.6","","15.3","","49","","","M","31","","15","","","M","100.96","","31","","","","NA"
"-79.17","43.19","ST CATHARINES A","6137304","2022-07-15 19:00","2022","07","15","19:00","26.4","","13.2","","44","","","M","34","","16","","","M","100.93","","29","","","","NA"
"-79.17","43.19","ST CATHARINES A","6137304","2022-07-15 20:00","2022","07","15","20:00","27.1","","9.3","","32","","","M","35","","13","","","M","100.85","","28","","","","NA"
"-79.17","43.19","ST CATHARINES A","6137304","2022-07-15 21:00","2022","07","15","21:00","26.9","","11.0","","36","","","M","34","","10","","","M","100.82","","29","","","","NA"
"-79.17","43.19","ST CATHARINES A","6137304","2022-07-15 22:00","2022","07","15","22:00","27.5","","10.5","","34","","","M","29","","5","","","M","100.75","","29","","","","NA"
"-79.17","43.19","ST CATHARINES A","6137304","2022-07-15 23:00","2022","07","15","23:00","25.8","","12.1","","42","","","M","23","","7","","","M","100.71","","28","","","","NA"
"-79.17","43.19","ST CATHARINES A","6137304","2022-07-16 00:00","2022","07","16","00:00","24.1","","11.8","","46","","","M","22","","14","","","M","100.72","","26","","","","NA"
"-79.17","43.19","ST CATHARINES A","6137304","2022-07-16 01:00","2022","07","16","01:00","22.1","","12.4","","54","","","M","22","","10","","","M","100.74","","25","","","","NA"
"-79.17","43.19","ST CATHARINES A","6137304","2022-07-16 02:00","2022","07","16","02:00","21.0","","12.5","","58","","","M","22","","10","","","M","100.77","","","","","","NA"
"-79.17","43.19","ST CATHARINES A","6137304","2022-07-16 03:00","2022","07","16","03:00","20.5","","12.5","","60","","","M","18","","9","","","M","100.77","","","","","","NA"
"-79.17","43.19","ST CATHARINES A","6137304","2022-07-16 04:00","2022","07","16","04:00","18.7","","13.7","","72","","","M","11","","8","","","M","100.74","","","","","","NA"
"-79.17","43.19","ST CATHARINES A","6137304","2022-07-16 05:00","2022","07","16","05:00","19.2","","12.8","","66","","","M","14","","6","","","M","100.72","","","","","","NA"
"-79.17","43.19","ST CATHARINES A","6137304","2022-07-16 06:00","2022","07","16","06:00","19.0","","13.0","","68","","","M","18","","9","","","M","100.73","","","","","","NA"
"-79.17","43.19","ST CATHARINES A","6137304","2022-07-16 07:00","2022","07","16","07:00","18.9","","13.2","","69","","","M","16","","6","","","M","100.71","","","","","","NA"
"-79.17","43.19","ST CATHARINES A","6137304","2022-07-16 08:00","2022","07","16","08:00","17.9","","15.0","","83","","","M","18","","7","","","M","100.68","","","","","","NA"
"-79.17","43.19","ST CATHARINES A","6137304","2022-07-16 09:00","2022","07","16","09:00","17.6","","15.6","","88","","","M","20","","9","","","M","100.66","","","","","","NA"
"-79.17","43.19","ST CATHARINES A","6137304","2022-07-16 10:00","2022","07","16","10:00","17.8","","15.3","","85","","","M","14","","1","","","M","100.66","","","","","","NA"
"-79.17","43.19","ST CATHARINES A","6137304","2022-07-16 11:00","2022","07","16","11:00","16.9","","15.9","","94","","","M","21","","3","","","M","100.69","","","","","","NA"
"-79.17","43.19","ST CATHARINES A","6137304","2022-07-16 12:00","2022","07","16","12:00","21.5","","17.3","","77","","","M","28","","5","","","M","100.69","","27","","","","NA"
"-79.17","43.19","ST CATHARINES A","6137304","2022-07-16 13:00","2022","07","16","13:00","24.0","","14.9","","56","","","M","28","","4","","","M","100.64","","28","","","","NA"
"-79.17","43.19","ST CATHARINES A","6137304","2022-07-16 14:00","2022","07","16","14:00","25.8","","14.2","","48","","","M","20","","3","","","M","100.61","","29","","","","NA"
"-79.17","43.19","ST CATHARINES A","6137304","2022-07-16 15:00","2022","07","16","15:00","26.1","","14.8","","49","","","M","2","","4","","","M","100.58","","30","","","","NA"
"-79.17","43.19","ST CATHARINES A","6137304","2022-07-16 16:00","2022","07","16","16:00","27.1","","17.0","","54","","","M","32","","15","","","M","100.57","","32","","","","NA"
"-79.17","43.19","ST CATHARINES A","6137304","2022-07-16 17:00","2022","07","16","17:00","27.2","","15.3","","48","","","M","34","","16","","","M","100.56","","31","","","","NA"
"-79.17","43.19","ST CATHARINES A","6137304","2022-07-16 18:00","2022","07","16","18:00","27.5","","12.2","","38","","","M","2","","18","","","M","100.50","","30","","","","NA"
"-79.17","43.19","ST CATHARINES A","6137304","2022-07-16 19:00","2022","07","16","19:00","28.1","","13.0","","39","","","M","1","","19","","","M","100.48","","31","","","","NA"
"-79.17","43.19","ST CATHARINES A","6137304","2022-07-16 20:00","2022","07","16","20:00","28.4","","13.5","","39","","","M","4","","19","","","M","100.42","","31","","","","NA"
"-79.17","43.19","ST CATHARINES A","6137304","2022-07-16 21:00","2022","07","16","21:00","28.0","","13.0","","39","","","M","5","","17","","","M","100.39","","31","","","","NA"
"-79.17","43.19","ST CATHARINES A","6137304","2022-07-16 22:00","2022","07","16","22:00","28.0","","11.6","","35","","","M","4","","13","","","M","100.34","","30","","","","NA"
"-79.17","43.19","ST CATHARINES A","6137304","2022-07-16 23:00","2022","07","16","23:00","27.5","","11.6","","37","","","M","7","","11","","","M","100.32","","30","","","","NA"
"-79.17","43.19","ST CATHARINES A","6137304","2022-07-17 00:00","2022","07","17","00:00","25.8","","12.2","","42","","","M","10","","11","","","M","100.33","","28","","","","NA"
"-79.17","43.19","ST CATHARINES A","6137304","2022-07-17 01:00","2022","07","17","01:00","23.4","","12.8","","51","","","M","13","","7","","","M","100.33","","26","","","","NA"
"-79.17","43.19","ST CATHARINES A","6137304","2022-07-17 02:00","2022","07","17","02:00","21.5","","12.9","","58","","","M","17","","4","","","M","100.36","","","","","","NA"
"-79.17","43.19","ST CATHARINES A","6137304","2022-07-17 03:00","2022","07","17","03:00","20.9","","12.7","","59","","","M","21","","5","","","M","100.37","","","","","","NA"
"-79.17","43.19","ST CATHARINES A","6137304","2022-07-17 04:00","2022","07","17","04:00","19.1","","13.0","","67","","","M","20","","4","","","M","100.38","","","","","","NA"
"-79.17","43.19","ST CATHARINES A","6137304","2022-07-17 05:00","2022","07","17","05:00","19.5","","12.8","","65","","","M","19","","7","","","M","100.38","","","","","","NA"
"-79.17","43.19","ST CATHARINES A","6137304","2022-07-17 06:00","2022","07","17","06:00","19.7","","15.0","","74","","","M","19","","10","","","M","100.35","","","","","","NA"
"-79.17","43.19","ST CATHARINES A","6137304","2022-07-17 07:00","2022","07","17","07:00","19.7","","16.5","","82","","","M","20","","11","","","M","100.31","","","","","","NA"
"-79.17","43.19","ST CATHARINES A","6137304","2022-07-17 08:00","2022","07","17","08:00","18.8","","15.8","","83","","","M","36","","6","","","M","100.32","","","","","","NA"
"-79.17","43.19","ST CATHARINES A","6137304","2022-07-17 09:00","2022","07","17","09:00","18.7","","15.6","","82","","","M","27","","4","","","M","100.33","","","","","","NA"
"-79.17","43.19","ST CATHARINES A","6137304","2022-07-17 10:00","2022","07","17","10:00","18.5","","16.4","","87","","","M","16","","7","","","M","100.34","","","","","","NA"
"-79.17","43.19","ST CATHARINES A","6137304","2022-07-17 11:00","2022","07","17","11:00","19.0","","16.8","","87","","","M","19","","2","","","M","100.38","","","","","","NA"
"-79.17","43.19","ST CATHARINES A","6137304","2022-07-17 12:00","2022","07","17","12:00","22.5","","17.5","","73","","","M","9","","5","","","M","100.37","","28","","","","NA"
"-79.17","43.19","ST CATHARINES A","6137304","2022-07-17 13:00","2022","07","17","13:00","25.0","","16.1","","57","","","M","12","","10","","","M","100.34","","30","","","","NA"
"-79.17","43.19","ST CATHARINES A","6137304","2022-07-17 14:00","2022","07","17","14:00","26.5","","15.6","","51","","","M","10","","7","","","M","100.27","","31","","","","NA"
"-79.17","43.19","ST CATHARINES A","6137304","2022-07-17 15:00","2022","07","17","15:00","28.1","","15.1","","45","","","M","6","","10","","","M","100.26","","32","","","","NA"
"-79.17","43.19","ST CATHARINES A","6137304","2022-07-17 16:00","2022","07","17","16:00","28.4","","14.8","","43","","","M","4","","19","","","M","100.26","","32","","","","NA"
"-79.17","43.19","ST CATHARINES A","6137304","2022-07-17 17:00","2022","07","17","17:00","27.3","","14.9","","46","","","M","5","","17","","","M","100.26","","31","","","","NA"
"-79.17","43.19","ST CATHARINES A","6137304","2022-07-17 18:00","2022","07","17","18:00","28.4","","14.6","","42","","","M","3","","13","","","M","100.22","","32","","","","NA"
"-79.17","43.19","ST CATHARINES A","6137304","2022-07-17 19:00","2022","07","17","19:00","27.5","","15.1","","46","","","M","5","","17","","","M","100.18","","32","","","","NA"
"-79.17","43.19","ST CATHARINES A","6137304","2022-07-17 20:00","2022","07","17","20:00","28.9","","15.4","","43","","","M","5","","16","","","M","100.16","","33","","","","NA"
"-79.17","43.19","ST CATHARINES A","6137304","2022-07-17 21:00","2022","07","17","21:00","27.1","","16.8","","53","","","M","3","","12","","","M","100.13","","32","","","","NA"
"-79.17","43.19","ST CATHARINES A","6137304","2022-07-17 22:00","2022","07","17","22:00","24.1","","19.4","","75","","","M","3","","10","","","M","100.10","","31","","","","NA"
"-79.17","43.19","ST CATHARINES A","6137304","2022-07-17 23:00","2022","07","17","23:00","25.7","","19.3","","67","","","M","17","","8","","","M","100.09","","33","","","","NA"
"-79.17","43.19","ST CATHARINES A","6137304","2022-07-18 00:00","2022","07","18","00:00","24.2","","20.7","","81","","","M","17","","17","","","M","100.03","","32","","","","NA"
"-79.17","43.19","ST CATHARINES A","6137304","2022-07-18 01:00","2022","07","18","01:00","22.9","","20.0","","84","","","M","18","","22","","","M","100.02","","30","","","","NA"
"-79.17","43.19","ST CATHARINES A","6137304","2022-07-18 02:00","2022","07","18","02:00","23.0","","19.7","","82","","","M","19","","19","","","M","100.04","","30","","","","NA"
"-79.17","43.19","ST CATHARINES A","6137304","2022-07-18 03:00","2022","07","18","03:00","23.2","","19.5","","79","","","M","19","","30","","","M","100.10","","30","","","","NA"
"-79.17","43.19","ST CATHARINES A","6137304","2022-07-18 04:00","2022","07","18","04:00","20.7","","20.0","","96","","","M","16","","9","","","M","100.13","","28","","","","NA"
"-79.17","43.19","ST CATHARINES A","6137304","2022-07-18 05:00","2022","07","18","05:00","20.4","","20.1","","98","","","M","10","","8","","","M","100.05","","28","","","","NA"
"-79.17","43.19","ST CATHARINES A","6137304","2022-07-18 06:00","2022","07","18","06:00","20.3","","19.7","","96","","","M","15","","10","","","M","99.98","","28","","","","NA"
"-79.17","43.19","ST CATHARINES A","6137304","2022-07-18 07:00","2022","07","18","07:00","19.9","","19.5","","97","","","M","9","","13","","","M","99.82","","","","","","NA"
"-79.17","43.19","ST CATHARINES A","6137304","2022-07-18 08:00","2022","07","18","08:00","19.9","","19.6","","98","","","M","9","","11","","","M","99.72","","","","","","NA"
"-79.17","43.19","ST CATHARINES A","6137304","2022-07-18 09:00","2022","07","18","09:00","20.1","","19.7","","98","","","M","11","","13","","","M","99.63","","27","","","","NA"
"-79.17","43.19","ST CATHARINES A","6137304","2022-07-18 10:00","2022","07","18","10:00","20.4","","20.1","","98","","","M","14","","14","","","M","99.56","","28","","","","NA"
"-79.17","43.19","ST CATHARINES A","6137304","2022-07-18 11:00","2022","07","18","11:00","20.9","","20.5","","98","","","M","16","","10","","","M","99.49","","29","","","","NA"
"-79.17","43.19","ST CATHARINES A","6137304","2022-07-18 12:00","2022","07","18","12:00","21.2","","20.8","","97","","","M","16","","5","","","M","99.47","","29","","","","NA"
"-79.17","43.19","ST CATHARINES A","6137304","2022-07-18 13:00","2022","07","18","13:00","22.0","","21.4","","97","","","M","19","","13","","","M","99.44","","31","","","","NA"
"-79.17","43.19","ST CATHARINES A","6137304","2022-07-18 14:00","2022","07","18","14:00","23.1","","22.1","","94","","","M","22","","20","","","M","99.40","","33","","","","NA"
"-79.17","43.19","ST CATHARINES A","6137304","2022-07-18 15:00","2022","07","18","15:00","21.2","","20.8","","97","","","M","28","","19","","","M","99.44","","29","","","","NA"
"-79.17","43.19","ST CATHARINES A","6137304","2022-07-18 16:00","2022","07","18","16:00","21.3","","20.9","","98","","","M","28","","16","","","M","99.46","","30","","","","NA"
"-79.17","43.19","ST CATHARINES A","6137304","2022-07-18 17:00","2022","07","18","17:00","21.6","","21.1","","97","","","M","28","","13","","","M","99.46","","30","","","","NA"
"-79.17","43.19","ST CATHARINES A","6137304","2022-07-18 18:00","2022","07","18","18:00","23.1","","21.0","","88","","","M","29","","18","","","M","99.42","","32","","","","NA"
"-79.17","43.19","ST CATHARINES A","6137304","2022-07-18 19:00","2022","07","18","19:00","24.9","","21.2","","79","","","M","27","","19","","","M","99.44","","33","","","","NA"
"-79.17","43.19","ST CATHARINES A","6137304","2022-07-18 20:00","2022","07","18","20:00","25.8","","20.4","","72","","","M","28","","18","","","M","99.45","","34","","","","NA"
"-79.17","43.19","ST CATHARINES A","6137304","2022-07-18 21:00","2022","07","18","21:00","25.7","","20.2","","71","","","M","31","","11","","","M","99.45","","33","","","","NA"
"-79.17","43.19","ST CATHARINES A","6137304","2022-07-18 22:00","2022","07","18","22:00","26.5","","19.9","","67","","","M","33","","11","","","M","99.45","","34","","","","NA"
"-79.17","43.19","ST CATHARINES A","6137304","2022-07-18 23:00","2022","07","18","23:00","26.2","","19.4","","66","","","M","33","","4","","","M","99.48","","33","","","","NA"
"-79.17","43.19","ST CATHARINES A","6137304","2022-07-19 00:00","2022","07","19","00:00","25.6","","19.5","","69","","","M","8","","3","","","M","99.50","","33","","","","NA"
"-79.17","43.19","ST CATHARINES A","6137304","2022-07-19 01:00","2022","07","19","01:00","24.6","","20.2","","76","","","M","19","","4","","","M","99.54","","32","","","","NA"
"-79.17","43.19","ST CATHARINES A","6137304","2022-07-19 02:00","2022","07","19","02:00","24.1","","21.4","","85","","","M","22","","12","","","M","99.57","","33","","","","NA"
"-79.17","43.19","ST CATHARINES A","6137304","2022-07-19 03:00","2022","07","19","03:00","23.8","","19.2","","75","","","M","26","","14","","","M","99.60","","31","","","","NA"
"-79.17","43.19","ST CATHARINES A","6137304","2022-07-19 04:00","2022","07","19","04:00","22.5","","17.7","","74","","","M","25","","14","","","M","99.61","","28","","","","NA"
"-79.17","43.19","ST CATHARINES A","6137304","2022-07-19 05:00","2022","07","19","05:00","20.4","","17.1","","81","","","M","23","","12","","","M","99.62","","26","","","","NA"
"-79.17","43.19","ST CATHARINES A","6137304","2022-07-19 06:00","2022","07","19","06:00","20.5","","16.5","","77","","","M","23","","14","","","M","99.61","","25","","","","NA"
"-79.17","43.19","ST CATHARINES A","6137304","2022-07-19 07:00","2022","07","19","07:00","20.3","","16.4","","78","","","M","23","","14","","","M","99.63","","25","","","","NA"
"-79.17","43.19","ST CATHARINES A","6137304","2022-07-19 08:00","2022","07","19","08:00","20.6","","17.3","","81","","","M","22","","12","","","M","99.63","","26","","","","NA"
"-79.17","43.19","ST CATHARINES A","6137304","2022-07-19 09:00","2022","07","19","09:00","22.1","","19.5","","85","","","M","23","","21","","","M","99.60","","29","","","","NA"
"-79.17","43.19","ST CATHARINES A","6137304","2022-07-19 10:00","2022","07","19","10:00","21.8","","19.1","","85","","","M","23","","14","","","M","99.61","","29","","","","NA"
"-79.17","43.19","ST CATHARINES A","6137304","2022-07-19 11:00","2022","07","19","11:00","22.6","","18.8","","79","","","M","24","","15","","","M","99.65","","29","","","","NA"
"-79.17","43.19","ST CATHARINES A","6137304","2022-07-19 12:00","2022","07","19","12:00","24.5","","19.1","","71","","","M","26","","16","","","M","99.69","","31","","","","NA"
"-79.17","43.19","ST CATHARINES A","6137304","2022-07-19 13:00","2022","07","19","13:00","26.1","","20.0","","69","","","M","26","","14","","","M","99.71","","34","","","","NA"
"-79.17","43.19","ST CATHARINES A","6137304","2022-07-19 14:00","2022","07","19","14:00","28.3","","20.4","","62","","","M","24","","19","","","M","99.67","","36","","","","NA"
"-79.17","43.19","ST CATHARINES A","6137304","2022-07-19 15:00","2022","07","19","15:00","29.7","","21.1","","59","","","M","24","","23","","","M","99.67","","38","","","","NA"
"-79.17","43.19","ST CATHARINES A","6137304","2022-07-19 16:00","2022","07","19","16:00","30.7","","21.9","","59","","","M","23","","21","","","M","99.64","","40","","","","NA"
"-79.17","43.19","ST CATHARINES A","6137304","2022-07-19 17:00","2022","07","19","17:00","31.1","","22.6","","60","","","M","22","","24","","","M","99.65","","41","","","","NA"
"-79.17","43.19","ST CATHARINES A","6137304","2022-07-19 18:00","2022","07","19","18:00","31.9","","22.9","","59","","","M","21","","26","","","M","99.61","","42","","","","NA"
"-79.17","43.19","ST CATHARINES A","6137304","2022-07-19 19:00","2022","07","19","19:00","32.3","","23.8","","60","","","M","20","","23","","","M","99.61","","43","","","","NA"
"-79.17","43.19","ST CATHARINES A","6137304","2022-07-19 20:00","2022","07","19","20:00","31.2","","23.6","","63","","","M","22","","21","","","M","99.58","","42","","","","NA"
"-79.17","43.19","ST CATHARINES A","6137304","2022-07-19 21:00","2022","07","19","21:00","31.4","","23.7","","63","","","M","23","","27","","","M","99.52","","42","","","","NA"
"-79.17","43.19","ST CATHARINES A","6137304","2022-07-19 22:00","2022","07","19","22:00","30.8","","23.2","","64","","","M","23","","29","","","M","99.51","","41","","","","NA"
"-79.17","43.19","ST CATHARINES A","6137304","2022-07-19 23:00","2022","07","19","23:00","29.9","","22.9","","66","","","M","21","","28","","","M","99.54","","40","","","","NA"
"-79.17","43.19","ST CATHARINES A","6137304","2022-07-20 00:00","2022","07","20","00:00","28.7","","22.9","","71","","","M","23","","18","","","M","99.56","","39","","","","NA"
"-79.17","43.19","ST CATHARINES A","6137304","2022-07-20 01:00","2022","07","20","01:00","27.6","","22.1","","72","","","M","23","","19","","","M","99.58","","37","","","","NA"
"-79.17","43.19","ST CATHARINES A","6137304","2022-07-20 02:00","2022","07","20","02:00","27.0","","21.8","","73","","","M","24","","20","","","M","99.67","","36","","","","NA"
"-79.17","43.19","ST CATHARINES A","6137304","2022-07-20 03:00","2022","07","20","03:00","26.6","","20.3","","68","","","M","24","","21","","","M","99.64","","34","","","","NA"
"-79.17","43.19","ST CATHARINES A","6137304","2022-07-20 04:00","2022","07","20","04:00","25.9","","20.2","","71","","","M","24","","17","","","M","99.63","","34","","","","NA"
"-79.17","43.19","ST CATHARINES A","6137304","2022-07-20 05:00","2022","07","20","05:00","24.9","","20.3","","75","","","M","22","","14","","","M","99.63","","33","","","","NA"
"-79.17","43.19","ST CATHARINES A","6137304","2022-07-20 06:00","2022","07","20","06:00","24.6","","19.7","","74","","","M","24","","12","","","M","99.63","","32","","","","NA"
"-79.17","43.19","ST CATHARINES A","6137304","2022-07-20 07:00","2022","07","20","07:00","24.0","","20.2","","79","","","M","20","","12","","","M","99.62","","32","","","","NA"
"-79.17","43.19","ST CATHARINES A","6137304","2022-07-20 08:00","2022","07","20","08:00","24.1","","21.0","","82","","","M","22","","14","","","M","99.59","","33","","","","NA"
"-79.17","43.19","ST CATHARINES A","6137304","2022-07-20 09:00","2022","07","20","09:00","23.8","","21.0","","84","","","M","20","","14","","","M","99.60","","32","","","","NA"
"-79.17","43.19","ST CATHARINES A","6137304","2022-07-20 10:00","2022","07","20","10:00","24.0","","21.0","","83","","","M","22","","19","","","M","99.58","","32","","","","NA"
"-79.17","43.19","ST CATHARINES A","6137304","2022-07-20 11:00","2022","07","20","11:00","24.9","","21.1","","79","","","M","23","","13","","","M","99.58","","33","","","","NA"
"-79.17","43.19","ST CATHARINES A","6137304","2022-07-20 12:00","2022","07","20","12:00","26.4","","21.2","","73","","","M","21","","16","","","M","99.56","","35","","","","NA"
"-79.17","43.19","ST CATHARINES A","6137304","2022-07-20 13:00","2022","07","20","13:00","27.9","","20.9","","65","","","M","21","","16","","","M","99.53","","36","","","","NA"
"-79.17","43.19","ST CATHARINES A","6137304","2022-07-20 14:00","2022","07","20","14:00","29.1","","21.0","","61","","","M","21","","23","","","M","99.48","","38","","","","NA"
"-79.17","43.19","ST CATHARINES A","6137304","2022-07-20 15:00","2022","07","20","15:00","29.9","","21.6","","61","","","M","19","","34","","","M","99.43","","39","","","","NA"
"-79.17","43.19","ST CATHARINES A","6137304","2022-07-20 16:00","2022","07","20","16:00","30.8","","22.4","","60","","","M","21","","26","","","M","99.37","","40","","","","NA"
"-79.17","43.19","ST CATHARINES A","6137304","2022-07-20 17:00","2022","07","20","17:00","29.8","","21.0","","59","","","M","21","","27","","","M","99.32","","38","","","","NA"
"-79.17","43.19","ST CATHARINES A","6137304","2022-07-20 18:00","2022","07","20","18:00","31.6","","21.3","","54","","","M","21","","24","","","M","99.25","","40","","","","NA"
"-79.17","43.19","ST CATHARINES A","6137304","2022-07-20 19:00","2022","07","20","19:00","31.8","","21.1","","52","","","M","23","","33","","","M","99.15","","40","","","","NA"
"-79.17","43.19","ST CATHARINES A","6137304","2022-07-20 20:00","2022","07","20","20:00","31.6","","21.1","","53","","","M","21","","24","","","M","99.02","","40","","","","NA"
"-79.17","43.19","ST CATHARINES A","6137304","2022-07-20 21:00","2022","07","20","21:00","32.2","","21.1","","51","","","M","21","","23","","","M","98.96","","41","","","","NA"
"-79.17","43.19","ST CATHARINES A","6137304","2022-07-20 22:00","2022","07","20","22:00","30.3","","20.8","","56","","","M","21","","14","","","M","98.95","","39","","","","NA"
"-79.17","43.19","ST CATHARINES A","6137304","2022-07-20 23:00","2022","07","20","23:00","30.2","","20.1","","54","","","M","20","","26","","","M","98.83","","38","","","","NA"
"-79.17","43.19","ST CATHARINES A","6137304","2022-07-21 00:00","2022","07","21","00:00","29.6","","19.8","","55","","","M","20","","25","","","M","98.83","","37","","","","NA"
"-79.17","43.19","ST CATHARINES A","6137304","2022-07-21 01:00","2022","07","21","01:00","28.9","","19.2","","55","","","M","19","","25","","","M","98.76","","36","","","","NA"
"-79.17","43.19","ST CATHARINES A","6137304","2022-07-21 02:00","2022","07","21","02:00","26.6","","21.7","","74","","","M","21","","49","","","M","98.88","","36","","","","NA"
"-79.17","43.19","ST CATHARINES A","6137304","2022-07-21 03:00","2022","07","21","03:00","21.4","","19.6","","89","","","M","19","","27","","","M","98.89","","29","","","","NA"
"-79.17","43.19","ST CATHARINES A","6137304","2022-07-21 04:00","2022","07","21","04:00","23.1","","22.0","","93","","","M","21","","15","","","M","98.82","","32","","","","NA"
"-79.17","43.19","ST CATHARINES A","6137304","2022-07-21 05:00","2022","07","21","05:00","23.1","","22.0","","94","","","M","23","","15","","","M","98.83","","32","","","","NA"
"-79.17","43.19","ST CATHARINES A","6137304","2022-07-21 06:00","2022","07","21","06:00","23.2","","22.1","","94","","","M","22","","16","","","M","98.84","","33","","","","NA"
"-79.17","43.19","ST CATHARINES A","6137304","2022-07-21 07:00","2022","07","21","07:00","23.4","","21.4","","88","","","M","24","","13","","","M","98.84","","32","","","","NA"
"-79.17","43.19","ST CATHARINES A","6137304","2022-07-21 08:00","2022","07","21","08:00","22.7","","21.1","","91","","","M","22","","12","","","M","98.82","","31","","","","NA"
"-79.17","43.19","ST CATHARINES A","6137304","2022-07-21 09:00","2022","07","21","09:00","22.9","","20.6","","87","","","M","23","","18","","","M","98.80","","31","","","","NA"
"-79.17","43.19","ST CATHARINES A","6137304","2022-07-21 10:00","2022","07","21","10:00","22.3","","19.7","","85","","","M","25","","16","","","M","98.83","","30","","","","NA"
"-79.17","43.19","ST CATHARINES A","6137304","2022-07-21 11:00","2022","07","21","11:00","22.6","","19.8","","84","","","M","22","","16","","","M","98.91","","30","","","","NA"
"-79.17","43.19","ST CATHARINES A","6137304","2022-07-21 12:00","2022","07","21","12:00","24.1","","20.8","","81","","","M","23","","21","","","M","98.96","","32","","","","NA"
"-79.17","43.19","ST CATHARINES A","6137304","2022-07-21 13:00","2022","07","21","13:00","25.6","","20.2","","71","","","M","24","","23","","","M","98.98","","33","","","","NA"
"-79.17","43.19","ST CATHARINES A","6137304","2022-07-21 14:00","2022","07","21","14:00","26.5","","20.4","","69","","","M","25","","29","","","M","99.00","","34","","","","NA"
"-79.17","43.19","ST CATHARINES A","6137304","2022-07-21 15:00","2022","07","21","15:00","26.4","","19.8","","66","","","M","28","","25","","","M","99.05","","34","","","","NA"
"-79.17","43.19","ST CATHARINES A","6137304","2022-07-21 16:00","2022","07","21","16:00","27.7","","18.8","","58","","","M","26","","32","","","M","99.11","","34","","","","NA"
"-79.17","43.19","ST CATHARINES A","6137304","2022-07-21 17:00","2022","07","21","17:00","28.5","","19.0","","56","","","M","26","","33","","","M","99.12","","35","","","","NA"
"-79.17","43.19","ST CATHARINES A","6137304","2022-07-21 18:00","2022","07","21","18:00","28.1","","19.2","","58","","","M","24","","32","","","M","99.16","","35","","","","NA"
"-79.17","43.19","ST CATHARINES A","6137304","2022-07-21 19:00","2022","07","21","19:00","30.4","","18.4","","48","","","M","27","","34","","","M","99.16","","37","","","","NA"
"-79.17","43.19","ST CATHARINES A","6137304","2022-07-21 20:00","2022","07","21","20:00","30.6","","16.5","","42","","","M","25","","34","","","M","99.19","","36","","","","NA"
"-79.17","43.19","ST CATHARINES A","6137304","2022-07-21 21:00","2022","07","21","21:00","30.6","","16.2","","41","","","M","26","","31","","","M","99.21","","35","","","","NA"
"-79.17","43.19","ST CATHARINES A","6137304","2022-07-21 22:00","2022","07","21","22:00","29.9","","16.0","","42","","","M","27","","28","","","M","99.26","","35","","","","NA"
"-79.17","43.19","ST CATHARINES A","6137304","2022-07-21 23:00","2022","07","21","23:00","29.5","","15.8","","43","","","M","25","","26","","","M","99.31","","34","","","","NA"
"-79.17","43.19","ST CATHARINES A","6137304","2022-07-22 00:00","2022","07","22","00:00","28.0","","16.8","","50","","","M","26","","14","","","M","99.37","","33","","","","NA"
"-79.17","43.19","ST CATHARINES A","6137304","2022-07-22 01:00","2022","07","22","01:00","25.5","","20.7","","74","","","M","23","","17","","","M","99.42","","34","","","","NA"
"-79.17","43.19","ST CATHARINES A","6137304","2022-07-22 02:00","2022","07","22","02:00","23.6","","19.7","","78","","","M","21","","12","","","M","99.48","","31","","","","NA"
"-79.17","43.19","ST CATHARINES A","6137304","2022-07-22 03:00","2022","07","22","03:00","23.6","","19.8","","79","","","M","20","","13","","","M","99.49","","31","","","","NA"
"-79.17","43.19","ST CATHARINES A","6137304","2022-07-22 04:00","2022","07","22","04:00","22.1","","19.3","","84","","","M","20","","13","","","M","99.43","","29","","","","NA"
"-79.17","43.19","ST CATHARINES A","6137304","2022-07-22 05:00","2022","07","22","05:00","22.8","","20.0","","84","","","M","21","","15","","","M","99.50","","30","","","","NA"
"-79.17","43.19","ST CATHARINES A","6137304","2022-07-22 06:00","2022","07","22","06:00","22.3","","20.1","","87","","","M","26","","10","","","M","99.56","","30","","","","NA"
"-79.17","43.19","ST CATHARINES A","6137304","2022-07-22 07:00","2022","07","22","07:00","21.5","","19.8","","90","","","M","23","","7","","","M","99.62","","29","","","","NA"
"-79.17","43.19","ST CATHARINES A","6137304","2022-07-22 08:00","2022","07","22","08:00","19.5","","18.9","","96","","","M","21","","8","","","M","99.64","","","","","","NA"
"-79.17","43.19","ST CATHARINES A","6137304","2022-07-22 09:00","2022","07","22","09:00","19.0","","18.4","","96","","","M","29","","4","","","M","99.67","","","","","","NA"
"-79.17","43.19","ST CATHARINES A","6137304","2022-07-22 10:00","2022","07","22","10:00","18.6","","17.7","","94","","","M","21","","7","","","M","99.76","","","","","","NA"
"-79.17","43.19","ST CATHARINES A","6137304","2022-07-22 11:00","2022","07","22","11:00","20.5","","19.5","","94","","","M","19","","9","","","M","99.83","","28","","","","NA"
"-79.17","43.19","ST CATHARINES A","6137304","2022-07-22 12:00","2022","07","22","12:00","22.9","","19.5","","81","","","M","23","","6","","","M","99.87","","30","","","","NA"
"-79.17","43.19","ST CATHARINES A","6137304","2022-07-22 13:00","2022","07","22","13:00","25.1","","18.8","","68","","","M","20","","7","","","M","99.87","","32","","","","NA"
"-79.17","43.19","ST CATHARINES A","6137304","2022-07-22 14:00","2022","07","22","14:00","26.9","","18.8","","61","","","M","21","","11","","","M","99.88","","34","","","","NA"
"-79.17","43.19","ST CATHARINES A","6137304","2022-07-22 15:00","2022","07","22","15:00","27.8","","17.4","","53","","","M","24","","13","","","M","99.94","","33","","","","NA"
"-79.17","43.19","ST CATHARINES A","6137304","2022-07-22 16:00","2022","07","22","16:00","28.9","","20.5","","60","","","M","20","","12","","","M","99.94","","37","","","","NA"
"-79.17","43.19","ST CATHARINES A","6137304","2022-07-22 17:00","2022","07","22","17:00","29.1","","19.2","","54","","","M","24","","16","","","M","99.93","","36","","","","NA"
"-79.17","43.19","ST CATHARINES A","6137304","2022-07-22 18:00","2022","07","22","18:00","30.6","","19.6","","51","","","M","18","","9","","","M","99.90","","38","","","","NA"
"-79.17","43.19","ST CATHARINES A","6137304","2022-07-22 19:00","2022","07","22","19:00","31.1","","18.1","","45","","","M","21","","26","","","M","99.88","","37","","","","NA"
"-79.17","43.19","ST CATHARINES A","6137304","2022-07-22 20:00","2022","07","22","20:00","30.7","","17.3","","44","","","M","21","","28","","","M","99.91","","36","","","","NA"
"-79.17","43.19","ST CATHARINES A","6137304","2022-07-22 21:00","2022","07","22","21:00","30.0","","20.8","","57","","","M","21","","26","","","M","99.90","","38","","","","NA"
"-79.17","43.19","ST CATHARINES A","6137304","2022-07-22 22:00","2022","07","22","22:00","29.5","","20.3","","57","","","M","23","","25","","","M","99.91","","37","","","","NA"
"-79.17","43.19","ST CATHARINES A","6137304","2022-07-22 23:00","2022","07","22","23:00","28.8","","20.4","","60","","","M","22","","23","","","M","99.94","","37","","","","NA"
"-79.17","43.19","ST CATHARINES A","6137304","2022-07-23 00:00","2022","07","23","00:00","27.4","","20.3","","64","","","M","22","","25","","","M","99.97","","35","","","","NA"
"-79.17","43.19","ST CATHARINES A","6137304","2022-07-23 01:00","2022","07","23","01:00","25.4","","20.0","","72","","","M","22","","15","","","M","99.99","","33","","","","NA"
"-79.17","43.19","ST CATHARINES A","6137304","2022-07-23 02:00","2022","07","23","02:00","24.1","","19.8","","76","","","M","22","","13","","","M","100.09","","32","","","","NA"
"-79.17","43.19","ST CATHARINES A","6137304","2022-07-23 03:00","2022","07","23","03:00","23.9","","18.8","","73","","","M","23","","12","","","M","100.14","","31","","","","NA"
"-79.17","43.19","ST CATHARINES A","6137304","2022-07-23 04:00","2022","07","23","04:00","21.4","","19.0","","86","","","M","18","","14","","","M","100.15","","28","","","","NA"
"-79.17","43.19","ST CATHARINES A","6137304","2022-07-23 05:00","2022","07","23","05:00","22.2","","20.4","","90","","","M","20","","13","","","M","100.16","","30","","","","NA"
"-79.17","43.19","ST CATHARINES A","6137304","2022-07-23 06:00","2022","07","23","06:00","22.0","","20.4","","90","","","M","20","","14","","","M","100.17","","30","","","","NA"
"-79.17","43.19","ST CATHARINES A","6137304","2022-07-23 07:00","2022","07","23","07:00","22.2","","19.7","","85","","","M","22","","15","","","M","100.16","","30","","","","NA"
"-79.17","43.19","ST CATHARINES A","6137304","2022-07-23 08:00","2022","07","23","08:00","21.6","","19.2","","86","","","M","20","","13","","","M","100.19","","29","","","","NA"
"-79.17","43.19","ST CATHARINES A","6137304","2022-07-23 09:00","2022","07","23","09:00","20.6","","18.8","","89","","","M","19","","13","","","M","100.16","","27","","","","NA"
"-79.17","43.19","ST CATHARINES A","6137304","2022-07-23 10:00","2022","07","23","10:00","20.8","","19.6","","93","","","M","20","","10","","","M","100.23","","28","","","","NA"
"-79.17","43.19","ST CATHARINES A","6137304","2022-07-23 11:00","2022","07","23","11:00","22.7","","20.9","","89","","","M","19","","12","","","M","100.25","","31","","","","NA"
"-79.17","43.19","ST CATHARINES A","6137304","2022-07-23 12:00","2022","07","23","12:00","25.3","","21.1","","77","","","M","19","","13","","","M","100.27","","34","","","","NA"
"-79.17","43.19","ST CATHARINES A","6137304","2022-07-23 13:00","2022","07","23","13:00","26.6","","21.6","","74","","","M","21","","25","","","M","100.29","","36","","","","NA"
"-79.17","43.19","ST CATHARINES A","6137304","2022-07-23 14:00","2022","07","23","14:00","28.3","","21.0","","64","","","M","21","","21","","","M","100.26","","37","","","","NA"
"-79.17","43.19","ST CATHARINES A","6137304","2022-07-23 15:00","2022","07","23","15:00","26.9","","20.7","","68","","","M","19","","23","","","M","100.22","","35","","","","NA"
"-79.17","43.19","ST CATHARINES A","6137304","2022-07-23 16:00","2022","07","23","16:00","27.5","","20.0","","63","","","M","19","","23","","","M","100.20","","35","","","","NA"
"-79.17","43.19","ST CATHARINES A","6137304","2022-07-23 17:00","2022","07","23","17:00","28.7","","19.8","","58","","","M","23","","20","","","M","100.20","","36","","","","NA"
"-79.17","43.19","ST CATHARINES A","6137304","2022-07-23 18:00","2022","07","23","18:00","30.0","","18.3","","49","","","M","22","","32","","","M","100.19","","36","","","","NA"
"-79.17","43.19","ST CATHARINES A","6137304","2022-07-23 19:00","2022","07","23","19:00","29.9","","19.0","","51","","","M","21","","32","","","M","100.18","","37","","","","NA"
"-79.17","43.19","ST CATHARINES A","6137304","2022-07-23 20:00","2022","07","23","20:00","29.3","","20.9","","60","","","M","22","","30","","","M","100.19","","38","","","","NA"
"-79.17","43.19","ST CATHARINES A","6137304","2022-07-23 21:00","2022","07","23","21:00","28.0","","20.6","","64","","","M","23","","34","","","M","100.20","","36","","","","NA"
"-79.17","43.19","ST CATHARINES A","6137304","2022-07-23 22:00","2022","07","23","22:00","27.9","","21.0","","65","","","M","21","","26","","","M","100.12","","36","","","","NA"
"-79.17","43.19","ST CATHARINES A","6137304","2022-07-23 23:00","2022","07","23","23:00","27.8","","20.7","","65","","","M","23","","21","","","M","100.13","","36","","","","NA"
"-79.17","43.19","ST CATHARINES A","6137304","2022-07-24 00:00","2022","07","24","00:00","27.1","","17.0","","54","","","M","23","","21","","","M","100.11","","32","","","","NA"
"-79.17","43.19","ST CATHARINES A","6137304","2022-07-24 01:00","2022","07","24","01:00","25.9","","17.4","","59","","","M","22","","20","","","M","100.19","","31","","","","NA"
"-79.17","43.19","ST CATHARINES A","6137304","2022-07-24 02:00","2022","07","24","02:00","25.2","","17.6","","62","","","M","22","","22","","","M","100.24","","31","","","","NA"
"-79.17","43.19","ST CATHARINES A","6137304","2022-07-24 03:00","2022","07","24","03:00","24.8","","16.6","","60","","","M","22","","23","","","M","100.24","","30","","","","NA"
"-79.17","43.19","ST CATHARINES A","6137304","2022-07-24 04:00","2022","07","24","04:00","23.9","","17.0","","65","","","M","22","","20","","","M","100.23","","29","","","","NA"
"-79.17","43.19","ST CATHARINES A","6137304","2022-07-24 05:00","2022","07","24","05:00","23.6","","17.7","","69","","","M","21","","22","","","M","100.22","","29","","","","NA"
"-79.17","43.19","ST CATHARINES A","6137304","2022-07-24 06:00","2022","07","24","06:00","22.9","","18.5","","76","","","M","21","","16","","","M","100.19","","29","","","","NA"
"-79.17","43.19","ST CATHARINES A","6137304","2022-07-24 07:00","2022","07","24","07:00","22.0","","19.2","","84","","","M","21","","13","","","M","100.05","","29","","","","NA"
"-79.17","43.19","ST CATHARINES A","6137304","2022-07-24 08:00","2022","07","24","08:00","22.5","","19.7","","84","","","M","21","","22","","","M","100.02","","30","","","","NA"
"-79.17","43.19","ST CATHARINES A","6137304","2022-07-24 09:00","2022","07","24","09:00","22.2","","19.9","","87","","","M","21","","15","","","M","100.01","","30","","","","NA"
"-79.17","43.19","ST CATHARINES A","6137304","2022-07-24 10:00","2022","07","24","10:00","22.4","","20.4","","88","","","M","19","","13","","","M","100.02","","30","","","","NA"
"-79.17","43.19","ST CATHARINES A","6137304","2022-07-24 11:00","2022","07","24","11:00","23.6","","20.9","","85","","","M","20","","20","","","M","100.06","","32","","","","NA"
"-79.17","43.19","ST CATHARINES A","6137304","2022-07-24 12:00","2022","07","24","12:00","24.4","","21.4","","83","","","M","23","","15","","","M","100.08","","33","","","","NA"
"-79.17","43.19","ST CATHARINES A","6137304","2022-07-24 13:00","2022","07","24","13:00","24.7","","21.5","","82","","","M","23","","17","","","M","100.11","","34","","","","NA"
"-79.17","43.19","ST CATHARINES A","6137304","2022-07-24 14:00","2022","07","24","14:00","23.2","","21.3","","89","","","M","20","","23","","","M","99.94","","32","","","","NA"
"-79.17","43.19","ST CATHARINES A","6137304","2022-07-24 15:00","2022","07","24","15:00","23.4","","21.6","","90","","","M","22","","18","","","M","99.97","","32","","","","NA"
"-79.17","43.19","ST CATHARINES A","6137304","2022-07-24 16:00","2022","07","24","16:00","25.6","","21.6","","78","","","M","23","","21","","","M","99.97","","35","","","","NA"
"-79.17","43.19","ST CATHARINES A","6137304","2022-07-24 17:00","2022","07","24","17:00","26.0","","21.5","","76","","","M","20","","29","","","M","99.91","","35","","","","NA"
"-79.17","43.19","ST CATHARINES A","6137304","2022-07-24 18:00","2022","07","24","18:00","26.5","","21.6","","74","","","M","22","","34","","","M","99.84","","35","","","","NA"
"-79.17","43.19","ST CATHARINES A","6137304","2022-07-24 19:00","2022","07","24","19:00","29.3","","22.4","","66","","","M","23","","36","","","M","99.77","","39","","","","NA"
"-79.17","43.19","ST CATHARINES A","6137304","2022-07-24 20:00","2022","07","24","20:00","29.2","","22.1","","65","","","M","22","","28","","","M","99.71","","39","","","","NA"
"-79.17","43.19","ST CATHARINES A","6137304","2022-07-24 21:00","2022","07","24","21:00","28.2","","22.1","","69","","","M","23","","24","","","M","99.70","","38","","","","NA"
"-79.17","43.19","ST CATHARINES A","6137304","2022-07-24 22:00","2022","07","24","22:00","30.2","","21.1","","58","","","M","24","","34","","","M","99.66","","39","","","","NA"
"-79.17","43.19","ST CATHARINES A","6137304","2022-07-24 23:00","2022","07","24","23:00","30.1","","21.9","","61","","","M","24","","32","","","M","99.53","","39","","","","NA"
"-79.17","43.19","ST CATHARINES A","6137304","2022-07-25 00:00","2022","07","25","00:00","28.9","","21.7","","64","","","M","23","","39","","","M","99.52","","38","","","","NA"
"-79.17","43.19","ST CATHARINES A","6137304","2022-07-25 01:00","2022","07","25","01:00","27.5","","21.4","","69","","","M","22","","29","","","M","99.54","","36","","","","NA"
"-79.17","43.19","ST CATHARINES A","6137304","2022-07-25 02:00","2022","07","25","02:00","27.8","","21.2","","67","","","M","23","","32","","","M","99.54","","36","","","","NA"
"-79.17","43.19","ST CATHARINES A","6137304","2022-07-25 03:00","2022","07","25","03:00","27.7","","20.6","","65","","","M","24","","32","","","M","99.52","","36","","","","NA"
"-79.17","43.19","ST CATHARINES A","6137304","2022-07-25 04:00","2022","07","25","04:00","24.3","","21.0","","81","","","M","27","","15","","","M","99.56","","33","","","","NA"
"-79.17","43.19","ST CATHARINES A","6137304","2022-07-25 05:00","2022","07","25","05:00","26.0","","20.9","","73","","","M","27","","23","","","M","99.55","","34","","","","NA"
"-79.17","43.19","ST CATHARINES A","6137304","2022-07-25 06:00","2022","07","25","06:00","24.3","","21.0","","81","","","M","29","","19","","","M","99.57","","33","","","","NA"
"-79.17","43.19","ST CATHARINES A","6137304","2022-07-25 07:00","2022","07","25","07:00","22.5","","18.6","","79","","","M","30","","16","","","M","99.62","","29","","","","NA"
"-79.17","43.19","ST CATHARINES A","6137304","2022-07-25 08:00","2022","07","25","08:00","21.4","","16.3","","72","","","M","29","","14","","","M","99.70","","26","","","","NA"
"-79.17","43.19","ST CATHARINES A","6137304","2022-07-25 09:00","2022","07","25","09:00","20.6","","15.7","","73","","","M","27","","10","","","M","99.73","","25","","","","NA"
"-79.17","43.19","ST CATHARINES A","6137304","2022-07-25 10:00","2022","07","25","10:00","19.8","","14.3","","70","","","M","30","","12","","","M","99.79","","","","","","NA"
"-79.17","43.19","ST CATHARINES A","6137304","2022-07-25 11:00","2022","07","25","11:00","19.9","","14.4","","71","","","M","28","","11","","","M","99.85","","","","","","NA"
"-79.17","43.19","ST CATHARINES A","6137304","2022-07-25 12:00","2022","07","25","12:00","19.5","","14.3","","71","","","M","30","","21","","","M","99.93","","","","","","NA"
"-79.17","43.19","ST CATHARINES A","6137304","2022-07-25 13:00","2022","07","25","13:00","21.2","","14.8","","66","","","M","28","","18","","","M","99.99","","25","","","","NA"
"-79.17","43.19","ST CATHARINES A","6137304","2022-07-25 14:00","2022","07","25","14:00","21.8","","15.3","","66","","","M","29","","21","","","M","100.04","","26","","","","NA"
"-79.17","43.19","ST CATHARINES A","6137304","2022-07-25 15:00","2022","07","25","15:00","23.0","","15.2","","61","","","M","31","","23","","","M","100.07","","27","","","","NA"
"-79.17","43.19","ST CATHARINES A","6137304","2022-07-25 16:00","2022","07","25","16:00","22.7","","12.9","","53","","","M","30","","27","","","M","100.14","","25","","","","NA"
"-79.17","43.19","ST CATHARINES A","6137304","2022-07-25 17:00","2022","07","25","17:00","22.8","","11.0","","47","","","M","30","","29","","","M","100.16","","25","","","","NA"
"-79.17","43.19","ST CATHARINES A","6137304","2022-07-25 18:00","2022","07","25","18:00","23.2","","10.9","","45","","","M","30","","25","","","M","100.19","","25","","","","NA"
"-79.17","43.19","ST CATHARINES A","6137304","2022-07-25 19:00","2022","07","25","19:00","24.0","","11.5","","45","","","M","30","","20","","","M","100.20","","26","","","","NA"
"-79.17","43.19","ST CATHARINES A","6137304","2022-07-25 20:00","2022","07","25","20:00","23.8","","11.3","","45","","","M","30","","17","","","M","100.20","","26","","","","NA"
"-79.17","43.19","ST CATHARINES A","6137304","2022-07-25 21:00","2022","07","25","21:00","24.0","","12.1","","47","","","M","31","","17","","","M","100.21","","26","","","","NA"
"-79.17","43.19","ST CATHARINES A","6137304","2022-07-25 22:00","2022","07","25","22:00","22.9","","12.0","","50","","","M","31","","18","","","M","100.25","","25","","","","NA"
"-79.17","43.19","ST CATHARINES A","6137304","2022-07-25 23:00","2022","07","25","23:00","22.1","","12.2","","53","","","M","31","","17","","","M","100.25","","","","","","NA"
"-79.17","43.19","ST CATHARINES A","6137304","2022-07-26 00:00","2022","07","26","00:00","21.3","","12.2","","56","","","M","30","","12","","","M","100.26","","","","","","NA"
"-79.17","43.19","ST CATHARINES A","6137304","2022-07-26 01:00","2022","07","26","01:00","19.4","","11.9","","62","","","M","27","","10","","","M","100.32","","","","","","NA"
"-79.17","43.19","ST CATHARINES A","6137304","2022-07-26 02:00","2022","07","26","02:00","18.7","","12.5","","67","","","M","27","","13","","","M","100.41","","","","","","NA"
"-79.17","43.19","ST CATHARINES A","6137304","2022-07-26 03:00","2022","07","26","03:00","17.1","","11.6","","70","","","M","24","","8","","","M","100.44","","","","","","NA"
"-79.17","43.19","ST CATHARINES A","6137304","2022-07-26 04:00","2022","07","26","04:00","17.2","","11.9","","71","","","M","24","","12","","","M","100.47","","","","","","NA"
"-79.17","43.19","ST CATHARINES A","6137304","2022-07-26 05:00","2022","07","26","05:00","14.6","","11.2","","80","","","M","23","","11","","","M","100.48","","","","","","NA"
"-79.17","43.19","ST CATHARINES A","6137304","2022-07-26 06:00","2022","07","26","06:00","14.4","","11.3","","81","","","M","21","","8","","","M","100.47","","","","","","NA"
"-79.17","43.19","ST CATHARINES A","6137304","2022-07-26 07:00","2022","07","26","07:00","15.1","","11.3","","78","","","M","26","","11","","","M","100.47","","","","","","NA"
"-79.17","43.19","ST CATHARINES A","6137304","2022-07-26 08:00","2022","07","26","08:00","14.1","","11.3","","83","","","M","23","","6","","","M","100.46","","","","","","NA"
"-79.17","43.19","ST CATHARINES A","6137304","2022-07-26 09:00","2022","07","26","09:00","13.0","","11.5","","90","","","M","21","","10","","","M","100.43","","","","","","NA"
"-79.17","43.19","ST CATHARINES A","6137304","2022-07-26 10:00","2022","07","26","10:00","13.4","","11.9","","90","","","M","19","","8","","","M","100.45","","","","","","NA"
"-79.17","43.19","ST CATHARINES A","6137304","2022-07-26 11:00","2022","07","26","11:00","15.3","","14.1","","92","","","M","22","","7","","","M","100.49","","","","","","NA"
"-79.17","43.19","ST CATHARINES A","6137304","2022-07-26 12:00","2022","07","26","12:00","19.0","","13.3","","69","","","M","24","","4","","","M","100.54","","","","","","NA"
"-79.17","43.19","ST CATHARINES A","6137304","2022-07-26 13:00","2022","07","26","13:00","21.1","","12.5","","57","","","M","30","","2","","","M","100.55","","","","","","NA"
"-79.17","43.19","ST CATHARINES A","6137304","2022-07-26 14:00","2022","07","26","14:00","21.4","","13.5","","60","","","M","33","","8","","","M","100.54","","","","","","NA"
"-79.17","43.19","ST CATHARINES A","6137304","2022-07-26 15:00","2022","07","26","15:00","22.6","","13.7","","56","","","M","1","","7","","","M","100.55","","26","","","","NA"
"-79.17","43.19","ST CATHARINES A","6137304","2022-07-26 16:00","2022","07","26","16:00","23.6","","13.3","","52","","","M","35","","12","","","M","100.53","","27","","","","NA"
"-79.17","43.19","ST CATHARINES A","6137304","2022-07-26 17:00","2022","07","26","17:00","22.8","","13.3","","55","","","M","1","","12","","","M","100.50","","26","","","","NA"
"-79.17","43.19","ST CATHARINES A","6137304","2022-07-26 18:00","2022","07","26","18:00","24.4","","14.1","","52","","","M","36","","9","","","M","100.45","","28","","","","NA"
"-79.17","43.19","ST CATHARINES A","6137304","2022-07-26 19:00","2022","07","26","19:00","23.8","","13.9","","53","","","M","4","","11","","","M","100.40","","27","","","","NA"
"-79.17","43.19","ST CATHARINES A","6137304","2022-07-26 20:00","2022","07","26","20:00","24.0","","15.0","","57","","","M","28","","5","","","M","100.39","","28","","","","NA"
"-79.17","43.19","ST CATHARINES A","6137304","2022-07-26 21:00","2022","07","26","21:00","25.1","","14.2","","50","","","M","23","","10","","","M","100.37","","29","","","","NA"
"-79.17","43.19","ST CATHARINES A","6137304","2022-07-26 22:00","2022","07","26","22:00","26.0","","14.6","","49","","","M","19","","12","","","M","100.31","","30","","","","NA"
"-79.17","43.19","ST CATHARINES A","6137304","2022-07-26 23:00","2022","07","26","23:00","25.1","","13.7","","49","","","M","21","","7","","","M","100.26","","28","","","","NA"
"-79.17","43.19","ST CATHARINES A","6137304","2022-07-27 00:00","2022","07","27","00:00","23.2","","14.1","","56","","","M","22","","10","","","M","100.22","","27","","","","NA"
"-79.17","43.19","ST CATHARINES A","6137304","2022-07-27 01:00","2022","07","27","01:00","21.7","","14.0","","61","","","M","0","","1","","","M","100.20","","25","","","","NA"
"-79.17","43.19","ST CATHARINES A","6137304","2022-07-27 02:00","2022","07","27","02:00","19.8","","14.3","","70","","","M","18","","10","","","M","100.26","","","","","","NA"
"-79.17","43.19","ST CATHARINES A","6137304","2022-07-27 03:00","2022","07","27","03:00","18.2","","14.7","","80","","","M","18","","9","","","M","100.28","","","","","","NA"
"-79.17","43.19","ST CATHARINES A","6137304","2022-07-27 04:00","2022","07","27","04:00","19.9","","14.9","","72","","","M","16","","5","","","M","100.26","","","","","","NA"
"-79.17","43.19","ST CATHARINES A","6137304","2022-07-27 05:00","2022","07","27","05:00","18.2","","14.9","","81","","","M","18","","8","","","M","100.25","","","","","","NA"
"-79.17","43.19","ST CATHARINES A","6137304","2022-07-27 06:00","2022","07","27","06:00","17.7","","15.1","","84","","","M","20","","9","","","M","100.26","","","","","","NA"
"-79.17","43.19","ST CATHARINES A","6137304","2022-07-27 07:00","2022","07","27","07:00","16.7","","15.0","","90","","","M","20","","10","","","M","100.24","","","","","","NA"
"-79.17","43.19","ST CATHARINES A","6137304","2022-07-27 08:00","2022","07","27","08:00","17.1","","15.2","","89","","","M","23","","10","","","M","100.21","","","","","","NA"
"-79.17","43.19","ST CATHARINES A","6137304","2022-07-27 09:00","2022","07","27","09:00","16.9","","14.7","","87","","","M","22","","10","","","M","100.16","","","","","","NA"
"-79.17","43.19","ST CATHARINES A","6137304","2022-07-27 10:00","2022","07","27","10:00","16.7","","14.6","","87","","","M","23","","7","","","M","100.17","","","","","","NA"
"-79.17","43.19","ST CATHARINES A","6137304","2022-07-27 11:00","2022","07","27","11:00","17.4","","15.9","","90","","","M","21","","7","","","M","100.17","","","","","","NA"
"-79.17","43.19","ST CATHARINES A","6137304","2022-07-27 12:00","2022","07","27","12:00","19.6","","15.8","","79","","","M","17","","5","","","M","100.13","","","","","","NA"
"-79.17","43.19","ST CATHARINES A","6137304","2022-07-27 13:00","2022","07","27","13:00","21.5","","16.2","","71","","","M","16","","6","","","M","100.12","","26","","","","NA"
"-79.17","43.19","ST CATHARINES A","6137304","2022-07-27 14:00","2022","07","27","14:00","23.2","","15.8","","63","","","M","20","","8","","","M","100.13","","28","","","","NA"
"-79.17","43.19","ST CATHARINES A","6137304","2022-07-27 15:00","2022","07","27","15:00","24.5","","15.0","","55","","","M","22","","12","","","M","100.12","","28","","","","NA"
"-79.17","43.19","ST CATHARINES A","6137304","2022-07-27 16:00","2022","07","27","16:00","26.0","","15.9","","53","","","M","19","","7","","","M","100.09","","31","","","","NA"
"-79.17","43.19","ST CATHARINES A","6137304","2022-07-27 17:00","2022","07","27","17:00","26.0","","16.4","","55","","","M","22","","8","","","M","100.08","","31","","","","NA"
"-79.17","43.19","ST CATHARINES A","6137304","2022-07-27 18:00","2022","07","27","18:00","27.1","","16.8","","53","","","M","23","","17","","","M","100.06","","32","","","","NA"
"-79.17","43.19","ST CATHARINES A","6137304","2022-07-27 19:00","2022","07","27","19:00","26.9","","15.2","","48","","","M","24","","13","","","M","99.98","","31","","","","NA"
"-79.17","43.19","ST CATHARINES A","6137304","2022-07-27 20:00","2022","07","27","20:00","27.1","","16.2","","51","","","M","19","","14","","","M","99.93","","32","","","","NA"
"-79.17","43.19","ST CATHARINES A","6137304","2022-07-27 21:00","2022","07","27","21:00","27.0","","16.0","","50","","","M","21","","12","","","M","99.85","","32","","","","NA"
"-79.17","43.19","ST CATHARINES A","6137304","2022-07-27 22:00","2022","07","27","22:00","26.3","","17.1","","57","","","M","19","","16","","","M","99.81","","32","","","","NA"
"-79.17","43.19","ST CATHARINES A","6137304","2022-07-27 23:00","2022","07","27","23:00","26.1","","17.9","","60","","","M","21","","13","","","M","99.78","","32","","","","NA"
"-79.17","43.19","ST CATHARINES A","6137304","2022-07-28 00:00","2022","07","28","00:00","25.1","","18.0","","64","","","M","22","","11","","","M","99.77","","31","","","","NA"
"-79.17","43.19","ST CATHARINES A","6137304","2022-07-28 01:00","2022","07","28","01:00","24.5","","18.2","","68","","","M","20","","16","","","M","99.77","","31","","","","NA"
"-79.17","43.19","ST CATHARINES A","6137304","2022-07-28 02:00","2022","07","28","02:00","23.1","","19.3","","79","","","M","20","","10","","","M","99.79","","30","","","","NA"
"-79.17","43.19","ST CATHARINES A","6137304","2022-07-28 03:00","2022","07","28","03:00","22.9","","19.4","","80","","","M","21","","13","","","M","99.78","","30","","","","NA"
"-79.17","43.19","ST CATHARINES A","6137304","2022-07-28 04:00","2022","07","28","04:00","22.0","","20.0","","88","","","M","21","","19","","","M","99.74","","30","","","","NA"
"-79.17","43.19","ST CATHARINES A","6137304","2022-07-28 05:00","2022","07","28","05:00","22.3","","21.2","","93","","","M","24","","13","","","M","99.76","","31","","","","NA"
"-79.17","43.19","ST CATHARINES A","6137304","2022-07-28 06:00","2022","07","28","06:00","21.3","","20.8","","97","","","M","22","","8","","","M","99.72","","30","","","","NA"
"-79.17","43.19","ST CATHARINES A","6137304","2022-07-28 07:00","2022","07","28","07:00","21.9","","21.4","","97","","","M","22","","13","","","M","99.66","","31","","","","NA"
"-79.17","43.19","ST CATHARINES A","6137304","2022-07-28 08:00","2022","07","28","08:00","22.5","","21.7","","95","","","M","22","","18","","","M","99.66","","32","","","","NA"
"-79.17","43.19","ST CATHARINES A","6137304","2022-07-28 09:00","2022","07","28","09:00","22.6","","21.7","","95","","","M","24","","12","","","M","99.67","","32","","","","NA"
"-79.17","43.19","ST CATHARINES A","6137304","2022-07-28 10:00","2022","07","28","10:00","21.8","","21.4","","98","","","M","21","","11","","","M","99.66","","31","","","","NA"
"-79.17","43.19","ST CATHARINES A","6137304","2022-07-28 11:00","2022","07","28","11:00","23.0","","22.1","","95","","","M","21","","8","","","M","99.63","","32","","","","NA"
"-79.17","43.19","ST CATHARINES A","6137304","2022-07-28 12:00","2022","07","28","12:00","24.4","","22.6","","89","","","M","22","","11","","","M","99.60","","34","","","","NA"
"-79.17","43.19","ST CATHARINES A","6137304","2022-07-28 13:00","2022","07","28","13:00","24.9","","22.2","","85","","","M","20","","13","","","M","99.58","","34","","","","NA"
"-79.17","43.19","ST CATHARINES A","6137304","2022-07-28 14:00","2022","07","28","14:00","22.2","","21.2","","94","","","M","21","","16","","","M","99.61","","31","","","","NA"
"-79.17","43.19","ST CATHARINES A","6137304","2022-07-28 15:00","2022","07","28","15:00","24.9","","22.4","","86","","","M","22","","21","","","M","99.64","","35","","","","NA"
"-79.17","43.19","ST CATHARINES A","6137304","2022-07-28 16:00","2022","07","28","16:00","27.5","","20.5","","65","","","M","24","","26","","","M","99.63","","35","","","","NA"
"-79.17","43.19","ST CATHARINES A","6137304","2022-07-28 17:00","2022","07","28","17:00","28.5","","18.2","","53","","","M","24","","25","","","M","99.59","","35","","","","NA"
"-79.17","43.19","ST CATHARINES A","6137304","2022-07-28 18:00","2022","07","28","18:00","24.2","","17.5","","66","","","M","30","","20","","","M","99.63","","30","","","","NA"
"-79.17","43.19","ST CATHARINES A","6137304","2022-07-28 19:00","2022","07","28","19:00","28.4","","18.6","","55","","","M","29","","17","","","M","99.62","","35","","","","NA"
"-79.17","43.19","ST CATHARINES A","6137304","2022-07-28 20:00","2022","07","28","20:00","26.4","","20.1","","68","","","M","23","","26","","","M","99.61","","34","","","","NA"
"-79.17","43.19","ST CATHARINES A","6137304","2022-07-28 21:00","2022","07","28","21:00","25.1","","20.1","","73","","","M","22","","29","","","M","99.64","","33","","","","NA"
"-79.17","43.19","ST CATHARINES A","6137304","2022-07-28 22:00","2022","07","28","22:00","25.6","","19.2","","67","","","M","22","","24","","","M","99.61","","33","","","","NA"
"-79.17","43.19","ST CATHARINES A","6137304","2022-07-28 23:00","2022","07","28","23:00","23.4","","21.2","","87","","","M","23","","24","","","M","99.62","","32","","","","NA"
"-79.17","43.19","ST CATHARINES A","6137304","2022-07-29 00:00","2022","07","29","00:00","21.9","","20.2","","90","","","M","21","","17","","","M","99.64","","30","","","","NA"
"-79.17","43.19","ST CATHARINES A","6137304","2022-07-29 01:00","2022","07","29","01:00","21.5","","19.7","","89","","","M","22","","18","","","M","99.67","","29","","","","NA"
"-79.17","43.19","ST CATHARINES A","6137304","2022-07-29 02:00","2022","07","29","02:00","20.8","","19.1","","90","","","M","23","","15","","","M","99.74","","28","","","","NA"
"-79.17","43.19","ST CATHARINES A","6137304","2022-07-29 03:00","2022","07","29","03:00","20.1","","18.0","","88","","","M","24","","10","","","M","99.78","","26","","","","NA"
"-79.17","43.19","ST CATHARINES A","6137304","2022-07-29 04:00","2022","07","29","04:00","19.3","","17.4","","89","","","M","23","","12","","","M","99.81","","","","","","NA"
"-79.17","43.19","ST CATHARINES A","6137304","2022-07-29 05:00","2022","07","29","05:00","18.2","","16.5","","90","","","M","23","","10","","","M","99.83","","","","","","NA"
"-79.17","43.19","ST CATHARINES A","6137304","2022-07-29 06:00","2022","07","29","06:00","18.2","","16.5","","90","","","M","23","","12","","","M","99.86","","","","","","NA"
"-79.17","43.19","ST CATHARINES A","6137304","2022-07-29 07:00","2022","07","29","07:00","18.1","","16.4","","90","","","M","24","","9","","","M","99.90","","","","","","NA"
"-79.17","43.19","ST CATHARINES A","6137304","2022-07-29 08:00","2022","07","29","08:00","17.4","","15.8","","90","","","M","24","","5","","","M","99.93","","","","","","NA"
"-79.17","43.19","ST CATHARINES A","6137304","2022-07-29 09:00","2022","07","29","09:00","15.6","","15.1","","96","","","M","22","","10","","","M","99.98","","","","","","NA"
"-79.17","43.19","ST CATHARINES A","6137304","2022-07-29 10:00","2022","07","29","10:00","14.7","","14.2","","97","","","M","22","","9","","","M","100.02","","","","","","NA"
"-79.17","43.19","ST CATHARINES A","6137304","2022-07-29 11:00","2022","07","29","11:00","16.6","","15.6","","94","","","M","22","","10","","","M","100.08","","","","","","NA"
"-79.17","43.19","ST CATHARINES A","6137304","2022-07-29 12:00","2022","07","29","12:00","19.3","","15.5","","78","","","M","23","","11","","","M","100.11","","","","","","NA"
"-79.17","43.19","ST CATHARINES A","6137304","2022-07-29 13:00","2022","07","29","13:00","21.9","","15.7","","68","","","M","26","","13","","","M","100.10","","26","","","","NA"
"-79.17","43.19","ST CATHARINES A","6137304","2022-07-29 14:00","2022","07","29","14:00","23.2","","15.2","","61","","","M","25","","16","","","M","100.14","","27","","","","NA"
"-79.17","43.19","ST CATHARINES A","6137304","2022-07-29 15:00","2022","07","29","15:00","24.9","","14.5","","52","","","M","25","","13","","","M","100.13","","29","","","","NA"
"-79.17","43.19","ST CATHARINES A","6137304","2022-07-29 16:00","2022","07","29","16:00","25.1","","14.1","","50","","","M","26","","18","","","M","100.13","","29","","","","NA"
"-79.17","43.19","ST CATHARINES A","6137304","2022-07-29 17:00","2022","07","29","17:00","25.8","","14.5","","49","","","M","25","","21","","","M","100.13","","29","","","","NA"
"-79.17","43.19","ST CATHARINES A","6137304","2022-07-29 18:00","2022","07","29","18:00","26.4","","13.2","","43","","","M","25","","17","","","M","100.13","","29","","","","NA"
"-79.17","43.19","ST CATHARINES A","6137304","2022-07-29 19:00","2022","07","29","19:00","26.7","","15.2","","49","","","M","22","","30","","","M","100.12","","31","","","","NA"
"-79.17","43.19","ST CATHARINES A","6137304","2022-07-29 20:00","2022","07","29","20:00","24.8","","14.5","","52","","","M","22","","23","","","M","100.10","","28","","","","NA"
"-79.17","43.19","ST CATHARINES A","6137304","2022-07-29 21:00","2022","07","29","21:00","25.6","","14.7","","50","","","M","21","","28","","","M","100.06","","29","","","","NA"
"-79.17","43.19","ST CATHARINES A","6137304","2022-07-29 22:00","2022","07","29","22:00","25.9","","15.5","","52","","","M","23","","21","","","M","100.07","","30","","","","NA"
"-79.17","43.19","ST CATHARINES A","6137304","2022-07-29 23:00","2022","07","29","23:00","25.1","","15.5","","55","","","M","23","","24","","","M","100.10","","29","","","","NA"
"-79.17","43.19","ST CATHARINES A","6137304","2022-07-30 00:00","2022","07","30","00:00","22.9","","15.7","","64","","","M","22","","20","","","M","100.13","","27","","","","NA"
"-79.17","43.19","ST CATHARINES A","6137304","2022-07-30 01:00","2022","07","30","01:00","22.1","","16.1","","68","","","M","24","","15","","","M","100.17","","27","","","","NA"
"-79.17","43.19","ST CATHARINES A","6137304","2022-07-30 02:00","2022","07","30","02:00","21.0","","16.1","","73","","","M","25","","8","","","M","100.24","","26","","","","NA"
"-79.17","43.19","ST CATHARINES A","6137304","2022-07-30 03:00","2022","07","30","03:00","19.9","","15.9","","77","","","M","26","","7","","","M","100.30","","","","","","NA"
"-79.17","43.19","ST CATHARINES A","6137304","2022-07-30 04:00","2022","07","30","04:00","18.6","","15.6","","83","","","M","24","","8","","","M","100.33","","","","","","NA"
"-79.17","43.19","ST CATHARINES A","6137304","2022-07-30 05:00","2022","07","30","05:00","18.6","","15.7","","83","","","M","27","","8","","","M","100.39","","","","","","NA"
"-79.17","43.19","ST CATHARINES A","6137304","2022-07-30 06:00","2022","07","30","06:00","20.0","","15.0","","73","","","M","32","","18","","","M","100.41","","","","","","NA"
"-79.17","43.19","ST CATHARINES A","6137304","2022-07-30 07:00","2022","07","30","07:00","18.8","","14.3","","75","","","M","31","","14","","","M","100.47","","","","","","NA"
"-79.17","43.19","ST CATHARINES A","6137304","2022-07-30 08:00","2022","07","30","08:00","18.6","","14.1","","75","","","M","29","","17","","","M","100.54","","","","","","NA"
"-79.17","43.19","ST CATHARINES A","6137304","2022-07-30 09:00","2022","07","30","09:00","17.7","","14.3","","81","","","M","28","","14","","","M","100.54","","","","","","NA"
"-79.17","43.19","ST CATHARINES A","6137304","2022-07-30 10:00","2022","07","30","10:00","17.8","","14.0","","78","","","M","30","","17","","","M","100.59","","","","","","NA"
"-79.17","43.19","ST CATHARINES A","6137304","2022-07-30 11:00","2022","07","30","11:00","18.1","","14.6","","80","","","M","29","","20","","","M","100.69","","","","","","NA"
"-79.17","43.19","ST CATHARINES A","6137304","2022-07-30 12:00","2022","07","30","12:00","19.3","","14.6","","74","","","M","30","","16","","","M","100.77","","","","","","NA"
"-79.17","43.19","ST CATHARINES A","6137304","2022-07-30 13:00","2022","07","30","13:00","19.8","","14.8","","73","","","M","30","","19","","","M","100.84","","","","","","NA"
"-79.17","43.19","ST CATHARINES A","6137304","2022-07-30 14:00","2022","07","30","14:00","20.7","","14.3","","67","","","M","29","","17","","","M","100.88","","","","","","NA"
"-79.17","43.19","ST CATHARINES A","6137304","2022-07-30 15:00","2022","07","30","15:00","21.6","","14.8","","65","","","M","29","","23","","","M","100.92","","25","","","","NA"
"-79.17","43.19","ST CATHARINES A","6137304","2022-07-30 16:00","2022","07","30","16:00","22.6","","15.0","","62","","","M","30","","18","","","M","100.93","","27","","","","NA"
"-79.17","43.19","ST CATHARINES A","6137304","2022-07-30 17:00","2022","07","30","17:00","23.0","","14.7","","59","","","M","29","","19","","","M","100.94","","27","","","","NA"
"-79.17","43.19","ST CATHARINES A","6137304","2022-07-30 18:00","2022","07","30","18:00","23.8","","13.7","","53","","","M","30","","19","","","M","100.92","","27","","","","NA"
"-79.17","43.19","ST CATHARINES A","6137304","2022-07-30 19:00","2022","07","30","19:00","24.9","","14.3","","51","","","M","27","","17","","","M","100.91","","28","","","","NA"
"-79.17","43.19","ST CATHARINES A","6137304","2022-07-30 20:00","2022","07","30","20:00","25.5","","14.1","","49","","","M","26","","18","","","M","100.90","","29","","","","NA"
"-79.17","43.19","ST CATHARINES A","6137304","2022-07-30 21:00","2022","07","30","21:00","25.7","","14.1","","48","","","M","26","","8","","","M","100.87","","29","","","","NA"
"-79.17","43.19","ST CATHARINES A","6137304","2022-07-30 22:00","2022","07","30","22:00","25.9","","15.5","","52","","","M","21","","15","","","M","100.87","","30","","","","NA"
"-79.17","43.19","ST CATHARINES A","6137304","2022-07-30 23:00","2022","07","30","23:00","24.9","","17.5","","63","","","M","22","","17","","","M","100.87","","31","","","","NA"
"-79.17","43.19","ST CATHARINES A","6137304","2022-07-31 00:00","2022","07","31","00:00","23.3","","17.7","","70","","","M","19","","19","","","M","100.88","","29","","","","NA"
"-79.17","43.19","ST CATHARINES A","6137304","2022-07-31 01:00","2022","07","31","01:00","20.8","","17.6","","81","","","M","19","","10","","","M","100.88","","27","","","","NA"
"-79.17","43.19","ST CATHARINES A","6137304","2022-07-31 02:00","2022","07","31","02:00","19.8","","17.8","","88","","","M","21","","10","","","M","100.91","","","","","","NA"
"-79.17","43.19","ST CATHARINES A","6137304","2022-07-31 03:00","2022","07","31","03:00","19.1","","17.7","","91","","","M","21","","9","","","M","100.94","","","","","","NA"
"-79.17","43.19","ST CATHARINES A","6137304","2022-07-31 04:00","2022","07","31","04:00","18.6","","17.0","","90","","","M","23","","8","","","M","100.95","","","","","","NA"
"-79.17","43.19","ST CATHARINES A","6137304","2022-07-31 05:00","2022","07","31","05:00","17.4","","15.9","","91","","","M","22","","8","","","M","100.98","","","","","","NA"
"-79.17","43.19","ST CATHARINES A","6137304","2022-07-31 06:00","2022","07","31","06:00","17.2","","15.2","","88","","","M","22","","14","","","M","101.00","","","","","","NA"
"-79.17","43.19","ST CATHARINES A","6137304","2022-07-31 07:00","2022","07","31","07:00","16.8","","15.5","","92","","","M","23","","11","","","M","100.99","","","","","","NA"
"-79.17","43.19","ST CATHARINES A","6137304","2022-07-31 08:00","2022","07","31","08:00","17.1","","16.1","","94","","","M","19","","4","","","M","100.99","","","","","","NA"
"-79.17","43.19","ST CATHARINES A","6137304","2022-07-31 09:00","2022","07","31","09:00","16.3","","15.5","","95","","","M","21","","8","","","M","100.98","","","","","","NA"
"-79.17","43.19","ST CATHARINES A","6137304","2022-07-31 10:00","2022","07","31","10:00","16.1","","15.5","","96","","","M","21","","8","","","M","100.98","","","","","","NA"
"-79.17","43.19","ST CATHARINES A","6137304","2022-07-31 11:00","2022","07","31","11:00","17.9","","17.0","","95","","","M","18","","8","","","M","100.97","","","","","","NA"
"-79.17","43.19","ST CATHARINES A","6137304","2022-07-31 12:00","2022","07","31","12:00","21.3","","18.4","","83","","","M","22","","8","","","M","100.98","","28","","","","NA"
"-79.17","43.19","ST CATHARINES A","6137304","2022-07-31 13:00","2022","07","31","13:00","23.6","","18.3","","72","","","M","21","","9","","","M","100.97","","30","","","","NA"
"-79.17","43.19","ST CATHARINES A","6137304","2022-07-31 14:00","2022","07","31","14:00","24.3","","19.2","","73","","","M","18","","13","","","M","100.94","","31","","","","NA"
"-79.17","43.19","ST CATHARINES A","6137304","2022-07-31 15:00","2022","07","31","15:00","25.7","","18.3","","63","","","M","21","","13","","","M","100.90","","32","","","","NA"
"-79.17","43.19","ST CATHARINES A","6137304","2022-07-31 16:00","2022","07","31","16:00","26.0","","17.0","","57","","","M","20","","7","","","M","100.84","","31","","","","NA"
"-79.17","43.19","ST CATHARINES A","6137304","2022-07-31 17:00","2022","07","31","17:00","26.5","","16.9","","55","","","M","23","","5","","","M","100.80","","32","","","","NA"
"-79.17","43.19","ST CATHARINES A","6137304","2022-07-31 18:00","2022","07","31","18:00","27.2","","17.4","","55","","","M","19","","10","","","M","100.74","","33","","","","NA"
"-79.17","43.19","ST CATHARINES A","6137304","2022-07-31 19:00","2022","07","31","19:00","26.9","","15.7","","49","","","M","19","","18","","","M","100.72","","31","","","","NA"
"-79.17","43.19","ST CATHARINES A","6137304","2022-07-31 20:00","2022","07","31","20:00","28.6","","15.7","","45","","","M","21","","14","","","M","100.65","","33","","","","NA"
"-79.17","43.19","ST CATHARINES A","6137304","2022-07-31 21:00","2022","07","31","21:00","27.7","","15.4","","46","","","M","22","","16","","","M","100.62","","32","","","","NA"
"-79.17","43.19","ST CATHARINES A","6137304","2022-07-31 22:00","2022","07","31","22:00","27.7","","15.2","","46","","","M","21","","18","","","M","100.55","","32","","","","NA"
"-79.17","43.19","ST CATHARINES A","6137304","2022-07-31 23:00","2022","07","31","23:00","27.0","","15.1","","47","","","M","20","","14","","","M","100.50","","31","","","","NA"
