"Longitude (x)","Latitude (y)","Station Name","Climate ID","Date/Time (UTC)","Year","Month","Day","Time (UTC)","Temp (°C)","Temp Flag","Dew Point Temp (°C)","Dew Point Temp Flag","Rel Hum (%)","Rel Hum Flag","Precip. Amount (mm)","Precip. Amount Flag","Wind Dir (10s deg)","Wind Dir Flag","Wind Spd (km/h)","Wind Spd Flag","Visibility (km)","Visibility Flag","Stn Press (kPa)","Stn Press Flag","Hmdx","Hmdx Flag","Wind Chill","Wind Chill Flag","Weather"
"-80.42","43.65","ELORA RCS","6142286","2013-02-01 00:00","2013","02","01","00:00","-7.5","","-10.8","","77","","","","28","","33","","","","95.80","","","","-17","","NA"
"-80.42","43.65","ELORA RCS","6142286","2013-02-01 01:00","2013","02","01","01:00","-7.6","","-10.5","","80","","","","28","","26","","","","95.86","","","","-16","","NA"
"-80.42","43.65","ELORA RCS","6142286","2013-02-01 02:00","2013","02","01","02:00","-7.9","","-9.4","","89","","","","27","","32","","","","95.91","","","","-17","","NA"
"-80.42","43.65","ELORA RCS","6142286","2013-02-01 03:00","2013","02","01","03:00","-8.4","","-9.8","","90","","","","30","","26","","","","95.97","","","","-17","","NA"
"-80.42","43.65","ELORA RCS","6142286","2013-02-01 04:00","2013","02","01","04:00","-8.8","","-10.7","","86","","","","29","","24","","","","96.00","","","","-17","","NA"
"-80.42","43.65","ELORA RCS","6142286","2013-02-01 05:00","2013","02","01","05:00","-8.8","","-10.5","","87","","","","27","","22","","","","96.02","","","","-17","","NA"
"-80.42","43.65","ELORA RCS","6142286","2013-02-01 06:00","2013","02","01","06:00","-9.0","","-11.2","","84","","","","29","","20","","","","96.06","","","","-17","","NA"
"-80.42","43.65","ELORA RCS","6142286","2013-02-01 07:00","2013","02","01","07:00","-10.0","","-12.0","","85","","","","33","","17","","","","96.11","","","","-17","","NA"
"-80.42","43.65","ELORA RCS","6142286","2013-02-01 08:00","2013","02","01","08:00","-11.1","","-13.3","","84","","","","34","","19","","","","96.20","","","","-19","","NA"
"-80.42","43.65","ELORA RCS","6142286","2013-02-01 09:00","2013","02","01","09:00","-11.5","","-13.7","","84","","","","33","","13","","","","96.24","","","","-18","","NA"
"-80.42","43.65","ELORA RCS","6142286","2013-02-01 10:00","2013","02","01","10:00","-12.7","","-14.7","","85","","","","31","","9","","","","96.36","","","","-18","","NA"
"-80.42","43.65","ELORA RCS","6142286","2013-02-01 11:00","2013","02","01","11:00","-12.6","","-14.9","","83","","","","31","","13","","","","96.46","","","","-19","","NA"
"-80.42","43.65","ELORA RCS","6142286","2013-02-01 12:00","2013","02","01","12:00","-12.9","","-15.2","","83","","","","30","","13","","","","96.57","","","","-20","","NA"
"-80.42","43.65","ELORA RCS","6142286","2013-02-01 13:00","2013","02","01","13:00","-13.4","","-15.5","","84","","","","29","","9","","","","96.72","","","","-19","","NA"
"-80.42","43.65","ELORA RCS","6142286","2013-02-01 14:00","2013","02","01","14:00","-12.9","","-15.0","","84","","","","29","","9","","","","96.84","","","","-18","","NA"
"-80.42","43.65","ELORA RCS","6142286","2013-02-01 15:00","2013","02","01","15:00","-11.8","","-14.6","","80","","","","30","","13","","","","96.91","","","","-18","","NA"
"-80.42","43.65","ELORA RCS","6142286","2013-02-01 16:00","2013","02","01","16:00","-11.2","","-13.6","","82","","","","32","","13","","","","96.99","","","","-18","","NA"
"-80.42","43.65","ELORA RCS","6142286","2013-02-01 17:00","2013","02","01","17:00","-10.2","","-13.2","","79","","","","32","","13","","","","97.05","","","","-16","","NA"
"-80.42","43.65","ELORA RCS","6142286","2013-02-01 18:00","2013","02","01","18:00","-10.4","","-13.9","","75","","","","32","","20","","","","97.07","","","","-18","","NA"
"-80.42","43.65","ELORA RCS","6142286","2013-02-01 19:00","2013","02","01","19:00","-10.2","","-13.6","","76","","","","31","","20","","","","97.11","","","","-18","","NA"
"-80.42","43.65","ELORA RCS","6142286","2013-02-01 20:00","2013","02","01","20:00","-9.9","","-12.9","","79","","","","30","","17","","","","97.16","","","","-17","","NA"
"-80.42","43.65","ELORA RCS","6142286","2013-02-01 21:00","2013","02","01","21:00","-9.2","","-12.3","","78","","","","30","","19","","","","97.21","","","","-17","","NA"
"-80.42","43.65","ELORA RCS","6142286","2013-02-01 22:00","2013","02","01","22:00","-9.3","","-12.5","","78","","","","28","","22","","","","97.27","","","","-17","","NA"
"-80.42","43.65","ELORA RCS","6142286","2013-02-01 23:00","2013","02","01","23:00","-9.6","","-11.1","","89","","","","27","","19","","","","97.33","","","","-17","","NA"
"-80.42","43.65","ELORA RCS","6142286","2013-02-02 00:00","2013","02","02","00:00","-11.2","","-13.0","","87","","","","26","","17","","","","97.37","","","","-19","","NA"
"-80.42","43.65","ELORA RCS","6142286","2013-02-02 01:00","2013","02","02","01:00","-11.3","","-13.0","","87","","","","25","","17","","","","97.39","","","","-19","","NA"
"-80.42","43.65","ELORA RCS","6142286","2013-02-02 02:00","2013","02","02","02:00","-9.7","","-11.5","","87","","","","25","","22","","","","97.42","","","","-18","","NA"
"-80.42","43.65","ELORA RCS","6142286","2013-02-02 03:00","2013","02","02","03:00","-10.0","","-11.8","","87","","","","24","","24","","","","97.43","","","","-19","","NA"
"-80.42","43.65","ELORA RCS","6142286","2013-02-02 04:00","2013","02","02","04:00","-10.1","","-12.3","","84","","","","24","","22","","","","97.41","","","","-18","","NA"
"-80.42","43.65","ELORA RCS","6142286","2013-02-02 05:00","2013","02","02","05:00","-10.2","","-13.4","","77","","","","24","","24","","","","97.39","","","","-19","","NA"
"-80.42","43.65","ELORA RCS","6142286","2013-02-02 06:00","2013","02","02","06:00","-11.2","","-13.5","","83","","","","24","","26","","","","97.36","","","","-20","","NA"
"-80.42","43.65","ELORA RCS","6142286","2013-02-02 07:00","2013","02","02","07:00","-12.0","","-14.3","","83","","","","24","","26","","","","97.34","","","","-22","","NA"
"-80.42","43.65","ELORA RCS","6142286","2013-02-02 08:00","2013","02","02","08:00","-12.5","","-15.3","","80","","","","24","","28","","","","97.34","","","","-22","","NA"
"-80.42","43.65","ELORA RCS","6142286","2013-02-02 09:00","2013","02","02","09:00","-12.5","","-15.4","","79","","","","23","","26","","","","97.25","","","","-22","","NA"
"-80.42","43.65","ELORA RCS","6142286","2013-02-02 10:00","2013","02","02","10:00","-12.2","","-14.9","","80","","","","23","","24","","","","97.21","","","","-21","","NA"
"-80.42","43.65","ELORA RCS","6142286","2013-02-02 11:00","2013","02","02","11:00","-11.9","","-14.0","","84","","","","23","","24","","","","97.15","","","","-21","","NA"
"-80.42","43.65","ELORA RCS","6142286","2013-02-02 12:00","2013","02","02","12:00","-11.6","","-13.3","","87","","","","22","","19","","","","97.11","","","","-20","","NA"
"-80.42","43.65","ELORA RCS","6142286","2013-02-02 13:00","2013","02","02","13:00","-11.3","","-12.9","","88","","","","22","","19","","","","97.08","","","","-19","","NA"
"-80.42","43.65","ELORA RCS","6142286","2013-02-02 14:00","2013","02","02","14:00","-10.9","","-12.8","","86","","","","23","","24","","","","97.05","","","","-20","","NA"
"-80.42","43.65","ELORA RCS","6142286","2013-02-02 15:00","2013","02","02","15:00","-10.5","","-12.5","","85","","","","23","","22","","","","96.99","","","","-19","","NA"
"-80.42","43.65","ELORA RCS","6142286","2013-02-02 16:00","2013","02","02","16:00","-9.9","","-12.2","","83","","","","24","","24","","","","96.96","","","","-18","","NA"
"-80.42","43.65","ELORA RCS","6142286","2013-02-02 17:00","2013","02","02","17:00","-9.4","","-11.8","","83","","","","24","","26","","","","96.92","","","","-18","","NA"
"-80.42","43.65","ELORA RCS","6142286","2013-02-02 18:00","2013","02","02","18:00","-9.0","","-11.7","","81","","","","24","","26","","","","96.83","","","","-18","","NA"
"-80.42","43.65","ELORA RCS","6142286","2013-02-02 19:00","2013","02","02","19:00","-8.7","","-11.3","","81","","","","24","","22","","","","96.78","","","","-17","","NA"
"-80.42","43.65","ELORA RCS","6142286","2013-02-02 20:00","2013","02","02","20:00","-8.6","","-11.3","","81","","","","26","","20","","","","96.76","","","","-16","","NA"
"-80.42","43.65","ELORA RCS","6142286","2013-02-02 21:00","2013","02","02","21:00","-8.6","","-11.0","","83","","","","27","","15","","","","96.78","","","","-15","","NA"
"-80.42","43.65","ELORA RCS","6142286","2013-02-02 22:00","2013","02","02","22:00","-9.9","","-12.1","","84","","","","31","","9","","","","96.81","","","","-15","","NA"
"-80.42","43.65","ELORA RCS","6142286","2013-02-02 23:00","2013","02","02","23:00","-10.7","","-13.1","","82","","","","33","","6","","","","96.85","","","","-14","","NA"
"-80.42","43.65","ELORA RCS","6142286","2013-02-03 00:00","2013","02","03","00:00","-11.3","","-13.3","","85","","","","31","","6","","","","96.89","","","","-15","","NA"
"-80.42","43.65","ELORA RCS","6142286","2013-02-03 01:00","2013","02","03","01:00","-11.9","","-13.6","","87","","","","34","","6","","","","96.91","","","","-16","","NA"
"-80.42","43.65","ELORA RCS","6142286","2013-02-03 02:00","2013","02","03","02:00","-13.6","","-14.8","","91","","","","","","0","","","","96.89","","","","","","NA"
"-80.42","43.65","ELORA RCS","6142286","2013-02-03 03:00","2013","02","03","03:00","-15.1","","-16.6","","88","","","","1","","6","","","","96.90","","","","-19","","NA"
"-80.42","43.65","ELORA RCS","6142286","2013-02-03 04:00","2013","02","03","04:00","-15.2","","-16.7","","88","","","","1","","4","","","","96.86","","","","-18","","NA"
"-80.42","43.65","ELORA RCS","6142286","2013-02-03 05:00","2013","02","03","05:00","-17.3","","-19.0","","87","","","","35","","4","","","","96.86","","","","-20","","NA"
"-80.42","43.65","ELORA RCS","6142286","2013-02-03 06:00","2013","02","03","06:00","-17.6","","-19.2","","87","","","","","","0","","","","96.86","","","","","","NA"
"-80.42","43.65","ELORA RCS","6142286","2013-02-03 07:00","2013","02","03","07:00","-17.7","","-19.3","","87","","","","32","","4","","","","96.83","","","","-21","","NA"
"-80.42","43.65","ELORA RCS","6142286","2013-02-03 08:00","2013","02","03","08:00","-19.4","","-21.2","","86","","","","","","0","","","","96.80","","","","","","NA"
"-80.42","43.65","ELORA RCS","6142286","2013-02-03 09:00","2013","02","03","09:00","-19.9","","-21.9","","84","","","","35","","4","","","","96.73","","","","-23","","NA"
"-80.42","43.65","ELORA RCS","6142286","2013-02-03 10:00","2013","02","03","10:00","-19.9","","-21.9","","84","","","","2","","4","","","","96.68","","","","-23","","NA"
"-80.42","43.65","ELORA RCS","6142286","2013-02-03 11:00","2013","02","03","11:00","-19.3","","-21.2","","85","","","","","","0","","","","96.63","","","","","","NA"
"-80.42","43.65","ELORA RCS","6142286","2013-02-03 12:00","2013","02","03","12:00","-18.8","","-20.7","","85","","","","5","","4","","","","96.61","","","","-22","","NA"
"-80.42","43.65","ELORA RCS","6142286","2013-02-03 13:00","2013","02","03","13:00","-18.9","","-20.8","","85","","","","3","","6","","","","96.60","","","","-24","","NA"
"-80.42","43.65","ELORA RCS","6142286","2013-02-03 14:00","2013","02","03","14:00","-17.9","","-19.7","","86","","","","5","","4","","","","96.56","","","","-21","","NA"
"-80.42","43.65","ELORA RCS","6142286","2013-02-03 15:00","2013","02","03","15:00","-13.1","","-14.5","","89","","","","","","0","","","","96.51","","","","","","NA"
"-80.42","43.65","ELORA RCS","6142286","2013-02-03 16:00","2013","02","03","16:00","-11.0","","-12.4","","89","","","","21","","11","","","","96.48","","","","-17","","NA"
"-80.42","43.65","ELORA RCS","6142286","2013-02-03 17:00","2013","02","03","17:00","-9.5","","-13.1","","75","","","","23","","11","","","","96.46","","","","-15","","NA"
"-80.42","43.65","ELORA RCS","6142286","2013-02-03 18:00","2013","02","03","18:00","-8.8","","-14.4","","64","","","","24","","11","","","","96.38","","","","-14","","NA"
"-80.42","43.65","ELORA RCS","6142286","2013-02-03 19:00","2013","02","03","19:00","-8.9","","-13.7","","68","","","","24","","9","","","","96.35","","","","-14","","NA"
"-80.42","43.65","ELORA RCS","6142286","2013-02-03 20:00","2013","02","03","20:00","-9.2","","-11.9","","81","","","","25","","11","","","","96.34","","","","-15","","NA"
"-80.42","43.65","ELORA RCS","6142286","2013-02-03 21:00","2013","02","03","21:00","-9.2","","-11.9","","81","","","","25","","15","","","","96.34","","","","-16","","NA"
"-80.42","43.65","ELORA RCS","6142286","2013-02-03 22:00","2013","02","03","22:00","-9.2","","-11.5","","83","","","","24","","17","","","","96.33","","","","-16","","NA"
"-80.42","43.65","ELORA RCS","6142286","2013-02-03 23:00","2013","02","03","23:00","-9.4","","-11.4","","85","","","","25","","19","","","","96.37","","","","-17","","NA"
"-80.42","43.65","ELORA RCS","6142286","2013-02-04 00:00","2013","02","04","00:00","-9.8","","-12.2","","83","","","","25","","19","","","","96.41","","","","-17","","NA"
"-80.42","43.65","ELORA RCS","6142286","2013-02-04 01:00","2013","02","04","01:00","-10.3","","-12.5","","84","","","","25","","22","","","","96.43","","","","-19","","NA"
"-80.42","43.65","ELORA RCS","6142286","2013-02-04 02:00","2013","02","04","02:00","-10.4","","-12.1","","87","","","","25","","17","","","","96.44","","","","-18","","NA"
"-80.42","43.65","ELORA RCS","6142286","2013-02-04 03:00","2013","02","04","03:00","-11.1","","-12.8","","87","","","","25","","13","","","","96.47","","","","-18","","NA"
"-80.42","43.65","ELORA RCS","6142286","2013-02-04 04:00","2013","02","04","04:00","-9.7","","-11.3","","88","","","","25","","19","","","","96.47","","","","-17","","NA"
"-80.42","43.65","ELORA RCS","6142286","2013-02-04 05:00","2013","02","04","05:00","-9.4","","-11.0","","88","","","","26","","20","","","","96.48","","","","-17","","NA"
"-80.42","43.65","ELORA RCS","6142286","2013-02-04 06:00","2013","02","04","06:00","-9.3","","-10.8","","89","","","","26","","19","","","","96.51","","","","-17","","NA"
"-80.42","43.65","ELORA RCS","6142286","2013-02-04 07:00","2013","02","04","07:00","-9.2","","-11.1","","86","","","","28","","20","","","","96.55","","","","-17","","NA"
"-80.42","43.65","ELORA RCS","6142286","2013-02-04 08:00","2013","02","04","08:00","-9.6","","-12.3","","81","","","","29","","26","","","","96.64","","","","-18","","NA"
"-80.42","43.65","ELORA RCS","6142286","2013-02-04 09:00","2013","02","04","09:00","-10.5","","-14.5","","72","","","","28","","20","","","","96.67","","","","-18","","NA"
"-80.42","43.65","ELORA RCS","6142286","2013-02-04 10:00","2013","02","04","10:00","-10.5","","-14.6","","72","","","","27","","20","","","","96.71","","","","-18","","NA"
"-80.42","43.65","ELORA RCS","6142286","2013-02-04 11:00","2013","02","04","11:00","-10.5","","-14.1","","75","","","","28","","19","","","","96.72","","","","-18","","NA"
"-80.42","43.65","ELORA RCS","6142286","2013-02-04 12:00","2013","02","04","12:00","-10.6","","-13.4","","80","","","","27","","17","","","","96.72","","","","-18","","NA"
"-80.42","43.65","ELORA RCS","6142286","2013-02-04 13:00","2013","02","04","13:00","-10.7","","-12.7","","85","","","","25","","17","","","","96.74","","","","-18","","NA"
"-80.42","43.65","ELORA RCS","6142286","2013-02-04 14:00","2013","02","04","14:00","-10.4","","-12.8","","83","","","","25","","20","","","","96.77","","","","-18","","NA"
"-80.42","43.65","ELORA RCS","6142286","2013-02-04 15:00","2013","02","04","15:00","-10.2","","-12.8","","81","","","","25","","20","","","","96.77","","","","-18","","NA"
"-80.42","43.65","ELORA RCS","6142286","2013-02-04 16:00","2013","02","04","16:00","-9.7","","-12.5","","80","","","","26","","24","","","","96.76","","","","-18","","NA"
"-80.42","43.65","ELORA RCS","6142286","2013-02-04 17:00","2013","02","04","17:00","-9.5","","-12.2","","81","","","","25","","26","","","","96.75","","","","-18","","NA"
"-80.42","43.65","ELORA RCS","6142286","2013-02-04 18:00","2013","02","04","18:00","-9.3","","-11.9","","81","","","","26","","22","","","","96.70","","","","-17","","NA"
"-80.42","43.65","ELORA RCS","6142286","2013-02-04 19:00","2013","02","04","19:00","-9.2","","-12.1","","79","","","","25","","22","","","","96.65","","","","-17","","NA"
"-80.42","43.65","ELORA RCS","6142286","2013-02-04 20:00","2013","02","04","20:00","-8.7","","-11.9","","78","","","","27","","22","","","","96.64","","","","-17","","NA"
"-80.42","43.65","ELORA RCS","6142286","2013-02-04 21:00","2013","02","04","21:00","-8.8","","-12.1","","77","","","","29","","13","","","","96.63","","","","-15","","NA"
"-80.42","43.65","ELORA RCS","6142286","2013-02-04 22:00","2013","02","04","22:00","-9.2","","-12.0","","80","","","","27","","19","","","","96.60","","","","-17","","NA"
"-80.42","43.65","ELORA RCS","6142286","2013-02-04 23:00","2013","02","04","23:00","-10.2","","-12.8","","81","","","","28","","11","","","","96.60","","","","-16","","NA"
"-80.42","43.65","ELORA RCS","6142286","2013-02-05 00:00","2013","02","05","00:00","-11.7","","-13.4","","87","","","","26","","6","","","","96.64","","","","-15","","NA"
"-80.42","43.65","ELORA RCS","6142286","2013-02-05 01:00","2013","02","05","01:00","-12.8","","-14.1","","90","","","","26","","6","","","","96.66","","","","-17","","NA"
"-80.42","43.65","ELORA RCS","6142286","2013-02-05 02:00","2013","02","05","02:00","-13.4","","-14.7","","90","","","","27","","6","","","","96.68","","","","-17","","NA"
"-80.42","43.65","ELORA RCS","6142286","2013-02-05 03:00","2013","02","05","03:00","-13.9","","-15.6","","87","","","","32","","4","","","","96.71","","","","-17","","NA"
"-80.42","43.65","ELORA RCS","6142286","2013-02-05 04:00","2013","02","05","04:00","-13.6","","-15.4","","86","","","","28","","4","","","","96.69","","","","-16","","NA"
"-80.42","43.65","ELORA RCS","6142286","2013-02-05 05:00","2013","02","05","05:00","-13.2","","-14.8","","88","","","","","","0","","","","96.69","","","","","","NA"
"-80.42","43.65","ELORA RCS","6142286","2013-02-05 06:00","2013","02","05","06:00","-13.9","","-15.7","","86","","","","","","0","","","","96.69","","","","","","NA"
"-80.42","43.65","ELORA RCS","6142286","2013-02-05 07:00","2013","02","05","07:00","-13.8","","-15.4","","88","","","","","","0","","","","96.69","","","","","","NA"
"-80.42","43.65","ELORA RCS","6142286","2013-02-05 08:00","2013","02","05","08:00","-13.3","","-14.9","","88","","","","","","0","","","","96.69","","","","","","NA"
"-80.42","43.65","ELORA RCS","6142286","2013-02-05 09:00","2013","02","05","09:00","-13.2","","-14.8","","88","","","","","","0","","","","96.67","","","","","","NA"
"-80.42","43.65","ELORA RCS","6142286","2013-02-05 10:00","2013","02","05","10:00","-13.6","","-15.2","","88","","","","16","","7","","","","96.66","","","","-18","","NA"
"-80.42","43.65","ELORA RCS","6142286","2013-02-05 11:00","2013","02","05","11:00","-15.9","","-17.4","","88","","","","11","","4","","","","96.66","","","","-19","","NA"
"-80.42","43.65","ELORA RCS","6142286","2013-02-05 12:00","2013","02","05","12:00","-16.2","","-17.6","","89","","","","17","","4","","","","96.65","","","","-19","","NA"
"-80.42","43.65","ELORA RCS","6142286","2013-02-05 13:00","2013","02","05","13:00","-17.0","","-18.6","","87","","","","","","0","","","","96.72","","","","","","NA"
"-80.42","43.65","ELORA RCS","6142286","2013-02-05 14:00","2013","02","05","14:00","-14.0","","-15.4","","89","","","","11","","4","","","","96.72","","","","-17","","NA"
"-80.42","43.65","ELORA RCS","6142286","2013-02-05 15:00","2013","02","05","15:00","-11.1","","-14.6","","75","","","","18","","4","","","","96.74","","","","-14","","NA"
"-80.42","43.65","ELORA RCS","6142286","2013-02-05 16:00","2013","02","05","16:00","-9.3","","-13.6","","71","","","","20","","11","","","","96.71","","","","-15","","NA"
"-80.42","43.65","ELORA RCS","6142286","2013-02-05 17:00","2013","02","05","17:00","-8.5","","-13.2","","69","","","","20","","15","","","","96.57","","","","-15","","NA"
"-80.42","43.65","ELORA RCS","6142286","2013-02-05 18:00","2013","02","05","18:00","-8.2","","-13.8","","64","","","","20","","17","","","","96.46","","","","-15","","NA"
"-80.42","43.65","ELORA RCS","6142286","2013-02-05 19:00","2013","02","05","19:00","-7.8","","-13.2","","65","","","","22","","13","","","","96.45","","","","-14","","NA"
"-80.42","43.65","ELORA RCS","6142286","2013-02-05 20:00","2013","02","05","20:00","-7.8","","-13.3","","65","","","","23","","13","","","","96.42","","","","-14","","NA"
"-80.42","43.65","ELORA RCS","6142286","2013-02-05 21:00","2013","02","05","21:00","-7.5","","-12.4","","68","","","","24","","17","","","","96.41","","","","-14","","NA"
"-80.42","43.65","ELORA RCS","6142286","2013-02-05 22:00","2013","02","05","22:00","-7.4","","-11.9","","70","","","","24","","15","","","","96.43","","","","-14","","NA"
"-80.42","43.65","ELORA RCS","6142286","2013-02-05 23:00","2013","02","05","23:00","-7.3","","-11.1","","74","","","","20","","9","","","","96.39","","","","-12","","NA"
"-80.42","43.65","ELORA RCS","6142286","2013-02-06 00:00","2013","02","06","00:00","-7.3","","-10.5","","78","","","","20","","9","","","","96.39","","","","-12","","NA"
"-80.42","43.65","ELORA RCS","6142286","2013-02-06 01:00","2013","02","06","01:00","-6.9","","-9.4","","82","","","","21","","15","","","","96.40","","","","-13","","NA"
"-80.42","43.65","ELORA RCS","6142286","2013-02-06 02:00","2013","02","06","02:00","-6.7","","-8.6","","86","","","","23","","19","","","","96.43","","","","-14","","NA"
"-80.42","43.65","ELORA RCS","6142286","2013-02-06 03:00","2013","02","06","03:00","-6.4","","-8.0","","88","","","","24","","20","","","","96.44","","","","-13","","NA"
"-80.42","43.65","ELORA RCS","6142286","2013-02-06 04:00","2013","02","06","04:00","-6.1","","-6.9","","94","","","","24","","20","","","","96.46","","","","-13","","NA"
"-80.42","43.65","ELORA RCS","6142286","2013-02-06 05:00","2013","02","06","05:00","-5.5","","-6.3","","94","","","","25","","20","","","","96.45","","","","-12","","NA"
"-80.42","43.65","ELORA RCS","6142286","2013-02-06 06:00","2013","02","06","06:00","-4.9","","-6.2","","91","","","","28","","20","","","","96.52","","","","-11","","NA"
"-80.42","43.65","ELORA RCS","6142286","2013-02-06 07:00","2013","02","06","07:00","-5.3","","-7.6","","84","","","","30","","20","","","","96.64","","","","-12","","NA"
"-80.42","43.65","ELORA RCS","6142286","2013-02-06 08:00","2013","02","06","08:00","-5.9","","-7.9","","86","","","","29","","20","","","","96.71","","","","-13","","NA"
"-80.42","43.65","ELORA RCS","6142286","2013-02-06 09:00","2013","02","06","09:00","-6.2","","-7.7","","89","","","","29","","20","","","","96.81","","","","-13","","NA"
"-80.42","43.65","ELORA RCS","6142286","2013-02-06 10:00","2013","02","06","10:00","-6.4","","-9.5","","79","","","","32","","28","","","","96.96","","","","-15","","NA"
"-80.42","43.65","ELORA RCS","6142286","2013-02-06 11:00","2013","02","06","11:00","-7.1","","-9.5","","83","","","","31","","19","","","","97.06","","","","-14","","NA"
"-80.42","43.65","ELORA RCS","6142286","2013-02-06 12:00","2013","02","06","12:00","-8.5","","-11.6","","78","","","","33","","22","","","","97.26","","","","-16","","NA"
"-80.42","43.65","ELORA RCS","6142286","2013-02-06 13:00","2013","02","06","13:00","-10.8","","-14.7","","73","","","","34","","20","","","","97.45","","","","-19","","NA"
"-80.42","43.65","ELORA RCS","6142286","2013-02-06 14:00","2013","02","06","14:00","-11.5","","-16.8","","65","","","","34","","13","","","","97.54","","","","-18","","NA"
"-80.42","43.65","ELORA RCS","6142286","2013-02-06 15:00","2013","02","06","15:00","-11.1","","-16.5","","64","","","","35","","15","","","","97.64","","","","-18","","NA"
"-80.42","43.65","ELORA RCS","6142286","2013-02-06 16:00","2013","02","06","16:00","-10.0","","-15.1","","66","","","","31","","11","","","","97.72","","","","-16","","NA"
"-80.42","43.65","ELORA RCS","6142286","2013-02-06 17:00","2013","02","06","17:00","-9.3","","-15.2","","62","","","","32","","9","","","","97.76","","","","-14","","NA"
"-80.42","43.65","ELORA RCS","6142286","2013-02-06 18:00","2013","02","06","18:00","-8.4","","-15.1","","58","","","","30","","9","","","","97.77","","","","-13","","NA"
"-80.42","43.65","ELORA RCS","6142286","2013-02-06 19:00","2013","02","06","19:00","-8.1","","-15.1","","57","","","","30","","9","","","","97.81","","","","-13","","NA"
"-80.42","43.65","ELORA RCS","6142286","2013-02-06 20:00","2013","02","06","20:00","-7.9","","-13.1","","66","","","","31","","11","","","","97.84","","","","-13","","NA"
"-80.42","43.65","ELORA RCS","6142286","2013-02-06 21:00","2013","02","06","21:00","-7.6","","-12.8","","66","","","","23","","4","","","","97.84","","","","-10","","NA"
"-80.42","43.65","ELORA RCS","6142286","2013-02-06 22:00","2013","02","06","22:00","-8.3","","-12.7","","71","","","","22","","6","","","","97.85","","","","-12","","NA"
"-80.42","43.65","ELORA RCS","6142286","2013-02-06 23:00","2013","02","06","23:00","-8.9","","-12.5","","75","","","","30","","4","","","","97.90","","","","-11","","NA"
"-80.42","43.65","ELORA RCS","6142286","2013-02-07 00:00","2013","02","07","00:00","-11.1","","-13.7","","81","","","","","","0","","","","98.02","","","","","","NA"
"-80.42","43.65","ELORA RCS","6142286","2013-02-07 01:00","2013","02","07","01:00","-13.9","","-15.4","","88","","","","11","","4","","","","98.02","","","","-17","","NA"
"-80.42","43.65","ELORA RCS","6142286","2013-02-07 02:00","2013","02","07","02:00","-14.5","","-15.9","","89","","","","7","","6","","","","98.03","","","","-19","","NA"
"-80.42","43.65","ELORA RCS","6142286","2013-02-07 03:00","2013","02","07","03:00","-13.6","","-14.7","","91","","","","6","","6","","","","98.08","","","","-18","","NA"
"-80.42","43.65","ELORA RCS","6142286","2013-02-07 04:00","2013","02","07","04:00","-13.7","","-15.1","","89","","","","10","","9","","","","98.01","","","","-19","","NA"
"-80.42","43.65","ELORA RCS","6142286","2013-02-07 05:00","2013","02","07","05:00","-10.4","","-12.2","","87","","","","8","","6","","","","98.02","","","","-14","","NA"
"-80.42","43.65","ELORA RCS","6142286","2013-02-07 06:00","2013","02","07","06:00","-10.4","","-12.1","","87","","","","8","","6","","","","98.03","","","","-14","","NA"
"-80.42","43.65","ELORA RCS","6142286","2013-02-07 07:00","2013","02","07","07:00","-9.6","","-11.7","","85","","","","11","","9","","","","98.04","","","","-14","","NA"
"-80.42","43.65","ELORA RCS","6142286","2013-02-07 08:00","2013","02","07","08:00","-9.3","","-11.6","","83","","","","9","","7","","","","98.06","","","","-13","","NA"
"-80.42","43.65","ELORA RCS","6142286","2013-02-07 09:00","2013","02","07","09:00","-8.9","","-11.2","","83","","","","12","","7","","","","98.04","","","","-13","","NA"
"-80.42","43.65","ELORA RCS","6142286","2013-02-07 10:00","2013","02","07","10:00","-8.6","","-10.5","","86","","","","10","","9","","","","98.05","","","","-13","","NA"
"-80.42","43.65","ELORA RCS","6142286","2013-02-07 11:00","2013","02","07","11:00","-8.3","","-9.8","","89","","","","10","","9","","","","98.05","","","","-13","","NA"
"-80.42","43.65","ELORA RCS","6142286","2013-02-07 12:00","2013","02","07","12:00","-7.9","","-9.2","","90","","","","11","","9","","","","98.01","","","","-12","","NA"
"-80.42","43.65","ELORA RCS","6142286","2013-02-07 13:00","2013","02","07","13:00","-7.6","","-8.9","","90","","","","12","","11","","","","98.04","","","","-13","","NA"
"-80.42","43.65","ELORA RCS","6142286","2013-02-07 14:00","2013","02","07","14:00","-7.1","","-8.6","","89","","","","12","","9","","","","98.07","","","","-11","","NA"
"-80.42","43.65","ELORA RCS","6142286","2013-02-07 15:00","2013","02","07","15:00","-6.2","","-8.0","","87","","","","11","","15","","","","98.03","","","","-12","","NA"
"-80.42","43.65","ELORA RCS","6142286","2013-02-07 16:00","2013","02","07","16:00","-5.2","","-7.1","","86","","","","11","","15","","","","97.98","","","","-11","","NA"
"-80.42","43.65","ELORA RCS","6142286","2013-02-07 17:00","2013","02","07","17:00","-4.5","","-7.1","","82","","","","12","","20","","","","97.91","","","","-11","","NA"
"-80.42","43.65","ELORA RCS","6142286","2013-02-07 18:00","2013","02","07","18:00","-4.2","","-7.1","","80","","","","11","","22","","","","97.82","","","","-11","","NA"
"-80.42","43.65","ELORA RCS","6142286","2013-02-07 19:00","2013","02","07","19:00","-4.1","","-7.0","","80","","","","10","","20","","","","97.74","","","","-10","","NA"
"-80.42","43.65","ELORA RCS","6142286","2013-02-07 20:00","2013","02","07","20:00","-4.1","","-6.8","","81","","","","10","","24","","","","97.69","","","","-11","","NA"
"-80.42","43.65","ELORA RCS","6142286","2013-02-07 21:00","2013","02","07","21:00","-4.3","","-5.8","","89","","","","10","","20","","","","97.63","","","","-11","","NA"
"-80.42","43.65","ELORA RCS","6142286","2013-02-07 22:00","2013","02","07","22:00","-5.9","","-7.3","","90","","","","9","","26","","","","97.61","","","","-14","","NA"
"-80.42","43.65","ELORA RCS","6142286","2013-02-07 23:00","2013","02","07","23:00","-6.2","","-7.5","","90","","","","9","","24","","","","97.56","","","","-14","","NA"
"-80.42","43.65","ELORA RCS","6142286","2013-02-08 00:00","2013","02","08","00:00","-5.9","","-7.4","","89","","","","9","","26","","","","97.53","","","","-14","","NA"
"-80.42","43.65","ELORA RCS","6142286","2013-02-08 01:00","2013","02","08","01:00","-6.2","","-7.6","","90","","","","9","","24","","","","97.45","","","","-14","","NA"
"-80.42","43.65","ELORA RCS","6142286","2013-02-08 02:00","2013","02","08","02:00","-6.7","","-8.0","","90","","","","9","","28","","","","97.32","","","","-15","","NA"
"-80.42","43.65","ELORA RCS","6142286","2013-02-08 03:00","2013","02","08","03:00","-7.4","","-8.3","","93","","","","9","","24","","","","97.29","","","","-15","","NA"
"-80.42","43.65","ELORA RCS","6142286","2013-02-08 04:00","2013","02","08","04:00","-7.8","","-8.7","","93","","","","9","","24","","","","97.24","","","","-16","","NA"
"-80.42","43.65","ELORA RCS","6142286","2013-02-08 05:00","2013","02","08","05:00","-7.6","","-8.5","","93","","","","8","","24","","","","97.17","","","","-16","","NA"
"-80.42","43.65","ELORA RCS","6142286","2013-02-08 06:00","2013","02","08","06:00","-7.3","","-8.1","","94","","","","9","","33","","","","96.99","","","","-16","","NA"
"-80.42","43.65","ELORA RCS","6142286","2013-02-08 07:00","2013","02","08","07:00","-7.2","","-8.0","","94","","","","9","","20","","","","97.02","","","","-14","","NA"
"-80.42","43.65","ELORA RCS","6142286","2013-02-08 08:00","2013","02","08","08:00","-7.4","","-8.3","","93","","","","8","","24","","","","96.92","","","","-15","","NA"
"-80.42","43.65","ELORA RCS","6142286","2013-02-08 09:00","2013","02","08","09:00","-7.6","","-8.5","","93","","","","8","","28","","","","96.73","","","","-16","","NA"
"-80.42","43.65","ELORA RCS","6142286","2013-02-08 10:00","2013","02","08","10:00","-7.5","","-8.4","","93","","","","8","","30","","","","96.63","","","","-16","","NA"
"-80.42","43.65","ELORA RCS","6142286","2013-02-08 11:00","2013","02","08","11:00","-7.6","","-8.8","","91","","","","8","","28","","","","96.61","","","","-16","","NA"
"-80.42","43.65","ELORA RCS","6142286","2013-02-08 12:00","2013","02","08","12:00","-7.9","","-9.0","","92","","","","6","","28","","","","96.59","","","","-17","","NA"
"-80.42","43.65","ELORA RCS","6142286","2013-02-08 13:00","2013","02","08","13:00","-8.3","","-9.6","","90","","","","5","","24","","","","96.61","","","","-16","","NA"
"-80.42","43.65","ELORA RCS","6142286","2013-02-08 14:00","2013","02","08","14:00","-9.5","","-11.0","","89","","","","4","","26","","","","96.59","","","","-18","","NA"
"-80.42","43.65","ELORA RCS","6142286","2013-02-08 15:00","2013","02","08","15:00","-10.0","","-11.5","","89","","","","4","","26","","","","96.57","","","","-19","","NA"
"-80.42","43.65","ELORA RCS","6142286","2013-02-08 16:00","2013","02","08","16:00","-10.1","","-11.8","","87","","","","3","","26","","","","96.60","","","","-19","","NA"
"-80.42","43.65","ELORA RCS","6142286","2013-02-08 17:00","2013","02","08","17:00","-10.0","","-11.5","","89","","","","3","","24","","","","96.65","","","","-19","","NA"
"-80.42","43.65","ELORA RCS","6142286","2013-02-08 18:00","2013","02","08","18:00","-9.7","","-11.4","","87","","","","3","","30","","","","96.65","","","","-19","","NA"
"-80.42","43.65","ELORA RCS","6142286","2013-02-08 19:00","2013","02","08","19:00","-9.3","","-11.2","","86","","","","2","","30","","","","96.70","","","","-19","","NA"
"-80.42","43.65","ELORA RCS","6142286","2013-02-08 20:00","2013","02","08","20:00","-9.1","","-10.8","","87","","","","2","","26","","","","96.81","","","","-18","","NA"
"-80.42","43.65","ELORA RCS","6142286","2013-02-08 21:00","2013","02","08","21:00","-8.8","","-10.7","","86","","","","1","","24","","","","96.91","","","","-17","","NA"
"-80.42","43.65","ELORA RCS","6142286","2013-02-08 22:00","2013","02","08","22:00","-8.8","","-11.0","","84","","","","1","","24","","","","97.00","","","","-17","","NA"
"-80.42","43.65","ELORA RCS","6142286","2013-02-08 23:00","2013","02","08","23:00","-8.7","","-11.2","","82","","","","1","","22","","","","97.13","","","","-17","","NA"
"-80.42","43.65","ELORA RCS","6142286","2013-02-09 00:00","2013","02","09","00:00","-9.0","","-12.0","","79","","","","1","","28","","","","97.25","","","","-18","","NA"
"-80.42","43.65","ELORA RCS","6142286","2013-02-09 01:00","2013","02","09","01:00","-9.5","","-12.4","","79","","","","1","","22","","","","97.38","","","","-18","","NA"
"-80.42","43.65","ELORA RCS","6142286","2013-02-09 02:00","2013","02","09","02:00","-9.5","","-12.4","","79","","","","1","","20","","","","97.47","","","","-17","","NA"
"-80.42","43.65","ELORA RCS","6142286","2013-02-09 03:00","2013","02","09","03:00","-9.4","","-12.3","","79","","","","1","","24","","","","97.55","","","","-18","","NA"
"-80.42","43.65","ELORA RCS","6142286","2013-02-09 04:00","2013","02","09","04:00","-9.4","","-12.3","","79","","","","36","","20","","","","97.59","","","","-17","","NA"
"-80.42","43.65","ELORA RCS","6142286","2013-02-09 05:00","2013","02","09","05:00","-10.4","","-12.9","","82","","","","36","","17","","","","97.64","","","","-18","","NA"
"-80.42","43.65","ELORA RCS","6142286","2013-02-09 06:00","2013","02","09","06:00","-10.7","","-13.2","","82","","","","35","","19","","","","97.74","","","","-19","","NA"
"-80.42","43.65","ELORA RCS","6142286","2013-02-09 07:00","2013","02","09","07:00","-10.9","","-12.9","","85","","","","34","","15","","","","97.78","","","","-18","","NA"
"-80.42","43.65","ELORA RCS","6142286","2013-02-09 08:00","2013","02","09","08:00","-10.0","","-12.1","","85","","","","33","","20","","","","97.88","","","","-18","","NA"
"-80.42","43.65","ELORA RCS","6142286","2013-02-09 09:00","2013","02","09","09:00","-10.8","","-12.7","","86","","","","34","","13","","","","97.91","","","","-17","","NA"
"-80.42","43.65","ELORA RCS","6142286","2013-02-09 10:00","2013","02","09","10:00","-11.2","","-13.1","","86","","","","36","","15","","","","97.92","","","","-18","","NA"
"-80.42","43.65","ELORA RCS","6142286","2013-02-09 11:00","2013","02","09","11:00","-12.3","","-14.2","","86","","","","34","","15","","","","97.98","","","","-20","","NA"
"-80.42","43.65","ELORA RCS","6142286","2013-02-09 12:00","2013","02","09","12:00","-13.3","","-15.0","","87","","","","32","","15","","","","98.13","","","","-21","","NA"
"-80.42","43.65","ELORA RCS","6142286","2013-02-09 13:00","2013","02","09","13:00","-13.1","","-14.7","","88","","","","33","","11","","","","98.19","","","","-19","","NA"
"-80.42","43.65","ELORA RCS","6142286","2013-02-09 14:00","2013","02","09","14:00","-11.8","","-13.8","","85","","","","36","","11","","","","98.23","","","","-18","","NA"
"-80.42","43.65","ELORA RCS","6142286","2013-02-09 15:00","2013","02","09","15:00","-10.6","","-13.3","","80","","","","35","","11","","","","98.25","","","","-16","","NA"
"-80.42","43.65","ELORA RCS","6142286","2013-02-09 16:00","2013","02","09","16:00","-9.0","","-12.5","","76","","","","1","","9","","","","98.26","","","","-14","","NA"
"-80.42","43.65","ELORA RCS","6142286","2013-02-09 17:00","2013","02","09","17:00","-7.4","","-12.1","","69","","","","1","","6","","","","98.26","","","","-11","","NA"
"-80.42","43.65","ELORA RCS","6142286","2013-02-09 18:00","2013","02","09","18:00","-5.7","","-11.0","","66","","","","","","0","","","","98.22","","","","","","NA"
"-80.42","43.65","ELORA RCS","6142286","2013-02-09 19:00","2013","02","09","19:00","-4.2","","-11.7","","56","","","","","","0","","","","98.20","","","","","","NA"
"-80.42","43.65","ELORA RCS","6142286","2013-02-09 20:00","2013","02","09","20:00","-5.4","","-11.6","","62","","","","28","","11","","","","98.22","","","","-10","","NA"
"-80.42","43.65","ELORA RCS","6142286","2013-02-09 21:00","2013","02","09","21:00","-5.0","","-11.6","","60","","","","28","","6","","","","98.20","","","","-8","","NA"
"-80.42","43.65","ELORA RCS","6142286","2013-02-09 22:00","2013","02","09","22:00","-5.5","","-11.7","","62","","","","27","","6","","","","98.19","","","","-8","","NA"
"-80.42","43.65","ELORA RCS","6142286","2013-02-09 23:00","2013","02","09","23:00","-8.0","","-12.3","","71","","","","","","0","","","","98.16","","","","","","NA"
"-80.42","43.65","ELORA RCS","6142286","2013-02-10 00:00","2013","02","10","00:00","-10.9","","-13.1","","84","","","","32","","4","","","","98.19","","","","-13","","NA"
"-80.42","43.65","ELORA RCS","6142286","2013-02-10 01:00","2013","02","10","01:00","-13.5","","-14.9","","89","","","","","","0","","","","98.19","","","","","","NA"
"-80.42","43.65","ELORA RCS","6142286","2013-02-10 02:00","2013","02","10","02:00","-14.4","","-15.7","","90","","","","","","0","","","","98.21","","","","","","NA"
"-80.42","43.65","ELORA RCS","6142286","2013-02-10 03:00","2013","02","10","03:00","-17.0","","-18.7","","87","","","","9","","4","","","","98.18","","","","-20","","NA"
"-80.42","43.65","ELORA RCS","6142286","2013-02-10 04:00","2013","02","10","04:00","-16.8","","-18.4","","87","","","","6","","4","","","","98.16","","","","-20","","NA"
"-80.42","43.65","ELORA RCS","6142286","2013-02-10 05:00","2013","02","10","05:00","-17.9","","-19.7","","86","","","","6","","6","","","","98.14","","","","-23","","NA"
"-80.42","43.65","ELORA RCS","6142286","2013-02-10 06:00","2013","02","10","06:00","-18.3","","-20.0","","86","","","","8","","6","","","","98.13","","","","-23","","NA"
"-80.42","43.65","ELORA RCS","6142286","2013-02-10 07:00","2013","02","10","07:00","-20.1","","-22.2","","83","","","","8","","6","","","","98.09","","","","-25","","NA"
"-80.42","43.65","ELORA RCS","6142286","2013-02-10 08:00","2013","02","10","08:00","-19.7","","-21.7","","84","","","","8","","6","","","","98.07","","","","-25","","NA"
"-80.42","43.65","ELORA RCS","6142286","2013-02-10 09:00","2013","02","10","09:00","-16.3","","-17.8","","88","","","","8","","7","","","","97.99","","","","-21","","NA"
"-80.42","43.65","ELORA RCS","6142286","2013-02-10 10:00","2013","02","10","10:00","-15.1","","-16.7","","88","","","","12","","6","","","","97.99","","","","-19","","NA"
"-80.42","43.65","ELORA RCS","6142286","2013-02-10 11:00","2013","02","10","11:00","-14.2","","-15.6","","89","","","","7","","4","","","","98.00","","","","-17","","NA"
"-80.42","43.65","ELORA RCS","6142286","2013-02-10 12:00","2013","02","10","12:00","-13.6","","-15.1","","88","","","","9","","4","","","","98.01","","","","-16","","NA"
"-80.42","43.65","ELORA RCS","6142286","2013-02-10 13:00","2013","02","10","13:00","-13.5","","-14.9","","89","","","","9","","4","","","","98.03","","","","-16","","NA"
"-80.42","43.65","ELORA RCS","6142286","2013-02-10 14:00","2013","02","10","14:00","-12.0","","-13.3","","90","","","","10","","6","","","","97.98","","","","-16","","NA"
"-80.42","43.65","ELORA RCS","6142286","2013-02-10 15:00","2013","02","10","15:00","-9.2","","-10.3","","92","","","","10","","7","","","","97.93","","","","-13","","NA"
"-80.42","43.65","ELORA RCS","6142286","2013-02-10 16:00","2013","02","10","16:00","-7.1","","-8.0","","93","","","","10","","13","","","","97.77","","","","-13","","NA"
"-80.42","43.65","ELORA RCS","6142286","2013-02-10 17:00","2013","02","10","17:00","-3.0","","-8.7","","65","","","","12","","13","","","","97.69","","","","-8","","NA"
"-80.42","43.65","ELORA RCS","6142286","2013-02-10 18:00","2013","02","10","18:00","-2.0","","-8.3","","62","","","","11","","15","","","","97.62","","","","-7","","NA"
"-80.42","43.65","ELORA RCS","6142286","2013-02-10 19:00","2013","02","10","19:00","-1.7","","-9.5","","55","","","","11","","17","","","","97.55","","","","-7","","NA"
"-80.42","43.65","ELORA RCS","6142286","2013-02-10 20:00","2013","02","10","20:00","-1.4","","-10.1","","52","","","","11","","22","","","","97.40","","","","-7","","NA"
"-80.42","43.65","ELORA RCS","6142286","2013-02-10 21:00","2013","02","10","21:00","-1.8","","-11.0","","49","","","","11","","20","","","","97.36","","","","-8","","NA"
"-80.42","43.65","ELORA RCS","6142286","2013-02-10 22:00","2013","02","10","22:00","-2.4","","-9.4","","59","","","","11","","22","","","","97.27","","","","-9","","NA"
"-80.42","43.65","ELORA RCS","6142286","2013-02-10 23:00","2013","02","10","23:00","-2.3","","-8.1","","64","","","","11","","20","","","","97.21","","","","-8","","NA"
"-80.42","43.65","ELORA RCS","6142286","2013-02-11 00:00","2013","02","11","00:00","-2.0","","-4.8","","81","","","","11","","22","","","","97.16","","","","-8","","NA"
"-80.42","43.65","ELORA RCS","6142286","2013-02-11 01:00","2013","02","11","01:00","-1.8","","-3.9","","86","","","","11","","22","","","","97.02","","","","-8","","NA"
"-80.42","43.65","ELORA RCS","6142286","2013-02-11 02:00","2013","02","11","02:00","-1.3","","-3.5","","85","","","","11","","20","","","","96.88","","","","-7","","NA"
"-80.42","43.65","ELORA RCS","6142286","2013-02-11 03:00","2013","02","11","03:00","-1.1","","-2.8","","88","","","","13","","11","","","","96.92","","","","-5","","NA"
"-80.42","43.65","ELORA RCS","6142286","2013-02-11 04:00","2013","02","11","04:00","-0.3","","-2.6","","84","","","","11","","20","","","","96.69","","","","-6","","NA"
"-80.42","43.65","ELORA RCS","6142286","2013-02-11 05:00","2013","02","11","05:00","0.9","","-3.2","","74","","","","13","","19","","","","96.52","","","","","","NA"
"-80.42","43.65","ELORA RCS","6142286","2013-02-11 06:00","2013","02","11","06:00","1.2","","-3.5","","71","","","","15","","22","","","","96.48","","","","","","NA"
"-80.42","43.65","ELORA RCS","6142286","2013-02-11 07:00","2013","02","11","07:00","0.3","","-1.0","","91","","","","16","","19","","","","96.40","","","","","","NA"
"-80.42","43.65","ELORA RCS","6142286","2013-02-11 08:00","2013","02","11","08:00","0.4","","-0.3","","95","","","","16","","17","","","","96.26","","","","","","NA"
"-80.42","43.65","ELORA RCS","6142286","2013-02-11 09:00","2013","02","11","09:00","0.6","","0.1","","96","","","","17","","20","","","","96.15","","","","","","NA"
"-80.42","43.65","ELORA RCS","6142286","2013-02-11 10:00","2013","02","11","10:00","1.0","","0.5","","96","","","","18","","19","","","","96.05","","","","","","NA"
"-80.42","43.65","ELORA RCS","6142286","2013-02-11 11:00","2013","02","11","11:00","1.1","","0.7","","97","","","","18","","19","","","","95.97","","","","","","NA"
"-80.42","43.65","ELORA RCS","6142286","2013-02-11 12:00","2013","02","11","12:00","1.3","","0.9","","97","","","","16","","19","","","","95.87","","","","","","NA"
"-80.42","43.65","ELORA RCS","6142286","2013-02-11 13:00","2013","02","11","13:00","2.1","","1.7","","97","","","","18","","20","","","","95.82","","","","","","NA"
"-80.42","43.65","ELORA RCS","6142286","2013-02-11 14:00","2013","02","11","14:00","2.8","","2.3","","97","","","","18","","22","","","","95.73","","","","","","NA"
"-80.42","43.65","ELORA RCS","6142286","2013-02-11 15:00","2013","02","11","15:00","3.0","","2.5","","97","","","","20","","17","","","","95.64","","","","","","NA"
"-80.42","43.65","ELORA RCS","6142286","2013-02-11 16:00","2013","02","11","16:00","3.5","","3.0","","97","","","","22","","26","","","","95.62","","","","","","NA"
"-80.42","43.65","ELORA RCS","6142286","2013-02-11 17:00","2013","02","11","17:00","3.7","","2.2","","90","","","","23","","28","","","","95.60","","","","","","NA"
"-80.42","43.65","ELORA RCS","6142286","2013-02-11 18:00","2013","02","11","18:00","2.8","","0.9","","87","","","","24","","33","","","","95.54","","","","","","NA"
"-80.42","43.65","ELORA RCS","6142286","2013-02-11 19:00","2013","02","11","19:00","1.8","","0.3","","90","","","","23","","37","","","","95.55","","","","","","NA"
"-80.42","43.65","ELORA RCS","6142286","2013-02-11 20:00","2013","02","11","20:00","0.8","","-0.8","","89","","","","25","","37","","","","95.63","","","","","","NA"
"-80.42","43.65","ELORA RCS","6142286","2013-02-11 21:00","2013","02","11","21:00","-0.6","","-1.8","","92","","","","24","","41","","","","95.69","","","","-8","","NA"
"-80.42","43.65","ELORA RCS","6142286","2013-02-11 22:00","2013","02","11","22:00","-0.3","","-1.6","","91","","","","24","","33","","","","95.75","","","","-7","","NA"
"-80.42","43.65","ELORA RCS","6142286","2013-02-11 23:00","2013","02","11","23:00","-0.8","","-2.0","","92","","","","23","","32","","","","95.78","","","","-8","","NA"
"-80.42","43.65","ELORA RCS","6142286","2013-02-12 00:00","2013","02","12","00:00","-1.0","","-2.0","","93","","","","24","","32","","","","95.83","","","","-8","","NA"
"-80.42","43.65","ELORA RCS","6142286","2013-02-12 01:00","2013","02","12","01:00","-0.7","","-1.9","","92","","","","24","","35","","","","95.87","","","","-8","","NA"
"-80.42","43.65","ELORA RCS","6142286","2013-02-12 02:00","2013","02","12","02:00","-0.9","","-1.8","","94","","","","25","","43","","","","95.86","","","","-9","","NA"
"-80.42","43.65","ELORA RCS","6142286","2013-02-12 03:00","2013","02","12","03:00","-0.7","","-1.6","","94","","","","25","","43","","","","95.87","","","","-9","","NA"
"-80.42","43.65","ELORA RCS","6142286","2013-02-12 04:00","2013","02","12","04:00","-0.8","","-1.6","","94","","","","26","","39","","","","95.90","","","","-8","","NA"
"-80.42","43.65","ELORA RCS","6142286","2013-02-12 05:00","2013","02","12","05:00","-0.8","","-1.8","","93","","","","26","","41","","","","95.97","","","","-9","","NA"
"-80.42","43.65","ELORA RCS","6142286","2013-02-12 06:00","2013","02","12","06:00","-0.7","","-1.8","","92","","","","27","","41","","","","96.05","","","","-8","","NA"
"-80.42","43.65","ELORA RCS","6142286","2013-02-12 07:00","2013","02","12","07:00","-0.8","","-1.8","","93","","","","27","","37","","","","96.13","","","","-8","","NA"
"-80.42","43.65","ELORA RCS","6142286","2013-02-12 08:00","2013","02","12","08:00","-0.8","","-1.9","","92","","","","27","","33","","","","96.23","","","","-8","","NA"
"-80.42","43.65","ELORA RCS","6142286","2013-02-12 09:00","2013","02","12","09:00","-0.9","","-2.0","","92","","","","27","","33","","","","96.32","","","","-8","","NA"
"-80.42","43.65","ELORA RCS","6142286","2013-02-12 10:00","2013","02","12","10:00","-1.1","","-2.2","","92","","","","27","","28","","","","96.40","","","","-8","","NA"
"-80.42","43.65","ELORA RCS","6142286","2013-02-12 11:00","2013","02","12","11:00","-1.6","","-2.8","","92","","","","28","","24","","","","96.49","","","","-8","","NA"
"-80.42","43.65","ELORA RCS","6142286","2013-02-12 12:00","2013","02","12","12:00","-1.9","","-3.6","","88","","","","29","","19","","","","96.58","","","","-7","","NA"
"-80.42","43.65","ELORA RCS","6142286","2013-02-12 13:00","2013","02","12","13:00","-2.0","","-3.3","","91","","","","29","","17","","","","96.66","","","","-7","","NA"
"-80.42","43.65","ELORA RCS","6142286","2013-02-12 14:00","2013","02","12","14:00","-2.4","","-4.6","","85","","","","28","","19","","","","96.71","","","","-8","","NA"
"-80.42","43.65","ELORA RCS","6142286","2013-02-12 15:00","2013","02","12","15:00","-2.8","","-5.1","","84","","","","28","","20","","","","96.74","","","","-9","","NA"
"-80.42","43.65","ELORA RCS","6142286","2013-02-12 16:00","2013","02","12","16:00","-2.4","","-5.3","","80","","","","27","","24","","","","96.75","","","","-9","","NA"
"-80.42","43.65","ELORA RCS","6142286","2013-02-12 17:00","2013","02","12","17:00","-2.4","","-4.7","","84","","","","28","","30","","","","96.79","","","","-10","","NA"
"-80.42","43.65","ELORA RCS","6142286","2013-02-12 18:00","2013","02","12","18:00","-2.3","","-4.8","","83","","","","28","","28","","","","96.72","","","","-9","","NA"
"-80.42","43.65","ELORA RCS","6142286","2013-02-12 19:00","2013","02","12","19:00","-2.5","","-4.8","","84","","","","27","","30","","","","96.74","","","","-10","","NA"
"-80.42","43.65","ELORA RCS","6142286","2013-02-12 20:00","2013","02","12","20:00","-2.4","","-5.6","","79","","","","27","","28","","","","96.71","","","","-9","","NA"
"-80.42","43.65","ELORA RCS","6142286","2013-02-12 21:00","2013","02","12","21:00","-2.6","","-5.7","","79","","","","28","","22","","","","96.67","","","","-9","","NA"
"-80.42","43.65","ELORA RCS","6142286","2013-02-12 22:00","2013","02","12","22:00","-2.9","","-5.5","","82","","","","26","","19","","","","96.71","","","","-9","","NA"
"-80.42","43.65","ELORA RCS","6142286","2013-02-12 23:00","2013","02","12","23:00","-2.9","","-5.4","","83","","","","25","","17","","","","96.76","","","","-8","","NA"
"-80.42","43.65","ELORA RCS","6142286","2013-02-13 00:00","2013","02","13","00:00","-2.8","","-5.8","","80","","","","27","","22","","","","96.83","","","","-9","","NA"
"-80.42","43.65","ELORA RCS","6142286","2013-02-13 01:00","2013","02","13","01:00","-2.8","","-5.4","","82","","","","26","","17","","","","96.81","","","","-8","","NA"
"-80.42","43.65","ELORA RCS","6142286","2013-02-13 02:00","2013","02","13","02:00","-2.8","","-5.4","","82","","","","27","","13","","","","96.74","","","","-7","","NA"
"-80.42","43.65","ELORA RCS","6142286","2013-02-13 03:00","2013","02","13","03:00","-3.0","","-5.1","","85","","","","25","","15","","","","96.72","","","","-8","","NA"
"-80.42","43.65","ELORA RCS","6142286","2013-02-13 04:00","2013","02","13","04:00","-3.0","","-5.5","","83","","","","25","","9","","","","96.65","","","","-7","","NA"
"-80.42","43.65","ELORA RCS","6142286","2013-02-13 05:00","2013","02","13","05:00","-3.3","","-5.4","","85","","","","24","","9","","","","96.61","","","","-7","","NA"
"-80.42","43.65","ELORA RCS","6142286","2013-02-13 06:00","2013","02","13","06:00","-3.3","","-5.4","","85","","","","24","","9","","","","96.61","","","","-7","","NA"
"-80.42","43.65","ELORA RCS","6142286","2013-02-13 07:00","2013","02","13","07:00","-3.4","","-5.3","","87","","","","24","","9","","","","96.59","","","","-7","","NA"
"-80.42","43.65","ELORA RCS","6142286","2013-02-13 08:00","2013","02","13","08:00","-3.5","","-5.7","","85","","","","26","","17","","","","96.54","","","","-9","","NA"
"-80.42","43.65","ELORA RCS","6142286","2013-02-13 09:00","2013","02","13","09:00","-3.6","","-6.1","","83","","","","25","","15","","","","96.51","","","","-9","","NA"
"-80.42","43.65","ELORA RCS","6142286","2013-02-13 10:00","2013","02","13","10:00","-4.0","","-7.0","","80","","","","28","","15","","","","96.53","","","","-9","","NA"
"-80.42","43.65","ELORA RCS","6142286","2013-02-13 11:00","2013","02","13","11:00","-4.2","","-7.6","","77","","","","28","","19","","","","96.53","","","","-10","","NA"
"-80.42","43.65","ELORA RCS","6142286","2013-02-13 12:00","2013","02","13","12:00","-4.6","","-8.0","","77","","","","29","","11","","","","96.49","","","","-9","","NA"
"-80.42","43.65","ELORA RCS","6142286","2013-02-13 13:00","2013","02","13","13:00","-4.9","","-8.1","","78","","","","29","","11","","","","96.48","","","","-9","","NA"
"-80.42","43.65","ELORA RCS","6142286","2013-02-13 14:00","2013","02","13","14:00","-4.9","","-8.2","","78","","","","28","","11","","","","96.47","","","","-9","","NA"
"-80.42","43.65","ELORA RCS","6142286","2013-02-13 15:00","2013","02","13","15:00","-4.9","","-8.0","","79","","","","25","","11","","","","96.42","","","","-9","","NA"
"-80.42","43.65","ELORA RCS","6142286","2013-02-13 16:00","2013","02","13","16:00","-4.5","","-7.4","","80","","","","22","","7","","","","96.37","","","","-8","","NA"
"-80.42","43.65","ELORA RCS","6142286","2013-02-13 17:00","2013","02","13","17:00","-4.2","","-7.6","","77","","","","25","","9","","","","96.32","","","","-8","","NA"
"-80.42","43.65","ELORA RCS","6142286","2013-02-13 18:00","2013","02","13","18:00","-4.1","","-7.5","","77","","","","26","","13","","","","96.31","","","","-9","","NA"
"-80.42","43.65","ELORA RCS","6142286","2013-02-13 19:00","2013","02","13","19:00","-4.0","","-7.6","","76","","","","25","","11","","","","96.28","","","","-8","","NA"
"-80.42","43.65","ELORA RCS","6142286","2013-02-13 20:00","2013","02","13","20:00","-3.7","","-7.1","","77","","","","31","","13","","","","96.18","","","","-9","","NA"
"-80.42","43.65","ELORA RCS","6142286","2013-02-13 21:00","2013","02","13","21:00","-3.7","","-7.0","","78","","","","31","","11","","","","96.22","","","","-8","","NA"
"-80.42","43.65","ELORA RCS","6142286","2013-02-13 22:00","2013","02","13","22:00","-4.1","","-7.4","","78","","","","27","","7","","","","96.23","","","","-7","","NA"
"-80.42","43.65","ELORA RCS","6142286","2013-02-13 23:00","2013","02","13","23:00","-5.1","","-7.7","","82","","","","30","","7","","","","96.24","","","","-8","","NA"
"-80.42","43.65","ELORA RCS","6142286","2013-02-14 00:00","2013","02","14","00:00","-6.0","","-7.9","","86","","","","33","","6","","","","96.24","","","","-9","","NA"
"-80.42","43.65","ELORA RCS","6142286","2013-02-14 01:00","2013","02","14","01:00","-7.8","","-8.9","","92","","","","33","","4","","","","96.27","","","","-10","","NA"
"-80.42","43.65","ELORA RCS","6142286","2013-02-14 02:00","2013","02","14","02:00","-8.8","","-9.8","","92","","","","36","","6","","","","96.29","","","","-12","","NA"
"-80.42","43.65","ELORA RCS","6142286","2013-02-14 03:00","2013","02","14","03:00","-9.6","","-10.6","","92","","","","1","","4","","","","96.34","","","","-12","","NA"
"-80.42","43.65","ELORA RCS","6142286","2013-02-14 04:00","2013","02","14","04:00","-9.9","","-11.1","","91","","","","9","","4","","","","96.37","","","","-12","","NA"
"-80.42","43.65","ELORA RCS","6142286","2013-02-14 05:00","2013","02","14","05:00","-9.1","","-10.1","","92","","","","","","0","","","","96.39","","","","","","NA"
"-80.42","43.65","ELORA RCS","6142286","2013-02-14 06:00","2013","02","14","06:00","-9.0","","-10.0","","92","","","","","","0","","","","96.41","","","","","","NA"
"-80.42","43.65","ELORA RCS","6142286","2013-02-14 07:00","2013","02","14","07:00","-8.7","","-9.7","","92","","","","","","0","","","","96.43","","","","","","NA"
"-80.42","43.65","ELORA RCS","6142286","2013-02-14 08:00","2013","02","14","08:00","-7.8","","-8.7","","93","","","","14","","4","","","","96.41","","","","-10","","NA"
"-80.42","43.65","ELORA RCS","6142286","2013-02-14 09:00","2013","02","14","09:00","-7.4","","-8.3","","93","","","","15","","6","","","","96.40","","","","-11","","NA"
"-80.42","43.65","ELORA RCS","6142286","2013-02-14 10:00","2013","02","14","10:00","-6.4","","-7.2","","94","","","","15","","9","","","","96.39","","","","-11","","NA"
"-80.42","43.65","ELORA RCS","6142286","2013-02-14 11:00","2013","02","14","11:00","-6.0","","-6.7","","95","","","","15","","6","","","","96.41","","","","-9","","NA"
"-80.42","43.65","ELORA RCS","6142286","2013-02-14 12:00","2013","02","14","12:00","-5.3","","-6.0","","95","","","","15","","7","","","","96.41","","","","-9","","NA"
"-80.42","43.65","ELORA RCS","6142286","2013-02-14 13:00","2013","02","14","13:00","-4.8","","-5.4","","96","","","","15","","7","","","","96.44","","","","-8","","NA"
"-80.42","43.65","ELORA RCS","6142286","2013-02-14 14:00","2013","02","14","14:00","-3.6","","-4.2","","96","","","","18","","13","","","","96.46","","","","-8","","NA"
"-80.42","43.65","ELORA RCS","6142286","2013-02-14 15:00","2013","02","14","15:00","-3.0","","-3.5","","96","","","","18","","15","","","","96.45","","","","-8","","NA"
"-80.42","43.65","ELORA RCS","6142286","2013-02-14 16:00","2013","02","14","16:00","-2.2","","-3.0","","94","","","","18","","17","","","","96.41","","","","-8","","NA"
"-80.42","43.65","ELORA RCS","6142286","2013-02-14 17:00","2013","02","14","17:00","-1.3","","-2.6","","91","","","","18","","19","","","","96.36","","","","-7","","NA"
"-80.42","43.65","ELORA RCS","6142286","2013-02-14 18:00","2013","02","14","18:00","-0.7","","-2.1","","90","","","","19","","20","","","","96.29","","","","-6","","NA"
"-80.42","43.65","ELORA RCS","6142286","2013-02-14 19:00","2013","02","14","19:00","-0.2","","-1.4","","92","","","","19","","19","","","","96.24","","","","-5","","NA"
"-80.42","43.65","ELORA RCS","6142286","2013-02-14 20:00","2013","02","14","20:00","0.0","","-1.1","","92","","","","19","","19","","","","96.20","","","","-5","","NA"
"-80.42","43.65","ELORA RCS","6142286","2013-02-14 21:00","2013","02","14","21:00","0.0","","-0.9","","94","","","","19","","19","","","","96.19","","","","-5","","NA"
"-80.42","43.65","ELORA RCS","6142286","2013-02-14 22:00","2013","02","14","22:00","-0.1","","-0.8","","95","","","","17","","20","","","","96.14","","","","-5","","NA"
"-80.42","43.65","ELORA RCS","6142286","2013-02-14 23:00","2013","02","14","23:00","-0.1","","-0.6","","96","","","","19","","19","","","","96.16","","","","-5","","NA"
"-80.42","43.65","ELORA RCS","6142286","2013-02-15 00:00","2013","02","15","00:00","0.1","","-0.3","","97","","","","20","","19","","","","96.16","","","","","","NA"
"-80.42","43.65","ELORA RCS","6142286","2013-02-15 01:00","2013","02","15","01:00","0.3","","-0.1","","97","","","","21","","26","","","","96.14","","","","","","NA"
"-80.42","43.65","ELORA RCS","6142286","2013-02-15 02:00","2013","02","15","02:00","0.3","","-0.1","","97","","","","21","","24","","","","96.07","","","","","","NA"
"-80.42","43.65","ELORA RCS","6142286","2013-02-15 03:00","2013","02","15","03:00","0.4","","0.0","","97","","","","22","","26","","","","96.02","","","","","","NA"
"-80.42","43.65","ELORA RCS","6142286","2013-02-15 04:00","2013","02","15","04:00","0.6","","0.1","","96","","","","23","","24","","","","96.01","","","","","","NA"
"-80.42","43.65","ELORA RCS","6142286","2013-02-15 05:00","2013","02","15","05:00","0.3","","-0.2","","96","","","","23","","30","","","","95.99","","","","","","NA"
"-80.42","43.65","ELORA RCS","6142286","2013-02-15 06:00","2013","02","15","06:00","0.4","","-0.2","","96","","","","23","","32","","","","95.99","","","","","","NA"
"-80.42","43.65","ELORA RCS","6142286","2013-02-15 07:00","2013","02","15","07:00","0.1","","-0.7","","94","","","","24","","33","","","","96.01","","","","","","NA"
"-80.42","43.65","ELORA RCS","6142286","2013-02-15 08:00","2013","02","15","08:00","-0.5","","-1.4","","94","","","","27","","37","","","","96.08","","","","-8","","NA"
"-80.42","43.65","ELORA RCS","6142286","2013-02-15 09:00","2013","02","15","09:00","-1.8","","-3.0","","91","","","","27","","33","","","","96.19","","","","-9","","NA"
"-80.42","43.65","ELORA RCS","6142286","2013-02-15 10:00","2013","02","15","10:00","-2.8","","-4.0","","91","","","","27","","32","","","","96.33","","","","-10","","NA"
"-80.42","43.65","ELORA RCS","6142286","2013-02-15 11:00","2013","02","15","11:00","-3.0","","-4.1","","92","","","","27","","33","","","","96.41","","","","-11","","NA"
"-80.42","43.65","ELORA RCS","6142286","2013-02-15 12:00","2013","02","15","12:00","-3.8","","-5.0","","91","","","","27","","35","","","","96.50","","","","-12","","NA"
"-80.42","43.65","ELORA RCS","6142286","2013-02-15 13:00","2013","02","15","13:00","-4.4","","-5.9","","89","","","","27","","33","","","","96.63","","","","-13","","NA"
"-80.42","43.65","ELORA RCS","6142286","2013-02-15 14:00","2013","02","15","14:00","-4.8","","-6.4","","89","","","","26","","28","","","","96.72","","","","-12","","NA"
"-80.42","43.65","ELORA RCS","6142286","2013-02-15 15:00","2013","02","15","15:00","-5.0","","-6.7","","88","","","","26","","28","","","","96.77","","","","-13","","NA"
"-80.42","43.65","ELORA RCS","6142286","2013-02-15 16:00","2013","02","15","16:00","-5.1","","-7.1","","86","","","","27","","26","","","","96.81","","","","-13","","NA"
"-80.42","43.65","ELORA RCS","6142286","2013-02-15 17:00","2013","02","15","17:00","-5.0","","-7.7","","81","","","","29","","28","","","","96.87","","","","-13","","NA"
"-80.42","43.65","ELORA RCS","6142286","2013-02-15 18:00","2013","02","15","18:00","-5.2","","-8.5","","78","","","","27","","28","","","","96.88","","","","-13","","NA"
"-80.42","43.65","ELORA RCS","6142286","2013-02-15 19:00","2013","02","15","19:00","-5.5","","-8.8","","78","","","","29","","32","","","","96.92","","","","-14","","NA"
"-80.42","43.65","ELORA RCS","6142286","2013-02-15 20:00","2013","02","15","20:00","-5.5","","-9.9","","71","","","","28","","30","","","","96.93","","","","-14","","NA"
"-80.42","43.65","ELORA RCS","6142286","2013-02-15 21:00","2013","02","15","21:00","-6.3","","-10.4","","73","","","","26","","24","","","","96.98","","","","-14","","NA"
"-80.42","43.65","ELORA RCS","6142286","2013-02-15 22:00","2013","02","15","22:00","-6.8","","-9.1","","84","","","","26","","22","","","","97.04","","","","-14","","NA"
"-80.42","43.65","ELORA RCS","6142286","2013-02-15 23:00","2013","02","15","23:00","-6.8","","-8.8","","86","","","","29","","17","","","","97.09","","","","-13","","NA"
"-80.42","43.65","ELORA RCS","6142286","2013-02-16 00:00","2013","02","16","00:00","-9.1","","-11.3","","84","","","","31","","15","","","","97.16","","","","-16","","NA"
"-80.42","43.65","ELORA RCS","6142286","2013-02-16 01:00","2013","02","16","01:00","-10.5","","-12.1","","88","","","","29","","9","","","","97.20","","","","-15","","NA"
"-80.42","43.65","ELORA RCS","6142286","2013-02-16 02:00","2013","02","16","02:00","-11.1","","-12.2","","92","","","","28","","9","","","","97.23","","","","-16","","NA"
"-80.42","43.65","ELORA RCS","6142286","2013-02-16 03:00","2013","02","16","03:00","-12.1","","-13.1","","92","","","","26","","9","","","","97.22","","","","-17","","NA"
"-80.42","43.65","ELORA RCS","6142286","2013-02-16 04:00","2013","02","16","04:00","-12.1","","-13.3","","91","","","","25","","6","","","","97.19","","","","-16","","NA"
"-80.42","43.65","ELORA RCS","6142286","2013-02-16 05:00","2013","02","16","05:00","-12.1","","-13.3","","91","","","","","","0","","","","97.13","","","","","","NA"
"-80.42","43.65","ELORA RCS","6142286","2013-02-16 06:00","2013","02","16","06:00","-15.1","","-16.4","","90","","","","6","","6","","","","97.12","","","","-19","","NA"
"-80.42","43.65","ELORA RCS","6142286","2013-02-16 07:00","2013","02","16","07:00","-15.6","","-17.0","","89","","","","11","","6","","","","97.10","","","","-20","","NA"
"-80.42","43.65","ELORA RCS","6142286","2013-02-16 08:00","2013","02","16","08:00","-12.3","","-13.4","","91","","","","13","","6","","","","97.07","","","","-16","","NA"
"-80.42","43.65","ELORA RCS","6142286","2013-02-16 09:00","2013","02","16","09:00","-11.8","","-13.0","","91","","","","9","","4","","","","97.03","","","","-14","","NA"
"-80.42","43.65","ELORA RCS","6142286","2013-02-16 10:00","2013","02","16","10:00","-11.9","","-13.2","","90","","","","","","0","","","","97.02","","","","","","NA"
"-80.42","43.65","ELORA RCS","6142286","2013-02-16 11:00","2013","02","16","11:00","-11.5","","-12.7","","91","","","","","","0","","","","97.01","","","","","","NA"
"-80.42","43.65","ELORA RCS","6142286","2013-02-16 12:00","2013","02","16","12:00","-11.9","","-13.2","","90","","","","","","0","","","","96.99","","","","","","NA"
"-80.42","43.65","ELORA RCS","6142286","2013-02-16 13:00","2013","02","16","13:00","-12.6","","-13.9","","90","","","","6","","4","","","","97.01","","","","-15","","NA"
"-80.42","43.65","ELORA RCS","6142286","2013-02-16 14:00","2013","02","16","14:00","-10.7","","-11.8","","92","","","","","","0","","","","97.01","","","","","","NA"
"-80.42","43.65","ELORA RCS","6142286","2013-02-16 15:00","2013","02","16","15:00","-8.5","","-9.5","","92","","","","","","0","","","","97.00","","","","","","NA"
"-80.42","43.65","ELORA RCS","6142286","2013-02-16 16:00","2013","02","16","16:00","-7.1","","-8.0","","93","","","","31","","4","","","","96.98","","","","-9","","NA"
"-80.42","43.65","ELORA RCS","6142286","2013-02-16 17:00","2013","02","16","17:00","-7.0","","-8.0","","93","","","","21","","4","","","","96.96","","","","-9","","NA"
"-80.42","43.65","ELORA RCS","6142286","2013-02-16 18:00","2013","02","16","18:00","-6.0","","-8.9","","80","","","","","","0","","","","96.89","","","","","","NA"
"-80.42","43.65","ELORA RCS","6142286","2013-02-16 19:00","2013","02","16","19:00","-6.1","","-10.0","","74","","","","30","","7","","","","96.84","","","","-9","","NA"
"-80.42","43.65","ELORA RCS","6142286","2013-02-16 20:00","2013","02","16","20:00","-6.4","","-10.4","","73","","","","28","","9","","","","96.81","","","","-11","","NA"
"-80.42","43.65","ELORA RCS","6142286","2013-02-16 21:00","2013","02","16","21:00","-6.8","","-8.5","","88","","","","24","","4","","","","96.84","","","","-9","","NA"
"-80.42","43.65","ELORA RCS","6142286","2013-02-16 22:00","2013","02","16","22:00","-6.6","","-10.3","","75","","","","31","","6","","","","96.86","","","","-10","","NA"
"-80.42","43.65","ELORA RCS","6142286","2013-02-16 23:00","2013","02","16","23:00","-8.8","","-11.3","","82","","","","31","","11","","","","96.91","","","","-14","","NA"
"-80.42","43.65","ELORA RCS","6142286","2013-02-17 00:00","2013","02","17","00:00","-9.4","","-10.6","","91","","","","32","","6","","","","96.96","","","","-13","","NA"
"-80.42","43.65","ELORA RCS","6142286","2013-02-17 01:00","2013","02","17","01:00","-9.9","","-11.1","","91","","","","5","","7","","","","96.98","","","","-14","","NA"
"-80.42","43.65","ELORA RCS","6142286","2013-02-17 02:00","2013","02","17","02:00","-12.0","","-13.6","","88","","","","5","","11","","","","96.95","","","","-18","","NA"
"-80.42","43.65","ELORA RCS","6142286","2013-02-17 03:00","2013","02","17","03:00","-12.4","","-13.7","","90","","","","1","","7","","","","96.96","","","","-17","","NA"
"-80.42","43.65","ELORA RCS","6142286","2013-02-17 04:00","2013","02","17","04:00","-13.6","","-15.0","","89","","","","1","","9","","","","96.92","","","","-19","","NA"
"-80.42","43.65","ELORA RCS","6142286","2013-02-17 05:00","2013","02","17","05:00","-14.1","","-15.6","","88","","","","2","","9","","","","96.89","","","","-20","","NA"
"-80.42","43.65","ELORA RCS","6142286","2013-02-17 06:00","2013","02","17","06:00","-15.3","","-16.7","","89","","","","1","","6","","","","96.90","","","","-20","","NA"
"-80.42","43.65","ELORA RCS","6142286","2013-02-17 07:00","2013","02","17","07:00","-16.3","","-17.8","","88","","","","1","","6","","","","96.92","","","","-21","","NA"
"-80.42","43.65","ELORA RCS","6142286","2013-02-17 08:00","2013","02","17","08:00"
"-80.42","43.65","ELORA RCS","6142286","2013-02-17 09:00","2013","02","17","09:00","-17.6","","-19.3","","87","","","","1","","4","","","","96.94","","","","-21","","NA"
"-80.42","43.65","ELORA RCS","6142286","2013-02-17 10:00","2013","02","17","10:00","-17.5","","-19.3","","86","","","","1","","6","","","","96.99","","","","-22","","NA"
"-80.42","43.65","ELORA RCS","6142286","2013-02-17 11:00","2013","02","17","11:00","-18.1","","-19.8","","86","","","","2","","4","","","","97.03","","","","-21","","NA"
"-80.42","43.65","ELORA RCS","6142286","2013-02-17 12:00","2013","02","17","12:00","-18.7","","-20.4","","86","","","","2","","6","","","","97.07","","","","-24","","NA"
"-80.42","43.65","ELORA RCS","6142286","2013-02-17 13:00","2013","02","17","13:00","-20.0","","-22.0","","84","","","","35","","7","","","","97.11","","","","-26","","NA"
"-80.42","43.65","ELORA RCS","6142286","2013-02-17 14:00","2013","02","17","14:00","-18.2","","-19.9","","86","","","","35","","6","","","","97.13","","","","-23","","NA"
"-80.42","43.65","ELORA RCS","6142286","2013-02-17 15:00","2013","02","17","15:00","-15.1","","-16.8","","87","","","","35","","15","","","","97.14","","","","-23","","NA"
"-80.42","43.65","ELORA RCS","6142286","2013-02-17 16:00","2013","02","17","16:00","-14.0","","-17.2","","77","","","","34","","22","","","","97.19","","","","-23","","NA"
"-80.42","43.65","ELORA RCS","6142286","2013-02-17 17:00","2013","02","17","17:00","-13.5","","-17.2","","74","","","","32","","20","","","","97.21","","","","-22","","NA"
"-80.42","43.65","ELORA RCS","6142286","2013-02-17 18:00","2013","02","17","18:00","-12.7","","-16.9","","71","","","","32","","22","","","","97.20","","","","-22","","NA"
"-80.42","43.65","ELORA RCS","6142286","2013-02-17 19:00","2013","02","17","19:00","-12.6","","-18.6","","61","","","","32","","32","","","","97.20","","","","-23","","NA"
"-80.42","43.65","ELORA RCS","6142286","2013-02-17 20:00","2013","02","17","20:00","-12.4","","-17.4","","66","","","","31","","32","","","","97.21","","","","-23","","NA"
"-80.42","43.65","ELORA RCS","6142286","2013-02-17 21:00","2013","02","17","21:00","-12.2","","-16.1","","73","","","","32","","26","","","","97.25","","","","-22","","NA"
"-80.42","43.65","ELORA RCS","6142286","2013-02-17 22:00","2013","02","17","22:00","-12.6","","-16.1","","75","","","","32","","20","","","","97.28","","","","-21","","NA"
"-80.42","43.65","ELORA RCS","6142286","2013-02-17 23:00","2013","02","17","23:00","-13.8","","-17.0","","77","","","","31","","17","","","","97.34","","","","-22","","NA"
"-80.42","43.65","ELORA RCS","6142286","2013-02-18 00:00","2013","02","18","00:00","-15.1","","-17.5","","82","","","","31","","11","","","","97.39","","","","-22","","NA"
"-80.42","43.65","ELORA RCS","6142286","2013-02-18 01:00","2013","02","18","01:00","-16.1","","-17.7","","87","","","","31","","6","","","","97.44","","","","-21","","NA"
"-80.42","43.65","ELORA RCS","6142286","2013-02-18 02:00","2013","02","18","02:00","-17.2","","-18.6","","89","","","","30","","6","","","","97.50","","","","-22","","NA"
"-80.42","43.65","ELORA RCS","6142286","2013-02-18 03:00","2013","02","18","03:00","-19.2","","-21.1","","85","","","","","","0","","","","97.58","","","","","","NA"
"-80.42","43.65","ELORA RCS","6142286","2013-02-18 04:00","2013","02","18","04:00","-18.8","","-20.6","","86","","","","","","0","","","","97.62","","","","","","NA"
"-80.42","43.65","ELORA RCS","6142286","2013-02-18 05:00","2013","02","18","05:00","-19.9","","-21.8","","85","","","","7","","4","","","","97.59","","","","-23","","NA"
"-80.42","43.65","ELORA RCS","6142286","2013-02-18 06:00","2013","02","18","06:00","-17.9","","-19.6","","87","","","","","","0","","","","97.65","","","","","","NA"
"-80.42","43.65","ELORA RCS","6142286","2013-02-18 07:00","2013","02","18","07:00","-16.4","","-18.1","","87","","","","1","","4","","","","97.64","","","","-19","","NA"
"-80.42","43.65","ELORA RCS","6142286","2013-02-18 08:00","2013","02","18","08:00","-16.3","","-17.9","","87","","","","2","","4","","","","97.66","","","","-19","","NA"
"-80.42","43.65","ELORA RCS","6142286","2013-02-18 09:00","2013","02","18","09:00","-16.5","","-18.2","","87","","","","","","0","","","","97.64","","","","","","NA"
"-80.42","43.65","ELORA RCS","6142286","2013-02-18 10:00","2013","02","18","10:00","-17.3","","-19.0","","87","","","","","","0","","","","97.67","","","","","","NA"
"-80.42","43.65","ELORA RCS","6142286","2013-02-18 11:00","2013","02","18","11:00","-17.2","","-18.9","","87","","","","","","0","","","","97.69","","","","","","NA"
"-80.42","43.65","ELORA RCS","6142286","2013-02-18 12:00","2013","02","18","12:00","-17.1","","-18.8","","87","","","","10","","4","","","","97.68","","","","-20","","NA"
"-80.42","43.65","ELORA RCS","6142286","2013-02-18 13:00","2013","02","18","13:00","-17.2","","-18.9","","87","","","","10","","6","","","","97.67","","","","-22","","NA"
"-80.42","43.65","ELORA RCS","6142286","2013-02-18 14:00","2013","02","18","14:00","-14.6","","-16.2","","88","","","","12","","6","","","","97.62","","","","-19","","NA"
"-80.42","43.65","ELORA RCS","6142286","2013-02-18 15:00","2013","02","18","15:00","-10.7","","-13.4","","80","","","","16","","13","","","","97.54","","","","-17","","NA"
"-80.42","43.65","ELORA RCS","6142286","2013-02-18 16:00","2013","02","18","16:00","-7.5","","-12.2","","69","","","","18","","19","","","","97.49","","","","-15","","NA"
"-80.42","43.65","ELORA RCS","6142286","2013-02-18 17:00","2013","02","18","17:00","-6.7","","-11.4","","69","","","","16","","24","","","","97.36","","","","-14","","NA"
"-80.42","43.65","ELORA RCS","6142286","2013-02-18 18:00","2013","02","18","18:00","-5.5","","-10.0","","71","","","","16","","22","","","","97.30","","","","-13","","NA"
"-80.42","43.65","ELORA RCS","6142286","2013-02-18 19:00","2013","02","18","19:00","-4.9","","-9.9","","68","","","","16","","24","","","","97.20","","","","-12","","NA"
"-80.42","43.65","ELORA RCS","6142286","2013-02-18 20:00","2013","02","18","20:00","-4.2","","-9.6","","66","","","","14","","22","","","","97.11","","","","-11","","NA"
"-80.42","43.65","ELORA RCS","6142286","2013-02-18 21:00","2013","02","18","21:00","-3.8","","-9.6","","64","","","","13","","19","","","","96.98","","","","-10","","NA"
"-80.42","43.65","ELORA RCS","6142286","2013-02-18 22:00","2013","02","18","22:00","-4.1","","-9.9","","64","","","","14","","20","","","","96.96","","","","-10","","NA"
"-80.42","43.65","ELORA RCS","6142286","2013-02-18 23:00","2013","02","18","23:00","-4.9","","-10.0","","67","","","","12","","17","","","","96.86","","","","-11","","NA"
"-80.42","43.65","ELORA RCS","6142286","2013-02-19 00:00","2013","02","19","00:00","-5.4","","-10.0","","70","","","","13","","17","","","","96.81","","","","-11","","NA"
"-80.42","43.65","ELORA RCS","6142286","2013-02-19 01:00","2013","02","19","01:00","-4.9","","-9.1","","72","","","","12","","19","","","","96.72","","","","-11","","NA"
"-80.42","43.65","ELORA RCS","6142286","2013-02-19 02:00","2013","02","19","02:00","-4.2","","-7.9","","75","","","","11","","15","","","","96.66","","","","-10","","NA"
"-80.42","43.65","ELORA RCS","6142286","2013-02-19 03:00","2013","02","19","03:00","-3.4","","-6.8","","77","","","","11","","15","","","","96.57","","","","-9","","NA"
"-80.42","43.65","ELORA RCS","6142286","2013-02-19 04:00","2013","02","19","04:00","-2.4","","-6.1","","76","","","","11","","15","","","","96.45","","","","-7","","NA"
"-80.42","43.65","ELORA RCS","6142286","2013-02-19 05:00","2013","02","19","05:00","-2.1","","-5.5","","77","","","","9","","17","","","","96.36","","","","-7","","NA"
"-80.42","43.65","ELORA RCS","6142286","2013-02-19 06:00","2013","02","19","06:00","-1.7","","-4.8","","79","","","","11","","15","","","","96.27","","","","-7","","NA"
"-80.42","43.65","ELORA RCS","6142286","2013-02-19 07:00","2013","02","19","07:00","-1.5","","-4.3","","81","","","","11","","13","","","","96.21","","","","-6","","NA"
"-80.42","43.65","ELORA RCS","6142286","2013-02-19 08:00","2013","02","19","08:00","-0.8","","-3.8","","80","","","","12","","19","","","","96.04","","","","-6","","NA"
"-80.42","43.65","ELORA RCS","6142286","2013-02-19 09:00","2013","02","19","09:00","-0.7","","-2.4","","88","","","","14","","19","","","","95.94","","","","-6","","NA"
"-80.42","43.65","ELORA RCS","6142286","2013-02-19 10:00","2013","02","19","10:00","0.3","","-0.2","","96","","","","15","","24","","","","95.77","","","","","","NA"
"-80.42","43.65","ELORA RCS","6142286","2013-02-19 11:00","2013","02","19","11:00","0.5","","0.0","","96","","","","16","","28","","","","95.61","","","","","","NA"
"-80.42","43.65","ELORA RCS","6142286","2013-02-19 12:00","2013","02","19","12:00","0.8","","0.3","","96","","","","17","","28","","","","95.51","","","","","","NA"
"-80.42","43.65","ELORA RCS","6142286","2013-02-19 13:00","2013","02","19","13:00","0.8","","0.3","","96","","","","18","","26","","","","95.45","","","","","","NA"
"-80.42","43.65","ELORA RCS","6142286","2013-02-19 14:00","2013","02","19","14:00","2.0","","1.4","","96","","","","19","","28","","","","95.36","","","","","","NA"
"-80.42","43.65","ELORA RCS","6142286","2013-02-19 15:00","2013","02","19","15:00","1.9","","1.3","","96","","","","22","","32","","","","95.37","","","","","","NA"
"-80.42","43.65","ELORA RCS","6142286","2013-02-19 16:00","2013","02","19","16:00","1.5","","0.6","","94","","","","25","","28","","","","95.44","","","","","","NA"
"-80.42","43.65","ELORA RCS","6142286","2013-02-19 17:00","2013","02","19","17:00","1.4","","0.4","","93","","","","24","","30","","","","95.44","","","","","","NA"
"-80.42","43.65","ELORA RCS","6142286","2013-02-19 18:00","2013","02","19","18:00","0.5","","-0.4","","94","","","","24","","35","","","","95.41","","","","","","NA"
"-80.42","43.65","ELORA RCS","6142286","2013-02-19 19:00","2013","02","19","19:00","-1.2","","-1.8","","96","","","","23","","33","","","","95.46","","","","-8","","NA"
"-80.42","43.65","ELORA RCS","6142286","2013-02-19 20:00","2013","02","19","20:00","-2.6","","-3.4","","94","","","","23","","32","","","","95.54","","","","-10","","NA"
"-80.42","43.65","ELORA RCS","6142286","2013-02-19 21:00","2013","02","19","21:00","-3.8","","-4.8","","93","","","","24","","33","","","","95.65","","","","-12","","NA"
"-80.42","43.65","ELORA RCS","6142286","2013-02-19 22:00","2013","02","19","22:00","-4.3","","-5.2","","93","","","","24","","26","","","","95.73","","","","-12","","NA"
"-80.42","43.65","ELORA RCS","6142286","2013-02-19 23:00","2013","02","19","23:00","-5.2","","-6.3","","92","","","","25","","30","","","","95.84","","","","-13","","NA"
"-80.42","43.65","ELORA RCS","6142286","2013-02-20 00:00","2013","02","20","00:00","-5.8","","-7.0","","91","","","","24","","26","","","","95.93","","","","-14","","NA"
"-80.42","43.65","ELORA RCS","6142286","2013-02-20 01:00","2013","02","20","01:00","-6.3","","-7.6","","90","","","","24","","32","","","","95.96","","","","-15","","NA"
"-80.42","43.65","ELORA RCS","6142286","2013-02-20 02:00","2013","02","20","02:00","-6.4","","-7.5","","92","","","","24","","32","","","","95.99","","","","-15","","NA"
"-80.42","43.65","ELORA RCS","6142286","2013-02-20 03:00","2013","02","20","03:00","-6.2","","-7.3","","92","","","","26","","28","","","","96.04","","","","-14","","NA"
"-80.42","43.65","ELORA RCS","6142286","2013-02-20 04:00","2013","02","20","04:00","-6.8","","-8.3","","89","","","","27","","35","","","","96.08","","","","-16","","NA"
"-80.42","43.65","ELORA RCS","6142286","2013-02-20 05:00","2013","02","20","05:00","-7.7","","-9.3","","88","","","","27","","30","","","","96.10","","","","-17","","NA"
"-80.42","43.65","ELORA RCS","6142286","2013-02-20 06:00","2013","02","20","06:00","-8.3","","-9.8","","89","","","","27","","33","","","","96.14","","","","-18","","NA"
"-80.42","43.65","ELORA RCS","6142286","2013-02-20 07:00","2013","02","20","07:00","-8.6","","-10.1","","89","","","","26","","33","","","","96.18","","","","-18","","NA"
"-80.42","43.65","ELORA RCS","6142286","2013-02-20 08:00","2013","02","20","08:00","-9.1","","-10.7","","88","","","","27","","32","","","","96.22","","","","-19","","NA"
"-80.42","43.65","ELORA RCS","6142286","2013-02-20 09:00","2013","02","20","09:00","-9.3","","-10.9","","88","","","","26","","32","","","","96.25","","","","-19","","NA"
"-80.42","43.65","ELORA RCS","6142286","2013-02-20 10:00","2013","02","20","10:00","-9.6","","-11.2","","88","","","","26","","32","","","","96.30","","","","-19","","NA"
"-80.42","43.65","ELORA RCS","6142286","2013-02-20 11:00","2013","02","20","11:00","-9.6","","-11.1","","89","","","","27","","33","","","","96.34","","","","-19","","NA"
"-80.42","43.65","ELORA RCS","6142286","2013-02-20 12:00","2013","02","20","12:00","-9.7","","-11.7","","85","","","","28","","26","","","","96.43","","","","-19","","NA"
"-80.42","43.65","ELORA RCS","6142286","2013-02-20 13:00","2013","02","20","13:00","-10.1","","-12.3","","84","","","","28","","33","","","","96.49","","","","-20","","NA"
"-80.42","43.65","ELORA RCS","6142286","2013-02-20 14:00","2013","02","20","14:00","-9.8","","-11.8","","85","","","","28","","33","","","","96.54","","","","-20","","NA"
"-80.42","43.65","ELORA RCS","6142286","2013-02-20 15:00","2013","02","20","15:00","-9.1","","-11.0","","86","","","","28","","32","","","","96.59","","","","-19","","NA"
"-80.42","43.65","ELORA RCS","6142286","2013-02-20 16:00","2013","02","20","16:00","-8.4","","-10.7","","83","","","","29","","33","","","","96.67","","","","-18","","NA"
"-80.42","43.65","ELORA RCS","6142286","2013-02-20 17:00","2013","02","20","17:00","-8.3","","-10.9","","81","","","","30","","32","","","","96.75","","","","-18","","NA"
"-80.42","43.65","ELORA RCS","6142286","2013-02-20 18:00","2013","02","20","18:00","-8.3","","-10.5","","84","","","","29","","32","","","","96.80","","","","-18","","NA"
"-80.42","43.65","ELORA RCS","6142286","2013-02-20 19:00","2013","02","20","19:00","-8.1","","-10.5","","83","","","","30","","35","","","","96.85","","","","-18","","NA"
"-80.42","43.65","ELORA RCS","6142286","2013-02-20 20:00","2013","02","20","20:00","-8.0","","-10.6","","82","","","","29","","32","","","","96.93","","","","-17","","NA"
"-80.42","43.65","ELORA RCS","6142286","2013-02-20 21:00","2013","02","20","21:00","-8.5","","-10.5","","85","","","","29","","28","","","","97.02","","","","-17","","NA"
"-80.42","43.65","ELORA RCS","6142286","2013-02-20 22:00","2013","02","20","22:00","-9.2","","-11.2","","85","","","","28","","32","","","","97.11","","","","-19","","NA"
"-80.42","43.65","ELORA RCS","6142286","2013-02-20 23:00","2013","02","20","23:00","-9.5","","-11.4","","86","","","","28","","32","","","","97.21","","","","-19","","NA"
"-80.42","43.65","ELORA RCS","6142286","2013-02-21 00:00","2013","02","21","00:00","-9.5","","-11.7","","84","","","","28","","32","","","","97.25","","","","-19","","NA"
"-80.42","43.65","ELORA RCS","6142286","2013-02-21 01:00","2013","02","21","01:00","-9.2","","-11.8","","81","","","","29","","35","","","","97.26","","","","-19","","NA"
"-80.42","43.65","ELORA RCS","6142286","2013-02-21 02:00","2013","02","21","02:00","-8.9","","-11.7","","80","","","","29","","28","","","","97.26","","","","-18","","NA"
"-80.42","43.65","ELORA RCS","6142286","2013-02-21 03:00","2013","02","21","03:00","-8.8","","-11.3","","82","","","","29","","32","","","","97.27","","","","-18","","NA"
"-80.42","43.65","ELORA RCS","6142286","2013-02-21 04:00","2013","02","21","04:00","-8.9","","-11.9","","79","","","","30","","30","","","","97.23","","","","-18","","NA"
"-80.42","43.65","ELORA RCS","6142286","2013-02-21 05:00","2013","02","21","05:00","-9.3","","-11.7","","83","","","","30","","26","","","","97.25","","","","-18","","NA"
"-80.42","43.65","ELORA RCS","6142286","2013-02-21 06:00","2013","02","21","06:00","-10.4","","-12.7","","83","","","","34","","20","","","","97.28","","","","-18","","NA"
"-80.42","43.65","ELORA RCS","6142286","2013-02-21 07:00","2013","02","21","07:00","-11.1","","-13.1","","85","","","","33","","19","","","","97.36","","","","-19","","NA"
"-80.42","43.65","ELORA RCS","6142286","2013-02-21 08:00","2013","02","21","08:00","-11.6","","-13.5","","86","","","","32","","17","","","","97.38","","","","-19","","NA"
"-80.42","43.65","ELORA RCS","6142286","2013-02-21 09:00","2013","02","21","09:00","-12.3","","-14.3","","85","","","","33","","24","","","","97.44","","","","-22","","NA"
"-80.42","43.65","ELORA RCS","6142286","2013-02-21 10:00","2013","02","21","10:00","-13.2","","-15.2","","85","","","","34","","24","","","","97.55","","","","-23","","NA"
"-80.42","43.65","ELORA RCS","6142286","2013-02-21 11:00","2013","02","21","11:00","-14.0","","-16.2","","83","","","","33","","24","","","","97.65","","","","-24","","NA"
"-80.42","43.65","ELORA RCS","6142286","2013-02-21 12:00","2013","02","21","12:00","-14.0","","-16.1","","84","","","","33","","20","","","","97.70","","","","-23","","NA"
"-80.42","43.65","ELORA RCS","6142286","2013-02-21 13:00","2013","02","21","13:00","-14.0","","-16.4","","82","","","","33","","20","","","","97.80","","","","-23","","NA"
"-80.42","43.65","ELORA RCS","6142286","2013-02-21 14:00","2013","02","21","14:00","-13.8","","-16.6","","79","","","","32","","22","","","","97.89","","","","-23","","NA"
"-80.42","43.65","ELORA RCS","6142286","2013-02-21 15:00","2013","02","21","15:00","-13.2","","-16.2","","78","","","","31","","26","","","","97.97","","","","-23","","NA"
"-80.42","43.65","ELORA RCS","6142286","2013-02-21 16:00","2013","02","21","16:00","-12.5","","-15.9","","76","","","","34","","22","","","","97.87","","","","-21","","NA"
"-80.42","43.65","ELORA RCS","6142286","2013-02-21 17:00","2013","02","21","17:00","-10.9","","-14.6","","74","","","","34","","19","","","","97.90","","","","-19","","NA"
"-80.42","43.65","ELORA RCS","6142286","2013-02-21 18:00","2013","02","21","18:00","-9.3","","-13.5","","71","","","","34","","13","","","","97.92","","","","-15","","NA"
"-80.42","43.65","ELORA RCS","6142286","2013-02-21 19:00","2013","02","21","19:00","-8.5","","-12.6","","72","","","","31","","17","","","","97.91","","","","-15","","NA"
"-80.42","43.65","ELORA RCS","6142286","2013-02-21 20:00","2013","02","21","20:00","-8.1","","-12.3","","72","","","","31","","17","","","","97.95","","","","-15","","NA"
"-80.42","43.65","ELORA RCS","6142286","2013-02-21 21:00","2013","02","21","21:00","-7.7","","-12.0","","71","","","","29","","15","","","","97.95","","","","-14","","NA"
"-80.42","43.65","ELORA RCS","6142286","2013-02-21 22:00","2013","02","21","22:00","-7.7","","-12.1","","71","","","","30","","11","","","","97.99","","","","-13","","NA"
"-80.42","43.65","ELORA RCS","6142286","2013-02-21 23:00","2013","02","21","23:00","-9.7","","-13.3","","75","","","","30","","11","","","","98.10","","","","-15","","NA"
"-80.42","43.65","ELORA RCS","6142286","2013-02-22 00:00","2013","02","22","00:00","-12.4","","-15.7","","76","","","","33","","7","","","","98.19","","","","-17","","NA"
"-80.42","43.65","ELORA RCS","6142286","2013-02-22 01:00","2013","02","22","01:00","-10.2","","-12.5","","83","","","","3","","7","","","","98.20","","","","-14","","NA"
"-80.42","43.65","ELORA RCS","6142286","2013-02-22 02:00","2013","02","22","02:00","-10.1","","-11.3","","91","","","","7","","19","","","","98.15","","","","-18","","NA"
"-80.42","43.65","ELORA RCS","6142286","2013-02-22 03:00","2013","02","22","03:00","-9.7","","-10.9","","91","","","","11","","6","","","","98.19","","","","-13","","NA"
"-80.42","43.65","ELORA RCS","6142286","2013-02-22 04:00","2013","02","22","04:00","-9.2","","-10.1","","93","","","","9","","15","","","","98.12","","","","-16","","NA"
"-80.42","43.65","ELORA RCS","6142286","2013-02-22 05:00","2013","02","22","05:00","-9.2","","-10.3","","92","","","","7","","13","","","","98.12","","","","-15","","NA"
"-80.42","43.65","ELORA RCS","6142286","2013-02-22 06:00","2013","02","22","06:00","-11.1","","-12.4","","90","","","","7","","11","","","","98.09","","","","-17","","NA"
"-80.42","43.65","ELORA RCS","6142286","2013-02-22 07:00","2013","02","22","07:00","-12.4","","-13.7","","90","","","","8","","9","","","","98.06","","","","-18","","NA"
"-80.42","43.65","ELORA RCS","6142286","2013-02-22 08:00","2013","02","22","08:00","-11.7","","-13.0","","90","","","","10","","11","","","","98.05","","","","-18","","NA"
"-80.42","43.65","ELORA RCS","6142286","2013-02-22 09:00","2013","02","22","09:00","-10.3","","-11.6","","90","","","","9","","11","","","","98.04","","","","-16","","NA"
"-80.42","43.65","ELORA RCS","6142286","2013-02-22 10:00","2013","02","22","10:00","-8.6","","-9.6","","92","","","","9","","17","","","","97.91","","","","-15","","NA"
"-80.42","43.65","ELORA RCS","6142286","2013-02-22 11:00","2013","02","22","11:00","-7.3","","-8.3","","93","","","","11","","22","","","","97.86","","","","-15","","NA"
"-80.42","43.65","ELORA RCS","6142286","2013-02-22 12:00","2013","02","22","12:00","-7.1","","-8.1","","93","","","","10","","30","","","","97.77","","","","-16","","NA"
"-80.42","43.65","ELORA RCS","6142286","2013-02-22 13:00","2013","02","22","13:00","-6.7","","-7.8","","92","","","","11","","30","","","","97.73","","","","-15","","NA"
"-80.42","43.65","ELORA RCS","6142286","2013-02-22 14:00","2013","02","22","14:00","-5.1","","-6.2","","92","","","","10","","28","","","","97.67","","","","-13","","NA"
"-80.42","43.65","ELORA RCS","6142286","2013-02-22 15:00","2013","02","22","15:00","-4.3","","-5.8","","89","","","","10","","35","","","","97.49","","","","-13","","NA"
"-80.42","43.65","ELORA RCS","6142286","2013-02-22 16:00","2013","02","22","16:00","-3.8","","-5.6","","87","","","","10","","33","","","","97.40","","","","-12","","NA"
"-80.42","43.65","ELORA RCS","6142286","2013-02-22 17:00","2013","02","22","17:00","-3.3","","-5.4","","85","","","","11","","30","","","","97.32","","","","-11","","NA"
"-80.42","43.65","ELORA RCS","6142286","2013-02-22 18:00","2013","02","22","18:00","-2.9","","-4.7","","87","","","","11","","30","","","","97.24","","","","-10","","NA"
"-80.42","43.65","ELORA RCS","6142286","2013-02-22 19:00","2013","02","22","19:00","-2.5","","-4.1","","89","","","","11","","32","","","","97.03","","","","-10","","NA"
"-80.42","43.65","ELORA RCS","6142286","2013-02-22 20:00","2013","02","22","20:00","-2.4","","-4.2","","87","","","","11","","26","","","","97.02","","","","-9","","NA"
"-80.42","43.65","ELORA RCS","6142286","2013-02-22 21:00","2013","02","22","21:00","-2.7","","-4.3","","89","","","","11","","20","","","","97.01","","","","-9","","NA"
"-80.42","43.65","ELORA RCS","6142286","2013-02-22 22:00","2013","02","22","22:00","-2.8","","-3.9","","92","","","","11","","22","","","","96.98","","","","-9","","NA"
"-80.42","43.65","ELORA RCS","6142286","2013-02-22 23:00","2013","02","22","23:00","-2.6","","-3.3","","95","","","","11","","20","","","","96.97","","","","-9","","NA"
"-80.42","43.65","ELORA RCS","6142286","2013-02-23 00:00","2013","02","23","00:00","-2.3","","-2.9","","96","","","","11","","19","","","","96.93","","","","-8","","NA"
"-80.42","43.65","ELORA RCS","6142286","2013-02-23 01:00","2013","02","23","01:00","-2.0","","-2.8","","94","","","","11","","17","","","","96.88","","","","-7","","NA"
"-80.42","43.65","ELORA RCS","6142286","2013-02-23 02:00","2013","02","23","02:00","-1.8","","-2.4","","96","","","","12","","15","","","","96.89","","","","-7","","NA"
"-80.42","43.65","ELORA RCS","6142286","2013-02-23 03:00","2013","02","23","03:00","-1.4","","-1.9","","96","","","","13","","11","","","","96.83","","","","-5","","NA"
"-80.42","43.65","ELORA RCS","6142286","2013-02-23 04:00","2013","02","23","04:00","-0.9","","-1.3","","97","","","","15","","15","","","","96.77","","","","-6","","NA"
"-80.42","43.65","ELORA RCS","6142286","2013-02-23 05:00","2013","02","23","05:00","-0.7","","-1.1","","97","","","","17","","15","","","","96.73","","","","-5","","NA"
"-80.42","43.65","ELORA RCS","6142286","2013-02-23 06:00","2013","02","23","06:00","-0.2","","-0.6","","97","","","","18","","15","","","","96.70","","","","-5","","NA"
"-80.42","43.65","ELORA RCS","6142286","2013-02-23 07:00","2013","02","23","07:00","0.1","","-0.3","","97","","","","20","","13","","","","96.68","","","","","","NA"
"-80.42","43.65","ELORA RCS","6142286","2013-02-23 08:00","2013","02","23","08:00","0.2","","-0.6","","94","","","","20","","15","","","","96.64","","","","","","NA"
"-80.42","43.65","ELORA RCS","6142286","2013-02-23 09:00","2013","02","23","09:00","0.1","","-0.9","","93","","","","21","","13","","","","96.63","","","","","","NA"
"-80.42","43.65","ELORA RCS","6142286","2013-02-23 10:00","2013","02","23","10:00","-0.1","","-1.4","","91","","","","22","","15","","","","96.61","","","","-5","","NA"
"-80.42","43.65","ELORA RCS","6142286","2013-02-23 11:00","2013","02","23","11:00","-0.5","","-1.6","","92","","","","20","","11","","","","96.63","","","","-4","","NA"
"-80.42","43.65","ELORA RCS","6142286","2013-02-23 12:00","2013","02","23","12:00","-0.7","","-1.7","","93","","","","20","","13","","","","96.64","","","","-5","","NA"
"-80.42","43.65","ELORA RCS","6142286","2013-02-23 13:00","2013","02","23","13:00","-0.6","","-1.5","","94","","","","19","","9","","","","96.65","","","","-4","","NA"
"-80.42","43.65","ELORA RCS","6142286","2013-02-23 14:00","2013","02","23","14:00","-0.5","","-1.2","","95","","","","19","","9","","","","96.62","","","","-4","","NA"
"-80.42","43.65","ELORA RCS","6142286","2013-02-23 15:00","2013","02","23","15:00","-0.3","","-1.0","","95","","","","21","","13","","","","96.58","","","","-4","","NA"
"-80.42","43.65","ELORA RCS","6142286","2013-02-23 16:00","2013","02","23","16:00","-0.3","","-2.0","","88","","","","23","","20","","","","96.56","","","","-6","","NA"
"-80.42","43.65","ELORA RCS","6142286","2013-02-23 17:00","2013","02","23","17:00","-1.5","","-4.3","","81","","","","26","","22","","","","96.57","","","","-7","","NA"
"-80.42","43.65","ELORA RCS","6142286","2013-02-23 18:00","2013","02","23","18:00","-2.0","","-4.5","","83","","","","26","","19","","","","96.55","","","","-8","","NA"
"-80.42","43.65","ELORA RCS","6142286","2013-02-23 19:00","2013","02","23","19:00","-1.9","","-4.9","","80","","","","26","","22","","","","96.51","","","","-8","","NA"
"-80.42","43.65","ELORA RCS","6142286","2013-02-23 20:00","2013","02","23","20:00","-1.3","","-4.8","","77","","","","26","","22","","","","96.52","","","","-7","","NA"
"-80.42","43.65","ELORA RCS","6142286","2013-02-23 21:00","2013","02","23","21:00","-1.6","","-4.6","","80","","","","26","","17","","","","96.54","","","","-7","","NA"
"-80.42","43.65","ELORA RCS","6142286","2013-02-23 22:00","2013","02","23","22:00","-2.2","","-4.1","","87","","","","25","","17","","","","96.56","","","","-8","","NA"
"-80.42","43.65","ELORA RCS","6142286","2013-02-23 23:00","2013","02","23","23:00","-2.7","","-3.9","","91","","","","24","","11","","","","96.59","","","","-7","","NA"
"-80.42","43.65","ELORA RCS","6142286","2013-02-24 00:00","2013","02","24","00:00","-2.8","","-4.3","","89","","","","24","","11","","","","96.63","","","","-7","","NA"
"-80.42","43.65","ELORA RCS","6142286","2013-02-24 01:00","2013","02","24","01:00","-3.0","","-4.2","","91","","","","21","","11","","","","96.64","","","","-7","","NA"
"-80.42","43.65","ELORA RCS","6142286","2013-02-24 02:00","2013","02","24","02:00","-2.9","","-4.1","","91","","","","24","","11","","","","96.63","","","","-7","","NA"
"-80.42","43.65","ELORA RCS","6142286","2013-02-24 03:00","2013","02","24","03:00","-3.3","","-4.4","","92","","","","24","","6","","","","96.59","","","","-6","","NA"
"-80.42","43.65","ELORA RCS","6142286","2013-02-24 04:00","2013","02","24","04:00","-3.6","","-4.6","","93","","","","26","","6","","","","96.55","","","","-6","","NA"
"-80.42","43.65","ELORA RCS","6142286","2013-02-24 05:00","2013","02","24","05:00","-3.3","","-4.7","","90","","","","24","","7","","","","96.52","","","","-6","","NA"
"-80.42","43.65","ELORA RCS","6142286","2013-02-24 06:00","2013","02","24","06:00","-3.4","","-4.7","","91","","","","24","","6","","","","96.51","","","","-6","","NA"
"-80.42","43.65","ELORA RCS","6142286","2013-02-24 07:00","2013","02","24","07:00","-3.6","","-4.7","","92","","","","24","","9","","","","96.50","","","","-7","","NA"
"-80.42","43.65","ELORA RCS","6142286","2013-02-24 08:00","2013","02","24","08:00","-3.8","","-4.7","","93","","","","26","","9","","","","96.50","","","","-8","","NA"
"-80.42","43.65","ELORA RCS","6142286","2013-02-24 09:00","2013","02","24","09:00","-3.9","","-4.8","","93","","","","27","","15","","","","96.50","","","","-9","","NA"
"-80.42","43.65","ELORA RCS","6142286","2013-02-24 10:00","2013","02","24","10:00","-4.2","","-5.0","","94","","","","26","","13","","","","96.54","","","","-9","","NA"
"-80.42","43.65","ELORA RCS","6142286","2013-02-24 11:00","2013","02","24","11:00","-4.4","","-5.3","","93","","","","26","","15","","","","96.57","","","","-10","","NA"
"-80.42","43.65","ELORA RCS","6142286","2013-02-24 12:00","2013","02","24","12:00","-4.6","","-5.5","","93","","","","26","","13","","","","96.59","","","","-10","","NA"
"-80.42","43.65","ELORA RCS","6142286","2013-02-24 13:00","2013","02","24","13:00","-4.7","","-5.7","","93","","","","25","","11","","","","96.62","","","","-9","","NA"
"-80.42","43.65","ELORA RCS","6142286","2013-02-24 14:00","2013","02","24","14:00","-4.2","","-5.4","","91","","","","26","","17","","","","96.65","","","","-10","","NA"
"-80.42","43.65","ELORA RCS","6142286","2013-02-24 15:00","2013","02","24","15:00","-3.5","","-5.0","","89","","","","26","","22","","","","96.67","","","","-10","","NA"
"-80.42","43.65","ELORA RCS","6142286","2013-02-24 16:00","2013","02","24","16:00","-2.8","","-4.9","","85","","","","27","","26","","","","96.70","","","","-10","","NA"
"-80.42","43.65","ELORA RCS","6142286","2013-02-24 17:00","2013","02","24","17:00","-2.4","","-4.9","","83","","","","28","","24","","","","96.74","","","","-9","","NA"
"-80.42","43.65","ELORA RCS","6142286","2013-02-24 18:00","2013","02","24","18:00","-2.0","","-4.7","","82","","","","29","","24","","","","96.78","","","","-8","","NA"
"-80.42","43.65","ELORA RCS","6142286","2013-02-24 19:00","2013","02","24","19:00","-2.0","","-4.2","","85","","","","29","","22","","","","96.82","","","","-8","","NA"
"-80.42","43.65","ELORA RCS","6142286","2013-02-24 20:00","2013","02","24","20:00","-2.3","","-4.6","","84","","","","29","","22","","","","96.88","","","","-8","","NA"
"-80.42","43.65","ELORA RCS","6142286","2013-02-24 21:00","2013","02","24","21:00","-1.6","","-4.4","","81","","","","29","","20","","","","96.95","","","","-7","","NA"
"-80.42","43.65","ELORA RCS","6142286","2013-02-24 22:00","2013","02","24","22:00","-1.9","","-5.1","","79","","","","29","","22","","","","97.03","","","","-8","","NA"
"-80.42","43.65","ELORA RCS","6142286","2013-02-24 23:00","2013","02","24","23:00","-2.3","","-5.2","","80","","","","28","","24","","","","97.11","","","","-9","","NA"
"-80.42","43.65","ELORA RCS","6142286","2013-02-25 00:00","2013","02","25","00:00","-2.5","","-5.3","","81","","","","28","","19","","","","97.19","","","","-8","","NA"
"-80.42","43.65","ELORA RCS","6142286","2013-02-25 01:00","2013","02","25","01:00","-2.3","","-5.0","","82","","","","29","","13","","","","97.25","","","","-7","","NA"
"-80.42","43.65","ELORA RCS","6142286","2013-02-25 02:00","2013","02","25","02:00","-2.3","","-4.6","","84","","","","29","","15","","","","97.30","","","","-7","","NA"
"-80.42","43.65","ELORA RCS","6142286","2013-02-25 03:00","2013","02","25","03:00","-2.3","","-4.2","","87","","","","29","","11","","","","97.31","","","","-6","","NA"
"-80.42","43.65","ELORA RCS","6142286","2013-02-25 04:00","2013","02","25","04:00","-2.4","","-4.2","","87","","","","27","","13","","","","97.33","","","","-7","","NA"
"-80.42","43.65","ELORA RCS","6142286","2013-02-25 05:00","2013","02","25","05:00","-2.6","","-4.2","","89","","","","27","","11","","","","97.37","","","","-7","","NA"
"-80.42","43.65","ELORA RCS","6142286","2013-02-25 06:00","2013","02","25","06:00","-2.7","","-4.3","","89","","","","28","","9","","","","97.40","","","","-6","","NA"
"-80.42","43.65","ELORA RCS","6142286","2013-02-25 07:00","2013","02","25","07:00","-2.8","","-4.4","","89","","","","28","","6","","","","97.42","","","","-5","","NA"
"-80.42","43.65","ELORA RCS","6142286","2013-02-25 08:00","2013","02","25","08:00","-3.0","","-4.5","","89","","","","29","","4","","","","97.42","","","","-5","","NA"
"-80.42","43.65","ELORA RCS","6142286","2013-02-25 09:00","2013","02","25","09:00","-3.1","","-4.4","","91","","","","26","","7","","","","97.47","","","","-6","","NA"
"-80.42","43.65","ELORA RCS","6142286","2013-02-25 10:00","2013","02","25","10:00","-2.8","","-4.4","","89","","","","29","","7","","","","97.49","","","","-6","","NA"
"-80.42","43.65","ELORA RCS","6142286","2013-02-25 11:00","2013","02","25","11:00","-3.0","","-4.7","","88","","","","30","","6","","","","97.51","","","","-5","","NA"
"-80.42","43.65","ELORA RCS","6142286","2013-02-25 12:00","2013","02","25","12:00","-3.0","","-4.7","","88","","","","28","","6","","","","97.54","","","","-5","","NA"
"-80.42","43.65","ELORA RCS","6142286","2013-02-25 13:00","2013","02","25","13:00","-3.1","","-4.6","","89","","","","26","","9","","","","97.59","","","","-7","","NA"
"-80.42","43.65","ELORA RCS","6142286","2013-02-25 14:00","2013","02","25","14:00","-2.9","","-4.3","","90","","","","26","","7","","","","97.68","","","","-6","","NA"
"-80.42","43.65","ELORA RCS","6142286","2013-02-25 15:00","2013","02","25","15:00","-2.4","","-3.9","","89","","","","25","","7","","","","97.68","","","","-5","","NA"
"-80.42","43.65","ELORA RCS","6142286","2013-02-25 16:00","2013","02","25","16:00","-1.5","","-3.7","","85","","","","30","","11","","","","97.71","","","","-5","","NA"
"-80.42","43.65","ELORA RCS","6142286","2013-02-25 17:00","2013","02","25","17:00","-1.0","","-3.8","","81","","","","30","","11","","","","97.72","","","","-5","","NA"
"-80.42","43.65","ELORA RCS","6142286","2013-02-25 18:00","2013","02","25","18:00","-0.6","","-4.5","","75","","","","31","","9","","","","97.67","","","","-4","","NA"
"-80.42","43.65","ELORA RCS","6142286","2013-02-25 19:00","2013","02","25","19:00","-0.3","","-5.0","","71","","","","30","","13","","","","97.69","","","","-4","","NA"
"-80.42","43.65","ELORA RCS","6142286","2013-02-25 20:00","2013","02","25","20:00","-0.3","","-5.4","","68","","","","27","","9","","","","97.64","","","","-3","","NA"
"-80.42","43.65","ELORA RCS","6142286","2013-02-25 21:00","2013","02","25","21:00","-0.4","","-5.2","","70","","","","26","","9","","","","97.64","","","","-4","","NA"
"-80.42","43.65","ELORA RCS","6142286","2013-02-25 22:00","2013","02","25","22:00","-0.7","","-5.3","","71","","","","31","","9","","","","97.64","","","","-4","","NA"
"-80.42","43.65","ELORA RCS","6142286","2013-02-25 23:00","2013","02","25","23:00","-0.8","","-5.3","","72","","","","27","","4","","","","97.65","","","","-2","","NA"
"-80.42","43.65","ELORA RCS","6142286","2013-02-26 00:00","2013","02","26","00:00","-0.9","","-5.9","","69","","","","31","","6","","","","97.68","","","","-3","","NA"
"-80.42","43.65","ELORA RCS","6142286","2013-02-26 01:00","2013","02","26","01:00","-1.7","","-5.0","","78","","","","9","","4","","","","97.67","","","","-3","","NA"
"-80.42","43.65","ELORA RCS","6142286","2013-02-26 02:00","2013","02","26","02:00","-1.3","","-5.6","","73","","","","","","0","","","","97.72","","","","","","NA"
"-80.42","43.65","ELORA RCS","6142286","2013-02-26 03:00","2013","02","26","03:00","-1.5","","-5.9","","72","","","","","","0","","","","97.70","","","","","","NA"
"-80.42","43.65","ELORA RCS","6142286","2013-02-26 04:00","2013","02","26","04:00","-2.0","","-5.2","","79","","","","7","","6","","","","97.59","","","","-4","","NA"
"-80.42","43.65","ELORA RCS","6142286","2013-02-26 05:00","2013","02","26","05:00","-2.4","","-5.5","","79","","","","7","","6","","","","97.58","","","","-5","","NA"
"-80.42","43.65","ELORA RCS","6142286","2013-02-26 06:00","2013","02","26","06:00","-2.5","","-5.7","","79","","","","10","","6","","","","97.65","","","","-5","","NA"
"-80.42","43.65","ELORA RCS","6142286","2013-02-26 07:00","2013","02","26","07:00","-5.2","","-7.6","","83","","","","8","","7","","","","97.63","","","","-8","","NA"
"-80.42","43.65","ELORA RCS","6142286","2013-02-26 08:00","2013","02","26","08:00","-6.1","","-7.6","","89","","","","7","","11","","","","97.57","","","","-11","","NA"
"-80.42","43.65","ELORA RCS","6142286","2013-02-26 09:00","2013","02","26","09:00","-6.4","","-7.5","","92","","","","8","","11","","","","97.57","","","","-11","","NA"
"-80.42","43.65","ELORA RCS","6142286","2013-02-26 10:00","2013","02","26","10:00","-6.2","","-7.2","","93","","","","7","","11","","","","97.58","","","","-11","","NA"
"-80.42","43.65","ELORA RCS","6142286","2013-02-26 11:00","2013","02","26","11:00","-4.9","","-6.0","","92","","","","7","","15","","","","97.49","","","","-10","","NA"
"-80.42","43.65","ELORA RCS","6142286","2013-02-26 12:00","2013","02","26","12:00","-4.1","","-5.5","","90","","","","8","","22","","","","97.40","","","","-11","","NA"
"-80.42","43.65","ELORA RCS","6142286","2013-02-26 13:00","2013","02","26","13:00","-3.3","","-5.3","","86","","","","8","","22","","","","97.37","","","","-10","","NA"
"-80.42","43.65","ELORA RCS","6142286","2013-02-26 14:00","2013","02","26","14:00","-1.8","","-4.4","","82","","","","9","","24","","","","97.44","","","","-8","","NA"
"-80.42","43.65","ELORA RCS","6142286","2013-02-26 15:00","2013","02","26","15:00","-0.8","","-3.4","","83","","","","9","","28","","","","97.40","","","","-7","","NA"
"-80.42","43.65","ELORA RCS","6142286","2013-02-26 16:00","2013","02","26","16:00","0.0","","-2.8","","81","","","","9","","32","","","","97.21","","","","-7","","NA"
"-80.42","43.65","ELORA RCS","6142286","2013-02-26 17:00","2013","02","26","17:00","1.0","","-2.2","","79","","","","8","","30","","","","97.07","","","","","","NA"
"-80.42","43.65","ELORA RCS","6142286","2013-02-26 18:00","2013","02","26","18:00","2.0","","-2.7","","71","","","","9","","32","","","","96.93","","","","","","NA"
"-80.42","43.65","ELORA RCS","6142286","2013-02-26 19:00","2013","02","26","19:00","1.9","","-3.2","","69","","","","10","","33","","","","96.82","","","","","","NA"
"-80.42","43.65","ELORA RCS","6142286","2013-02-26 20:00","2013","02","26","20:00","1.8","","-3.8","","66","","","","11","","33","","","","96.73","","","","","","NA"
"-80.42","43.65","ELORA RCS","6142286","2013-02-26 21:00","2013","02","26","21:00","0.9","","-3.2","","74","","","","11","","37","","","","96.70","","","","","","NA"
"-80.42","43.65","ELORA RCS","6142286","2013-02-26 22:00","2013","02","26","22:00","1.0","","-2.8","","76","","","","10","","41","","","","96.56","","","","","","NA"
"-80.42","43.65","ELORA RCS","6142286","2013-02-26 23:00","2013","02","26","23:00","1.0","","-2.6","","77","","","","10","","41","","","","96.59","","","","","","NA"
"-80.42","43.65","ELORA RCS","6142286","2013-02-27 00:00","2013","02","27","00:00","0.9","","-1.8","","82","","","","10","","43","","","","96.53","","","","","","NA"
"-80.42","43.65","ELORA RCS","6142286","2013-02-27 01:00","2013","02","27","01:00","0.6","","-1.1","","88","","","","10","","41","","","","96.45","","","","","","NA"
"-80.42","43.65","ELORA RCS","6142286","2013-02-27 02:00","2013","02","27","02:00","0.2","","-0.6","","94","","","","10","","39","","","","96.43","","","","","","NA"
"-80.42","43.65","ELORA RCS","6142286","2013-02-27 03:00","2013","02","27","03:00","0.0","","-0.6","","96","","","","9","","44","","","","96.32","","","","-8","","NA"
"-80.42","43.65","ELORA RCS","6142286","2013-02-27 04:00","2013","02","27","04:00","0.0","","-0.7","","95","","","","9","","43","","","","96.20","","","","-8","","NA"
"-80.42","43.65","ELORA RCS","6142286","2013-02-27 05:00","2013","02","27","05:00","0.1","","-0.6","","95","","","","9","","39","","","","96.06","","","","","","NA"
"-80.42","43.65","ELORA RCS","6142286","2013-02-27 06:00","2013","02","27","06:00","0.1","","-0.4","","96","","","","10","","37","","","","96.05","","","","","","NA"
"-80.42","43.65","ELORA RCS","6142286","2013-02-27 07:00","2013","02","27","07:00","0.1","","-0.4","","96","","","","10","","37","","","","95.99","","","","","","NA"
"-80.42","43.65","ELORA RCS","6142286","2013-02-27 08:00","2013","02","27","08:00","-0.2","","-0.7","","96","","","","10","","43","","","","95.88","","","","-8","","NA"
"-80.42","43.65","ELORA RCS","6142286","2013-02-27 09:00","2013","02","27","09:00","-0.4","","-1.0","","96","","","","10","","43","","","","95.79","","","","-8","","NA"
"-80.42","43.65","ELORA RCS","6142286","2013-02-27 10:00","2013","02","27","10:00","-0.3","","-1.0","","95","","","","10","","39","","","","95.75","","","","-8","","NA"
"-80.42","43.65","ELORA RCS","6142286","2013-02-27 11:00","2013","02","27","11:00","-0.1","","-0.8","","95","","","","10","","33","","","","95.73","","","","-7","","NA"
"-80.42","43.65","ELORA RCS","6142286","2013-02-27 12:00","2013","02","27","12:00","0.0","","-0.7","","95","","","","10","","32","","","","95.74","","","","-7","","NA"
"-80.42","43.65","ELORA RCS","6142286","2013-02-27 13:00","2013","02","27","13:00","-0.1","","-0.8","","95","","","","9","","26","","","","95.76","","","","-6","","NA"
"-80.42","43.65","ELORA RCS","6142286","2013-02-27 14:00","2013","02","27","14:00","0.0","","-0.7","","95","","","","10","","32","","","","95.75","","","","-7","","NA"
"-80.42","43.65","ELORA RCS","6142286","2013-02-27 15:00","2013","02","27","15:00","0.0","","-0.8","","94","","","","10","","30","","","","95.75","","","","-6","","NA"
"-80.42","43.65","ELORA RCS","6142286","2013-02-27 16:00","2013","02","27","16:00","0.1","","-0.8","","94","","","","10","","30","","","","95.75","","","","","","NA"
"-80.42","43.65","ELORA RCS","6142286","2013-02-27 17:00","2013","02","27","17:00","0.2","","-0.7","","94","","","","11","","22","","","","95.75","","","","","","NA"
"-80.42","43.65","ELORA RCS","6142286","2013-02-27 18:00","2013","02","27","18:00","0.5","","-0.3","","94","","","","11","","17","","","","95.71","","","","","","NA"
"-80.42","43.65","ELORA RCS","6142286","2013-02-27 19:00","2013","02","27","19:00","0.4","","-0.3","","95","","","","10","","17","","","","95.69","","","","","","NA"
"-80.42","43.65","ELORA RCS","6142286","2013-02-27 20:00","2013","02","27","20:00","0.4","","-0.2","","96","","","","10","","13","","","","95.68","","","","","","NA"
"-80.42","43.65","ELORA RCS","6142286","2013-02-27 21:00","2013","02","27","21:00","0.2","","-0.3","","96","","","","11","","13","","","","95.70","","","","","","NA"
"-80.42","43.65","ELORA RCS","6142286","2013-02-27 22:00","2013","02","27","22:00","0.3","","-0.2","","96","","","","10","","9","","","","95.69","","","","","","NA"
"-80.42","43.65","ELORA RCS","6142286","2013-02-27 23:00","2013","02","27","23:00","0.1","","-0.3","","97","","","","9","","7","","","","95.73","","","","","","NA"
"-80.42","43.65","ELORA RCS","6142286","2013-02-28 00:00","2013","02","28","00:00","0.0","","-0.4","","97","","","","11","","7","","","","95.75","","","","-2","","NA"
"-80.42","43.65","ELORA RCS","6142286","2013-02-28 01:00","2013","02","28","01:00","-0.2","","-0.6","","97","","","","13","","7","","","","95.72","","","","-3","","NA"
"-80.42","43.65","ELORA RCS","6142286","2013-02-28 02:00","2013","02","28","02:00","-0.2","","-0.6","","97","","","","14","","6","","","","95.67","","","","-2","","NA"
"-80.42","43.65","ELORA RCS","6142286","2013-02-28 03:00","2013","02","28","03:00","-0.3","","-0.7","","97","","","","14","","7","","","","95.64","","","","-3","","NA"
"-80.42","43.65","ELORA RCS","6142286","2013-02-28 04:00","2013","02","28","04:00","-0.2","","-0.5","","98","","","","17","","6","","","","95.62","","","","-2","","NA"
"-80.42","43.65","ELORA RCS","6142286","2013-02-28 05:00","2013","02","28","05:00","-0.3","","-0.6","","98","","","","28","","6","","","","95.59","","","","-2","","NA"
"-80.42","43.65","ELORA RCS","6142286","2013-02-28 06:00","2013","02","28","06:00","-0.5","","-0.8","","98","","","","25","","6","","","","95.55","","","","-3","","NA"
"-80.42","43.65","ELORA RCS","6142286","2013-02-28 07:00","2013","02","28","07:00","-0.6","","-0.9","","98","","","","23","","6","","","","95.52","","","","-3","","NA"
"-80.42","43.65","ELORA RCS","6142286","2013-02-28 08:00","2013","02","28","08:00","-0.7","","-1.0","","98","","","","24","","7","","","","95.49","","","","-3","","NA"
"-80.42","43.65","ELORA RCS","6142286","2013-02-28 09:00","2013","02","28","09:00","-0.9","","-1.2","","98","","","","25","","7","","","","95.46","","","","-3","","NA"
"-80.42","43.65","ELORA RCS","6142286","2013-02-28 10:00","2013","02","28","10:00","-0.9","","-1.2","","98","","","","28","","6","","","","95.48","","","","-3","","NA"
"-80.42","43.65","ELORA RCS","6142286","2013-02-28 11:00","2013","02","28","11:00","-1.3","","-1.6","","98","","","","26","","4","","","","95.51","","","","-3","","NA"
"-80.42","43.65","ELORA RCS","6142286","2013-02-28 12:00","2013","02","28","12:00","-1.1","","-1.4","","98","","","","31","","7","","","","95.55","","","","-4","","NA"
"-80.42","43.65","ELORA RCS","6142286","2013-02-28 13:00","2013","02","28","13:00","-1.0","","-1.6","","96","","","","1","","6","","","","95.58","","","","-3","","NA"
"-80.42","43.65","ELORA RCS","6142286","2013-02-28 14:00","2013","02","28","14:00","-0.8","","-1.6","","94","","","","1","","7","","","","95.62","","","","-3","","NA"
"-80.42","43.65","ELORA RCS","6142286","2013-02-28 15:00","2013","02","28","15:00","-0.1","","-1.2","","92","","","","36","","9","","","","95.67","","","","-3","","NA"
"-80.42","43.65","ELORA RCS","6142286","2013-02-28 16:00","2013","02","28","16:00","0.2","","-1.1","","91","","","","35","","11","","","","95.71","","","","","","NA"
"-80.42","43.65","ELORA RCS","6142286","2013-02-28 17:00","2013","02","28","17:00","0.8","","-1.4","","85","","","","2","","13","","","","95.75","","","","","","NA"
"-80.42","43.65","ELORA RCS","6142286","2013-02-28 18:00","2013","02","28","18:00","1.0","","-1.6","","83","","","","2","","15","","","","95.78","","","","","","NA"
"-80.42","43.65","ELORA RCS","6142286","2013-02-28 19:00","2013","02","28","19:00","1.3","","-1.3","","83","","","","36","","15","","","","95.80","","","","","","NA"
"-80.42","43.65","ELORA RCS","6142286","2013-02-28 20:00","2013","02","28","20:00","0.9","","-1.3","","85","","","","35","","17","","","","95.86","","","","","","NA"
"-80.42","43.65","ELORA RCS","6142286","2013-02-28 21:00","2013","02","28","21:00","0.4","","-1.7","","86","","","","34","","20","","","","95.96","","","","","","NA"
"-80.42","43.65","ELORA RCS","6142286","2013-02-28 22:00","2013","02","28","22:00","-0.1","","-2.0","","87","","","","35","","19","","","","96.03","","","","-5","","NA"
"-80.42","43.65","ELORA RCS","6142286","2013-02-28 23:00","2013","02","28","23:00","-0.7","","-2.5","","88","","","","35","","20","","","","96.14","","","","-6","","NA"
