"Longitude (x)","Latitude (y)","Station Name","Climate ID","Date/Time (UTC)","Year","Month","Day","Time (UTC)","Temp (°C)","Temp Flag","Dew Point Temp (°C)","Dew Point Temp Flag","Rel Hum (%)","Rel Hum Flag","Precip. Amount (mm)","Precip. Amount Flag","Wind Dir (10s deg)","Wind Dir Flag","Wind Spd (km/h)","Wind Spd Flag","Visibility (km)","Visibility Flag","Stn Press (kPa)","Stn Press Flag","Hmdx","Hmdx Flag","Wind Chill","Wind Chill Flag","Weather"
"-78.88","43.92","OSHAWA","6155875","2014-01-01 00:00","2014","01","01","00:00","-10.4","","-16.4","","62","","","","26","","15","","16.1","","100.46","","","","-17","","NA"
"-78.88","43.92","OSHAWA","6155875","2014-01-01 01:00","2014","01","01","01:00","-10.6","","-15.6","","67","","","","26","","21","","16.1","","100.51","","","","-19","","NA"
"-78.88","43.92","OSHAWA","6155875","2014-01-01 02:00","2014","01","01","02:00","-10.6","","-15.1","","70","","","","26","","18","","16.1","","100.50","","","","-18","","NA"
"-78.88","43.92","OSHAWA","6155875","2014-01-01 03:00","2014","01","01","03:00","-10.7","","-15.1","","70","","","","25","","17","","16.1","","100.54","","","","-18","","NA"
"-78.88","43.92","OSHAWA","6155875","2014-01-01 04:00","2014","01","01","04:00","-10.1","","-14.6","","70","","","","25","","21","","16.1","","100.56","","","","-18","","NA"
"-78.88","43.92","OSHAWA","6155875","2014-01-01 05:00","2014","01","01","05:00","-10.2","","-14.6","","70","","","","25","","15","","16.1","","100.61","","","","-17","","NA"
"-78.88","43.92","OSHAWA","6155875","2014-01-01 06:00","2014","01","01","06:00","-10.9","","-15.4","","70","","","","26","","15","","16.1","","100.67","","","","-18","","NA"
"-78.88","43.92","OSHAWA","6155875","2014-01-01 07:00","2014","01","01","07:00","-10.6","","-15.3","","69","","","","25","","21","","16.1","","100.71","","","","-19","","NA"
"-78.88","43.92","OSHAWA","6155875","2014-01-01 08:00","2014","01","01","08:00","-11.1","","-15.2","","72","","","","25","","15","","16.1","","100.76","","","","-18","","NA"
"-78.88","43.92","OSHAWA","6155875","2014-01-01 09:00","2014","01","01","09:00","-11.6","","-15.4","","74","","","","25","","11","","16.1","","100.79","","","","-18","","NA"
"-78.88","43.92","OSHAWA","6155875","2014-01-01 10:00","2014","01","01","10:00","-12.5","","-15.6","","78","","","","28","","8","","16.1","","100.82","","","","-17","","NA"
"-78.88","43.92","OSHAWA","6155875","2014-01-01 11:00","2014","01","01","11:00","-12.9","","-15.5","","81","","","","32","","15","","16.1","","100.86","","","","-20","","NA"
"-78.88","43.92","OSHAWA","6155875","2014-01-01 12:00","2014","01","01","12:00","-13.6","","-15.9","","83","","","","31","","8","","16.1","","100.97","","","","-19","","NA"
"-78.88","43.92","OSHAWA","6155875","2014-01-01 13:00","2014","01","01","13:00","-13.1","","-16.0","","79","","","","35","","9","","16.1","","101.02","","","","-19","","NA"
"-78.88","43.92","OSHAWA","6155875","2014-01-01 14:00","2014","01","01","14:00","-12.2","","-17.0","","68","","","","36","","15","","16.1","","101.17","","","","-19","","NA"
"-78.88","43.92","OSHAWA","6155875","2014-01-01 15:00","2014","01","01","15:00","-12.2","","-17.0","","68","","","","36","","21","","16.1","","101.24","","","","-21","","NA"
"-78.88","43.92","OSHAWA","6155875","2014-01-01 16:00","2014","01","01","16:00","-12.8","","-17.4","","69","","","","1","","15","","16.1","","101.27","","","","-20","","NA"
"-78.88","43.92","OSHAWA","6155875","2014-01-01 17:00","2014","01","01","17:00","-13.3","","-19.3","","61","","","","36","","21","","16.1","","101.27","","","","-22","","NA"
"-78.88","43.92","OSHAWA","6155875","2014-01-01 18:00","2014","01","01","18:00","-13.1","","-20.0","","57","","","","36","","21","","16.1","","101.20","","","","-22","","NA"
"-78.88","43.92","OSHAWA","6155875","2014-01-01 19:00","2014","01","01","19:00","-13.2","","-20.8","","54","","","","35","","24","","16.1","","101.22","","","","-23","","NA"
"-78.88","43.92","OSHAWA","6155875","2014-01-01 20:00","2014","01","01","20:00","-13.9","","-21.5","","53","","","","35","","22","","16.1","","101.21","","","","-23","","NA"
"-78.88","43.92","OSHAWA","6155875","2014-01-01 21:00","2014","01","01","21:00","-14.4","","-22.2","","52","","","","36","","22","","16.1","","101.20","","","","-24","","NA"
"-78.88","43.92","OSHAWA","6155875","2014-01-01 22:00","2014","01","01","22:00","-15.1","","-22.1","","56","","","","35","","24","","16.1","","101.19","","","","-25","","NA"
"-78.88","43.92","OSHAWA","6155875","2014-01-01 23:00","2014","01","01","23:00","-14.8","","-21.9","","55","","","","36","","21","","16.1","","101.23","","","","-24","","NA"
"-78.88","43.92","OSHAWA","6155875","2014-01-02 00:00","2014","01","02","00:00","-14.9","","-23.0","","51","","","","36","","21","","16.1","","101.23","","","","-24","","NA"
"-78.88","43.92","OSHAWA","6155875","2014-01-02 01:00","2014","01","02","01:00","-15.1","","-23.0","","52","","","","1","","15","","16.1","","101.25","","","","-23","","NA"
"-78.88","43.92","OSHAWA","6155875","2014-01-02 02:00","2014","01","02","02:00","-15.2","","-24.3","","46","","","","2","","11","","16.1","","101.21","","","","-22","","NA"
"-78.88","43.92","OSHAWA","6155875","2014-01-02 03:00","2014","01","02","03:00","-15.8","","-23.6","","52","","","","1","","17","","16.1","","101.16","","","","-24","","NA"
"-78.88","43.92","OSHAWA","6155875","2014-01-02 04:00","2014","01","02","04:00","-16.0","","-22.5","","58","","","","2","","17","","16.1","","101.15","","","","-25","","NA"
"-78.88","43.92","OSHAWA","6155875","2014-01-02 05:00","2014","01","02","05:00","-16.2","","-22.6","","59","","","","1","","15","","16.1","","101.13","","","","-24","","NA"
"-78.88","43.92","OSHAWA","6155875","2014-01-02 06:00","2014","01","02","06:00","-16.3","","-21.7","","64","","","","2","","17","","16.1","","101.07","","","","-25","","NA"
"-78.88","43.92","OSHAWA","6155875","2014-01-02 07:00","2014","01","02","07:00","-16.2","","-20.7","","69","","","","2","","17","","16.1","","101.02","","","","-25","","NA"
"-78.88","43.92","OSHAWA","6155875","2014-01-02 08:00","2014","01","02","08:00","-17.3","","-22.2","","66","","","","4","","17","","16.1","","101.03","","","","-26","","NA"
"-78.88","43.92","OSHAWA","6155875","2014-01-02 09:00","2014","01","02","09:00","-19.0","","-23.9","","66","","","","3","","17","","16.1","","100.96","","","","-28","","NA"
"-78.88","43.92","OSHAWA","6155875","2014-01-02 10:00","2014","01","02","10:00","-19.6","","-24.8","","64","","","","2","","15","","16.1","","100.90","","","","-29","","NA"
"-78.88","43.92","OSHAWA","6155875","2014-01-02 11:00","2014","01","02","11:00","-19.9","","-25.0","","64","","","","2","","17","","16.1","","100.90","","","","-30","","NA"
"-78.88","43.92","OSHAWA","6155875","2014-01-02 12:00","2014","01","02","12:00","-19.9","","-24.9","","65","","","","2","","17","","16.1","","100.86","","","","-30","","NA"
"-78.88","43.92","OSHAWA","6155875","2014-01-02 13:00","2014","01","02","13:00","-20.4","","-26.0","","62","","","","2","","18","","16.1","","100.83","","","","-30","","NA"
"-78.88","43.92","OSHAWA","6155875","2014-01-02 14:00","2014","01","02","14:00","-20.2","","-26.3","","59","","","","3","","21","","16.1","","100.76","","","","-31","","NA"
"-78.88","43.92","OSHAWA","6155875","2014-01-02 15:00","2014","01","02","15:00","-19.9","","-26.2","","58","","","","2","","17","","16.1","","100.68","","","","-30","","NA"
"-78.88","43.92","OSHAWA","6155875","2014-01-02 16:00","2014","01","02","16:00","-19.1","","-26.0","","55","","","","3","","15","","16.1","","100.65","","","","-28","","NA"
"-78.88","43.92","OSHAWA","6155875","2014-01-02 17:00","2014","01","02","17:00","-18.7","","-26.2","","52","","","","1","","17","","16.1","","100.56","","","","-28","","NA"
"-78.88","43.92","OSHAWA","6155875","2014-01-02 18:00","2014","01","02","18:00","-18.6","","-26.5","","51","","","","3","","21","","16.1","","100.39","","","","-29","","NA"
"-78.88","43.92","OSHAWA","6155875","2014-01-02 19:00","2014","01","02","19:00","-18.7","","-25.7","","55","","","","1","","24","","16.1","","100.32","","","","-30","","NA"
"-78.88","43.92","OSHAWA","6155875","2014-01-02 20:00","2014","01","02","20:00","-18.8","","-23.9","","65","","","","1","","24","","3.2","","100.25","","","","-30","","NA"
"-78.88","43.92","OSHAWA","6155875","2014-01-02 21:00","2014","01","02","21:00","-18.7","","-23.2","","68","","","","36","","28","","8.1","","100.21","","","","-31","","NA"
"-78.88","43.92","OSHAWA","6155875","2014-01-02 22:00","2014","01","02","22:00","-18.6","","-22.8","","70","","","","1","","30","","8.1","","100.15","","","","-31","","NA"
"-78.88","43.92","OSHAWA","6155875","2014-01-02 23:00","2014","01","02","23:00","-18.8","","-23.9","","65","","","","36","","24","","9.7","","100.20","","","","-30","","NA"
"-78.88","43.92","OSHAWA","6155875","2014-01-03 00:00","2014","01","03","00:00","-18.6","","-23.8","","64","","","","1","","28","","16.1","","100.26","","","","-30","","NA"
"-78.88","43.92","OSHAWA","6155875","2014-01-03 01:00","2014","01","03","01:00","-19.2","","-24.0","","67","","","","36","","28","","6.4","","100.29","","","","-31","","NA"
"-78.88","43.92","OSHAWA","6155875","2014-01-03 02:00","2014","01","03","02:00","-19.7","","-24.8","","65","","","","1","","30","","16.1","","100.29","","","","-32","","NA"
"-78.88","43.92","OSHAWA","6155875","2014-01-03 03:00","2014","01","03","03:00","-20.0","","-27.0","","54","","","","36","","22","","16.1","","100.32","","","","-31","","NA"
"-78.88","43.92","OSHAWA","6155875","2014-01-03 04:00","2014","01","03","04:00","-20.4","","-27.6","","54","","","","36","","17","","16.1","","100.36","","","","-30","","NA"
"-78.88","43.92","OSHAWA","6155875","2014-01-03 05:00","2014","01","03","05:00","-21.0","","-27.6","","56","","","","35","","26","","16.1","","100.38","","","","-33","","NA"
"-78.88","43.92","OSHAWA","6155875","2014-01-03 06:00","2014","01","03","06:00","-21.5","","-27.9","","57","","","","36","","22","","16.1","","100.40","","","","-33","","NA"
"-78.88","43.92","OSHAWA","6155875","2014-01-03 07:00","2014","01","03","07:00","-22.2","","-28.7","","57","","","","34","","22","","16.1","","100.44","","","","-34","","NA"
"-78.88","43.92","OSHAWA","6155875","2014-01-03 08:00","2014","01","03","08:00","-23.0","","-29.4","","57","","","","34","","22","","16.1","","100.54","","","","-35","","NA"
"-78.88","43.92","OSHAWA","6155875","2014-01-03 09:00","2014","01","03","09:00","-23.4","","-29.7","","57","","","","34","","15","","16.1","","100.58","","","","-33","","NA"
"-78.88","43.92","OSHAWA","6155875","2014-01-03 10:00","2014","01","03","10:00","-24.5","","-29.8","","62","","","","34","","26","","16.1","","100.63","","","","-38","","NA"
"-78.88","43.92","OSHAWA","6155875","2014-01-03 11:00","2014","01","03","11:00","-25.1","","-30.4","","62","","","","35","","21","","16.1","","100.76","","","","-37","","NA"
"-78.88","43.92","OSHAWA","6155875","2014-01-03 12:00","2014","01","03","12:00","-25.8","","-30.9","","63","","","","34","","30","","16.1","","100.84","","","","-40","","NA"
"-78.88","43.92","OSHAWA","6155875","2014-01-03 13:00","2014","01","03","13:00","-26.2","","-31.4","","63","","","","34","","28","","16.1","","100.94","","","","-40","","NA"
"-78.88","43.92","OSHAWA","6155875","2014-01-03 14:00","2014","01","03","14:00","-25.7","","-31.5","","59","","","","35","","28","","16.1","","101.01","","","","-40","","NA"
"-78.88","43.92","OSHAWA","6155875","2014-01-03 15:00","2014","01","03","15:00","-24.2","","-30.9","","55","","","","35","","24","","16.1","","101.09","","","","-37","","NA"
"-78.88","43.92","OSHAWA","6155875","2014-01-03 16:00","2014","01","03","16:00","-22.4","","-30.3","","50","","","","34","","21","","16.1","","101.13","","","","-34","","NA"
"-78.88","43.92","OSHAWA","6155875","2014-01-03 17:00","2014","01","03","17:00","-20.5","","-27.8","","53","","","","32","","17","","16.1","","101.11","","","","-30","","NA"
"-78.88","43.92","OSHAWA","6155875","2014-01-03 18:00","2014","01","03","18:00","-19.0","","-27.8","","47","","","","34","","13","","16.1","","101.09","","","","-27","","NA"
"-78.88","43.92","OSHAWA","6155875","2014-01-03 19:00","2014","01","03","19:00","-17.5","","-28.4","","39","","","","32","","8","","16.1","","101.10","","","","-23","","NA"
"-78.88","43.92","OSHAWA","6155875","2014-01-03 20:00","2014","01","03","20:00","-16.4","","-27.4","","39","","","","","","0","","16.1","","101.16","","","","","","NA"
"-78.88","43.92","OSHAWA","6155875","2014-01-03 21:00","2014","01","03","21:00","-16.1","","-26.5","","41","","","","24","","11","","16.1","","101.19","","","","-23","","NA"
"-78.88","43.92","OSHAWA","6155875","2014-01-03 22:00","2014","01","03","22:00","-16.7","","-26.6","","43","","","","27","","8","","16.1","","101.23","","","","-22","","NA"
"-78.88","43.92","OSHAWA","6155875","2014-01-03 23:00","2014","01","03","23:00","-19.3","","-24.2","","66","","","","1","","8","","16.1","","101.15","","","","-25","","NA"
"-78.88","43.92","OSHAWA","6155875","2014-01-04 00:00","2014","01","04","00:00","-19.7","","-23.9","","70","","","","3","","5","","16.1","","101.12","","","","-24","","NA"
"-78.88","43.92","OSHAWA","6155875","2014-01-04 01:00","2014","01","04","01:00","-20.4","","-24.1","","73","","","","1","","5","","16.1","","101.08","","","","-25","","NA"
"-78.88","43.92","OSHAWA","6155875","2014-01-04 02:00","2014","01","04","02:00","-20.6","","-23.8","","76","","","","2","","5","","16.1","","100.98","","","","-25","","NA"
"-78.88","43.92","OSHAWA","6155875","2014-01-04 03:00","2014","01","04","03:00","-18.0","","-21.0","","78","","","","","M","4","","11.3","","100.90","","","","-21","","NA"
"-78.88","43.92","OSHAWA","6155875","2014-01-04 04:00","2014","01","04","04:00","-15.5","","-17.8","","83","","","","8","","8","","16.1","","100.76","","","","-21","","NA"
"-78.88","43.92","OSHAWA","6155875","2014-01-04 05:00","2014","01","04","05:00","-13.3","","-15.3","","85","","","","12","","8","","6.4","","100.67","","","","-18","","NA"
"-78.88","43.92","OSHAWA","6155875","2014-01-04 06:00","2014","01","04","06:00","-8.1","","-10.2","","85","","","","18","","18","","9.7","","100.53","","","","-15","","NA"
"-78.88","43.92","OSHAWA","6155875","2014-01-04 07:00","2014","01","04","07:00","-7.0","","-10.9","","74","","","","21","","26","","14.5","","100.49","","","","-15","","NA"
"-78.88","43.92","OSHAWA","6155875","2014-01-04 08:00","2014","01","04","08:00","-6.6","","-11.6","","68","","","","20","","22","","16.1","","100.47","","","","-14","","NA"
"-78.88","43.92","OSHAWA","6155875","2014-01-04 09:00","2014","01","04","09:00","-6.0","","-11.5","","65","","","","21","","17","","16.1","","100.40","","","","-12","","NA"
"-78.88","43.92","OSHAWA","6155875","2014-01-04 10:00","2014","01","04","10:00","-5.8","","-10.8","","68","","","","21","","32","","16.1","","100.30","","","","-14","","NA"
"-78.88","43.92","OSHAWA","6155875","2014-01-04 11:00","2014","01","04","11:00","-5.4","","-10.0","","70","","","","21","","28","","16.1","","100.24","","","","-13","","NA"
"-78.88","43.92","OSHAWA","6155875","2014-01-04 12:00","2014","01","04","12:00","-5.0","","-10.2","","67","","","","21","","26","","16.1","","100.19","","","","-12","","NA"
"-78.88","43.92","OSHAWA","6155875","2014-01-04 13:00","2014","01","04","13:00","-4.6","","-10.0","","66","","","","20","","28","","16.1","","100.13","","","","-12","","NA"
"-78.88","43.92","OSHAWA","6155875","2014-01-04 14:00","2014","01","04","14:00","-3.7","","-10.1","","62","","","","20","","26","","16.1","","100.05","","","","-11","","NA"
"-78.88","43.92","OSHAWA","6155875","2014-01-04 15:00","2014","01","04","15:00","-2.5","","-9.6","","58","","","","20","","30","","16.1","","99.94","","","","-10","","NA"
"-78.88","43.92","OSHAWA","6155875","2014-01-04 16:00","2014","01","04","16:00","-1.8","","-9.4","","56","","","","22","","30","","16.1","","99.85","","","","-9","","NA"
"-78.88","43.92","OSHAWA","6155875","2014-01-04 17:00","2014","01","04","17:00","-1.9","","-9.8","","55","","","","23","","35","","16.1","","99.77","","","","-9","","NA"
"-78.88","43.92","OSHAWA","6155875","2014-01-04 18:00","2014","01","04","18:00","-1.8","","-9.1","","58","","","","21","","28","","16.1","","99.71","","","","-9","","NA"
"-78.88","43.92","OSHAWA","6155875","2014-01-04 19:00","2014","01","04","19:00","-1.7","","-8.7","","59","","","","21","","24","","16.1","","99.68","","","","-8","","NA"
"-78.88","43.92","OSHAWA","6155875","2014-01-04 20:00","2014","01","04","20:00","-1.2","","-7.5","","63","","","","23","","21","","16.1","","99.70","","","","-7","","NA"
"-78.88","43.92","OSHAWA","6155875","2014-01-04 21:00","2014","01","04","21:00","-0.6","","-6.8","","63","","","","21","","24","","16.1","","99.71","","","","-7","","NA"
"-78.88","43.92","OSHAWA","6155875","2014-01-04 22:00","2014","01","04","22:00","-0.8","","-8.3","","57","","","","22","","26","","16.1","","99.77","","","","-7","","NA"
"-78.88","43.92","OSHAWA","6155875","2014-01-04 23:00","2014","01","04","23:00","-0.4","","-7.3","","60","","","","23","","26","","16.1","","99.79","","","","-7","","NA"
"-78.88","43.92","OSHAWA","6155875","2014-01-05 00:00","2014","01","05","00:00","-0.5","","-7.3","","60","","","","24","","15","","16.1","","99.87","","","","-5","","NA"
"-78.88","43.92","OSHAWA","6155875","2014-01-05 01:00","2014","01","05","01:00","-0.5","","-7.5","","59","","","","24","","18","","16.1","","99.94","","","","-6","","NA"
"-78.88","43.92","OSHAWA","6155875","2014-01-05 02:00","2014","01","05","02:00","-0.7","","-7.2","","62","","","","25","","15","","16.1","","99.99","","","","-5","","NA"
"-78.88","43.92","OSHAWA","6155875","2014-01-05 03:00","2014","01","05","03:00","-0.7","","-6.9","","63","","","","23","","9","","16.1","","99.98","","","","-4","","NA"
"-78.88","43.92","OSHAWA","6155875","2014-01-05 04:00","2014","01","05","04:00","-1.0","","-5.6","","71","","","","24","","18","","9.7","","100.03","","","","-6","","NA"
"-78.88","43.92","OSHAWA","6155875","2014-01-05 05:00","2014","01","05","05:00","-2.0","","-3.6","","89","","","","24","","15","","2.4","","100.09","","","","-7","","NA"
"-78.88","43.92","OSHAWA","6155875","2014-01-05 06:00","2014","01","05","06:00","-2.3","","-3.0","","95","","","","24","","9","","1.6","","100.09","","","","-6","","NA"
"-78.88","43.92","OSHAWA","6155875","2014-01-05 07:00","2014","01","05","07:00","-2.2","","-2.8","","96","","","","21","","8","","1.6","","100.17","","","","-5","","NA"
"-78.88","43.92","OSHAWA","6155875","2014-01-05 08:00","2014","01","05","08:00","-2.1","","-2.7","","96","","","","21","","5","","3.6","","100.19","","","","-4","","NA"
"-78.88","43.92","OSHAWA","6155875","2014-01-05 09:00","2014","01","05","09:00","-2.1","","-2.7","","96","","","","21","","5","","2.0","","100.17","","","","-4","","NA"
"-78.88","43.92","OSHAWA","6155875","2014-01-05 10:00","2014","01","05","10:00","-2.1","","-2.5","","97","","","","22","","4","","2.0","","100.13","","","","-4","","NA"
"-78.88","43.92","OSHAWA","6155875","2014-01-05 11:00","2014","01","05","11:00","-2.3","","-2.7","","97","","","","17","","4","","4.8","","100.14","","","","-4","","NA"
"-78.88","43.92","OSHAWA","6155875","2014-01-05 12:00","2014","01","05","12:00","-2.3","","-2.7","","97","","","","16","","4","","4.8","","100.15","","","","-4","","NA"
"-78.88","43.92","OSHAWA","6155875","2014-01-05 13:00","2014","01","05","13:00","-2.8","","-3.1","","98","","","","12","","4","","2.8","","100.16","","","","-4","","NA"
"-78.88","43.92","OSHAWA","6155875","2014-01-05 14:00","2014","01","05","14:00","-2.3","","-2.7","","97","","","","12","","4","","3.6","","100.23","","","","-4","","NA"
"-78.88","43.92","OSHAWA","6155875","2014-01-05 15:00","2014","01","05","15:00","-1.9","","-2.3","","97","","","","8","","8","","2.8","","100.22","","","","-5","","NA"
"-78.88","43.92","OSHAWA","6155875","2014-01-05 16:00","2014","01","05","16:00","-1.5","","-2.1","","96","","","","7","","4","","4.0","","100.21","","","","-3","","NA"
"-78.88","43.92","OSHAWA","6155875","2014-01-05 17:00","2014","01","05","17:00","-1.0","","-1.7","","95","","","","8","","8","","4.8","","100.05","","","","-4","","NA"
"-78.88","43.92","OSHAWA","6155875","2014-01-05 18:00","2014","01","05","18:00","-0.5","","-1.4","","94","","","","7","","9","","8.1","","99.90","","","","-4","","NA"
"-78.88","43.92","OSHAWA","6155875","2014-01-05 19:00","2014","01","05","19:00","0.1","","-1.2","","91","","","","7","","9","","12.9","","99.76","","","","","","NA"
"-78.88","43.92","OSHAWA","6155875","2014-01-05 20:00","2014","01","05","20:00","0.0","","-1.3","","91","","","","8","","5","","4.8","","99.71","","","","-2","","NA"
"-78.88","43.92","OSHAWA","6155875","2014-01-05 21:00","2014","01","05","21:00","-0.1","","-1.4","","91","","","","10","","13","","16.1","","99.57","","","","-4","","NA"
"-78.88","43.92","OSHAWA","6155875","2014-01-05 22:00","2014","01","05","22:00","-0.2","","-2.4","","85","","","","8","","15","","16.1","","99.47","","","","-5","","NA"
"-78.88","43.92","OSHAWA","6155875","2014-01-05 23:00","2014","01","05","23:00","-0.6","","-2.8","","85","","","","8","","22","","9.7","","99.21","","","","-6","","NA"
"-78.88","43.92","OSHAWA","6155875","2014-01-06 00:00","2014","01","06","00:00","-1.3","","-2.0","","95","","","","7","","15","","1.6","","99.11","","","","-6","","NA"
"-78.88","43.92","OSHAWA","6155875","2014-01-06 01:00","2014","01","06","01:00","-1.2","","-1.9","","95","","","","7","","17","","2.0","","98.87","","","","-6","","NA"
"-78.88","43.92","OSHAWA","6155875","2014-01-06 02:00","2014","01","06","02:00","-0.7","","-1.7","","93","","","","8","","28","","11.3","","98.52","","","","-7","","NA"
"-78.88","43.92","OSHAWA","6155875","2014-01-06 03:00","2014","01","06","03:00","-0.4","","-1.7","","91","","","","9","","26","","16.1","","98.29","","","","-7","","NA"
"-78.88","43.92","OSHAWA","6155875","2014-01-06 04:00","2014","01","06","04:00","0.0","","-0.9","","94","","","","9","","21","","11.3","","98.08","","","","-5","","NA"
"-78.88","43.92","OSHAWA","6155875","2014-01-06 05:00","2014","01","06","05:00","0.5","","-0.1","","96","","","","10","","22","","8.1","","97.91","","","","","","NA"
"-78.88","43.92","OSHAWA","6155875","2014-01-06 06:00","2014","01","06","06:00","1.0","","0.6","","97","","","","9","","15","","8.1","","97.57","","","","","","NA"
"-78.88","43.92","OSHAWA","6155875","2014-01-06 07:00","2014","01","06","07:00","1.6","","1.2","","97","","","","10","","9","","3.6","","97.31","","","","","","NA"
"-78.88","43.92","OSHAWA","6155875","2014-01-06 08:00","2014","01","06","08:00","3.7","","3.3","","97","","","","12","","17","","6.4","","97.17","","","","","","NA"
"-78.88","43.92","OSHAWA","6155875","2014-01-06 09:00","2014","01","06","09:00","2.4","","2.0","","97","","","","5","","8","","16.1","","97.09","","","","","","NA"
"-78.88","43.92","OSHAWA","6155875","2014-01-06 10:00","2014","01","06","10:00","-0.1","","-0.8","","95","","","","30","","37","","16.1","","97.15","","","","-7","","NA"
"-78.88","43.92","OSHAWA","6155875","2014-01-06 11:00","2014","01","06","11:00","-1.6","","-3.8","","85","","","","29","","35","","16.1","","97.45","","","","-9","","NA"
"-78.88","43.92","OSHAWA","6155875","2014-01-06 12:00","2014","01","06","12:00","-3.7","","-6.6","","80","","","","28","","32","","16.1","","97.81","","","","-12","","NA"
"-78.88","43.92","OSHAWA","6155875","2014-01-06 13:00","2014","01","06","13:00","-4.4","","-7.8","","77","","","","28","","30","","16.1","","98.07","","","","-12","","NA"
"-78.88","43.92","OSHAWA","6155875","2014-01-06 14:00","2014","01","06","14:00","-4.7","","-8.5","","75","","","","26","","26","","16.1","","98.26","","","","-12","","NA"
"-78.88","43.92","OSHAWA","6155875","2014-01-06 15:00","2014","01","06","15:00","-5.3","","-9.8","","71","","","","27","","30","","16.1","","98.42","","","","-13","","NA"
"-78.88","43.92","OSHAWA","6155875","2014-01-06 16:00","2014","01","06","16:00","-5.3","","-11.2","","63","","","","26","","32","","16.1","","98.49","","","","-14","","NA"
"-78.88","43.92","OSHAWA","6155875","2014-01-06 17:00","2014","01","06","17:00","-4.7","","-10.3","","65","","","","25","","33","","16.1","","98.42","","","","-13","","NA"
"-78.88","43.92","OSHAWA","6155875","2014-01-06 18:00","2014","01","06","18:00","-5.1","","-8.8","","76","","","","25","","26","","9.7","","98.42","","","","-13","","NA"
"-78.88","43.92","OSHAWA","6155875","2014-01-06 19:00","2014","01","06","19:00","-6.0","","-11.2","","67","","","","26","","35","","16.1","","98.49","","","","-15","","NA"
"-78.88","43.92","OSHAWA","6155875","2014-01-06 20:00","2014","01","06","20:00","-7.0","","-12.4","","66","","","","24","","35","","16.1","","98.55","","","","-16","","NA"
"-78.88","43.92","OSHAWA","6155875","2014-01-06 21:00","2014","01","06","21:00","-7.4","","-12.9","","65","","","","26","","32","","16.1","","98.59","","","","-16","","NA"
"-78.88","43.92","OSHAWA","6155875","2014-01-06 22:00","2014","01","06","22:00","-8.9","","-15.1","","61","","","","24","","28","","16.1","","98.63","","","","-18","","NA"
"-78.88","43.92","OSHAWA","6155875","2014-01-06 23:00","2014","01","06","23:00","-11.2","","-16.2","","67","","","","25","","37","","16.1","","98.76","","","","-22","","NA"
"-78.88","43.92","OSHAWA","6155875","2014-01-07 00:00","2014","01","07","00:00","-12.5","","-17.6","","66","","","","25","","32","","16.1","","98.84","","","","-23","","NA"
"-78.88","43.92","OSHAWA","6155875","2014-01-07 01:00","2014","01","07","01:00","-13.7","","-17.8","","72","","","","25","","22","","9.7","","98.90","","","","-23","","NA"
"-78.88","43.92","OSHAWA","6155875","2014-01-07 02:00","2014","01","07","02:00","-14.5","","-18.8","","70","","","","24","","28","","16.1","","98.89","","","","-25","","NA"
"-78.88","43.92","OSHAWA","6155875","2014-01-07 03:00","2014","01","07","03:00","-14.5","","-18.0","","75","","","","25","","24","","16.1","","98.90","","","","-24","","NA"
"-78.88","43.92","OSHAWA","6155875","2014-01-07 04:00","2014","01","07","04:00","-13.6","","-16.4","","80","","","","24","","22","","6.4","","98.92","","","","-23","","NA"
"-78.88","43.92","OSHAWA","6155875","2014-01-07 05:00","2014","01","07","05:00","-13.9","","-19.0","","66","","","","25","","37","","16.1","","98.98","","","","-26","","NA"
"-78.88","43.92","OSHAWA","6155875","2014-01-07 06:00","2014","01","07","06:00","-15.0","","-21.0","","61","","","","26","","45","","16.1","","99.05","","","","-28","","NA"
"-78.88","43.92","OSHAWA","6155875","2014-01-07 07:00","2014","01","07","07:00","-16.2","","-21.2","","66","","","","25","","35","","16.1","","99.18","","","","-28","","NA"
"-78.88","43.92","OSHAWA","6155875","2014-01-07 08:00","2014","01","07","08:00","-17.1","","-22.4","","64","","","","25","","39","","16.1","","99.33","","","","-30","","NA"
"-78.88","43.92","OSHAWA","6155875","2014-01-07 09:00","2014","01","07","09:00","-19.6","","-25.0","","63","","","","25","","37","","16.1","","99.50","","","","-33","","NA"
"-78.88","43.92","OSHAWA","6155875","2014-01-07 10:00","2014","01","07","10:00","-21.2","","-26.5","","63","","","","24","","30","","16.1","","99.59","","","","-34","","NA"
"-78.88","43.92","OSHAWA","6155875","2014-01-07 11:00","2014","01","07","11:00","-22.1","","-27.2","","64","","","","25","","32","","16.1","","99.65","","","","-36","","NA"
"-78.88","43.92","OSHAWA","6155875","2014-01-07 12:00","2014","01","07","12:00","-22.8","","-27.8","","64","","","","24","","28","","16.1","","99.74","","","","-36","","NA"
"-78.88","43.92","OSHAWA","6155875","2014-01-07 13:00","2014","01","07","13:00","-22.5","","-27.4","","65","","","","24","","24","","16.1","","99.80","","","","-35","","NA"
"-78.88","43.92","OSHAWA","6155875","2014-01-07 14:00","2014","01","07","14:00","-21.5","","-27.0","","62","","","","24","","22","","16.1","","99.89","","","","-33","","NA"
"-78.88","43.92","OSHAWA","6155875","2014-01-07 15:00","2014","01","07","15:00","-20.4","","-26.1","","61","","","","25","","30","","16.1","","99.94","","","","-33","","NA"
"-78.88","43.92","OSHAWA","6155875","2014-01-07 16:00","2014","01","07","16:00","-19.1","","-25.6","","57","","","","23","","32","","16.1","","99.96","","","","-32","","NA"
"-78.88","43.92","OSHAWA","6155875","2014-01-07 17:00","2014","01","07","17:00","-18.2","","-24.8","","57","","","","23","","33","","16.1","","99.90","","","","-31","","NA"
"-78.88","43.92","OSHAWA","6155875","2014-01-07 18:00","2014","01","07","18:00","-17.3","","-24.7","","53","","","","24","","39","","16.1","","99.88","","","","-30","","NA"
"-78.88","43.92","OSHAWA","6155875","2014-01-07 19:00","2014","01","07","19:00","-16.9","","-23.7","","57","","","","23","","28","","16.1","","99.91","","","","-28","","NA"
"-78.88","43.92","OSHAWA","6155875","2014-01-07 20:00","2014","01","07","20:00","-17.1","","-23.6","","58","","","","24","","37","","16.1","","99.95","","","","-30","","NA"
"-78.88","43.92","OSHAWA","6155875","2014-01-07 21:00","2014","01","07","21:00","-17.1","","-22.6","","63","","","","24","","35","","16.1","","100.00","","","","-30","","NA"
"-78.88","43.92","OSHAWA","6155875","2014-01-07 22:00","2014","01","07","22:00","-16.8","","-21.9","","65","","","","24","","26","","16.1","","100.08","","","","-28","","NA"
"-78.88","43.92","OSHAWA","6155875","2014-01-07 23:00","2014","01","07","23:00","-17.4","","-21.5","","71","","","","23","","28","","16.1","","100.15","","","","-29","","NA"
"-78.88","43.92","OSHAWA","6155875","2014-01-08 00:00","2014","01","08","00:00","-17.5","","-21.9","","69","","","","23","","28","","16.1","","100.26","","","","-29","","NA"
"-78.88","43.92","OSHAWA","6155875","2014-01-08 01:00","2014","01","08","01:00","-17.5","","-21.9","","69","","","","24","","21","","16.1","","100.35","","","","-28","","NA"
"-78.88","43.92","OSHAWA","6155875","2014-01-08 02:00","2014","01","08","02:00","-17.6","","-22.0","","69","","","","24","","26","","16.1","","100.42","","","","-29","","NA"
"-78.88","43.92","OSHAWA","6155875","2014-01-08 03:00","2014","01","08","03:00","-17.7","","-22.0","","70","","","","26","","22","","16.1","","100.53","","","","-28","","NA"
"-78.88","43.92","OSHAWA","6155875","2014-01-08 04:00","2014","01","08","04:00","-17.5","","-21.7","","70","","","","25","","22","","16.1","","100.57","","","","-28","","NA"
"-78.88","43.92","OSHAWA","6155875","2014-01-08 05:00","2014","01","08","05:00","-17.1","","-21.4","","70","","","","25","","21","","16.1","","100.61","","","","-27","","NA"
"-78.88","43.92","OSHAWA","6155875","2014-01-08 06:00","2014","01","08","06:00","-16.7","","-20.8","","71","","","","25","","24","","16.1","","100.68","","","","-27","","NA"
"-78.88","43.92","OSHAWA","6155875","2014-01-08 07:00","2014","01","08","07:00","-16.4","","-20.4","","72","","","","25","","24","","16.1","","100.75","","","","-27","","NA"
"-78.88","43.92","OSHAWA","6155875","2014-01-08 08:00","2014","01","08","08:00","-17.2","","-20.9","","73","","","","25","","13","","16.1","","100.85","","","","-25","","NA"
"-78.88","43.92","OSHAWA","6155875","2014-01-08 09:00","2014","01","08","09:00","-16.7","","-20.6","","72","","","","24","","18","","16.1","","100.88","","","","-26","","NA"
"-78.88","43.92","OSHAWA","6155875","2014-01-08 10:00","2014","01","08","10:00","-16.4","","-20.2","","73","","","","25","","21","","16.1","","100.89","","","","-26","","NA"
"-78.88","43.92","OSHAWA","6155875","2014-01-08 11:00","2014","01","08","11:00","-15.7","","-19.4","","74","","","","24","","18","","16.1","","100.91","","","","-25","","NA"
"-78.88","43.92","OSHAWA","6155875","2014-01-08 12:00","2014","01","08","12:00","-15.2","","-19.1","","73","","","","24","","15","","16.1","","100.96","","","","-23","","NA"
"-78.88","43.92","OSHAWA","6155875","2014-01-08 13:00","2014","01","08","13:00","-15.3","","-18.8","","75","","","","24","","11","","16.1","","101.03","","","","-22","","NA"
"-78.88","43.92","OSHAWA","6155875","2014-01-08 14:00","2014","01","08","14:00","-13.6","","-17.6","","72","","","","24","","18","","16.1","","101.12","","","","-22","","NA"
"-78.88","43.92","OSHAWA","6155875","2014-01-08 15:00","2014","01","08","15:00","-12.3","","-16.8","","70","","","","24","","21","","16.1","","101.16","","","","-21","","NA"
"-78.88","43.92","OSHAWA","6155875","2014-01-08 16:00","2014","01","08","16:00","-11.6","","-16.6","","67","","","","25","","21","","16.1","","101.17","","","","-20","","NA"
"-78.88","43.92","OSHAWA","6155875","2014-01-08 17:00","2014","01","08","17:00","-10.7","","-16.5","","63","","","","25","","21","","16.1","","101.10","","","","-19","","NA"
"-78.88","43.92","OSHAWA","6155875","2014-01-08 18:00","2014","01","08","18:00","-10.1","","-16.3","","61","","","","24","","21","","16.1","","101.05","","","","-18","","NA"
"-78.88","43.92","OSHAWA","6155875","2014-01-08 19:00","2014","01","08","19:00","-9.9","","-15.6","","64","","","","25","","21","","16.1","","101.05","","","","-18","","NA"
"-78.88","43.92","OSHAWA","6155875","2014-01-08 20:00","2014","01","08","20:00","-9.8","","-15.0","","66","","","","25","","13","","16.1","","101.05","","","","-16","","NA"
"-78.88","43.92","OSHAWA","6155875","2014-01-08 21:00","2014","01","08","21:00","-9.1","","-13.7","","70","","","","27","","17","","16.1","","101.08","","","","-16","","NA"
"-78.88","43.92","OSHAWA","6155875","2014-01-08 22:00","2014","01","08","22:00","-9.1","","-14.4","","66","","","","25","","15","","16.1","","101.10","","","","-16","","NA"
"-78.88","43.92","OSHAWA","6155875","2014-01-08 23:00","2014","01","08","23:00","-9.1","","-14.8","","64","","","","26","","17","","16.1","","101.15","","","","-16","","NA"
"-78.88","43.92","OSHAWA","6155875","2014-01-09 00:00","2014","01","09","00:00","-9.2","","-14.8","","64","","","","25","","13","","16.1","","101.18","","","","-15","","NA"
"-78.88","43.92","OSHAWA","6155875","2014-01-09 01:00","2014","01","09","01:00","-9.3","","-14.6","","66","","","","25","","17","","16.1","","101.21","","","","-16","","NA"
"-78.88","43.92","OSHAWA","6155875","2014-01-09 02:00","2014","01","09","02:00","-12.0","","-15.9","","73","","","","32","","5","","16.1","","101.26","","","","-15","","NA"
"-78.88","43.92","OSHAWA","6155875","2014-01-09 03:00","2014","01","09","03:00","-12.6","","-15.5","","79","","","","33","","5","","16.1","","101.31","","","","-16","","NA"
"-78.88","43.92","OSHAWA","6155875","2014-01-09 04:00","2014","01","09","04:00","-12.1","","-14.9","","80","","","","30","","4","","16.1","","101.33","","","","-15","","NA"
"-78.88","43.92","OSHAWA","6155875","2014-01-09 05:00","2014","01","09","05:00","-11.7","","-14.6","","79","","","","23","","5","","16.1","","101.36","","","","-15","","NA"
"-78.88","43.92","OSHAWA","6155875","2014-01-09 06:00","2014","01","09","06:00","-12.5","","-15.1","","81","","","","27","","8","","16.1","","101.37","","","","-17","","NA"
"-78.88","43.92","OSHAWA","6155875","2014-01-09 07:00","2014","01","09","07:00","-14.5","","-16.2","","87","","","","32","","4","","16.1","","101.43","","","","-17","","NA"
"-78.88","43.92","OSHAWA","6155875","2014-01-09 08:00","2014","01","09","08:00","-15.4","","-17.0","","88","","","","27","","5","","16.1","","101.49","","","","-19","","NA"
"-78.88","43.92","OSHAWA","6155875","2014-01-09 09:00","2014","01","09","09:00","-13.8","","-15.3","","88","","","","24","","9","","16.1","","101.53","","","","-19","","NA"
"-78.88","43.92","OSHAWA","6155875","2014-01-09 10:00","2014","01","09","10:00","-14.4","","-15.9","","88","","","","25","","4","","16.1","","101.61","","","","-17","","NA"
"-78.88","43.92","OSHAWA","6155875","2014-01-09 11:00","2014","01","09","11:00","-16.7","","-19.0","","83","","","","28","","4","","16.1","","101.69","","","","-20","","NA"
"-78.88","43.92","OSHAWA","6155875","2014-01-09 12:00","2014","01","09","12:00","-18.3","","-20.0","","87","","","","3","","5","","16.1","","101.75","","","","-22","","NA"
"-78.88","43.92","OSHAWA","6155875","2014-01-09 13:00","2014","01","09","13:00","-19.2","","-21.2","","84","","","","36","","8","","16.1","","101.79","","","","-25","","NA"
"-78.88","43.92","OSHAWA","6155875","2014-01-09 14:00","2014","01","09","14:00","-17.4","","-19.3","","85","","","","35","","4","","16.1","","101.88","","","","-21","","NA"
"-78.88","43.92","OSHAWA","6155875","2014-01-09 15:00","2014","01","09","15:00","-12.5","","-15.0","","82","","","","","M","4","","16.1","","101.94","","","","-15","","NA"
"-78.88","43.92","OSHAWA","6155875","2014-01-09 16:00","2014","01","09","16:00","-8.5","","-12.7","","72","","","","27","","9","","16.1","","101.98","","","","-13","","NA"
"-78.88","43.92","OSHAWA","6155875","2014-01-09 17:00","2014","01","09","17:00","-7.2","","-12.5","","66","","","","26","","13","","16.1","","101.88","","","","-13","","NA"
"-78.88","43.92","OSHAWA","6155875","2014-01-09 18:00","2014","01","09","18:00","-6.6","","-11.2","","70","","","","22","","9","","16.1","","101.77","","","","-11","","NA"
"-78.88","43.92","OSHAWA","6155875","2014-01-09 19:00","2014","01","09","19:00","-6.5","","-10.2","","75","","","","23","","11","","16.1","","101.70","","","","-11","","NA"
"-78.88","43.92","OSHAWA","6155875","2014-01-09 20:00","2014","01","09","20:00","-6.0","","-10.7","","70","","","","20","","15","","16.1","","101.66","","","","-12","","NA"
"-78.88","43.92","OSHAWA","6155875","2014-01-09 21:00","2014","01","09","21:00","-6.2","","-11.0","","69","","","","18","","11","","16.1","","101.65","","","","-11","","NA"
"-78.88","43.92","OSHAWA","6155875","2014-01-09 22:00","2014","01","09","22:00","-6.9","","-10.6","","75","","","","18","","5","","16.1","","101.62","","","","-9","","NA"
"-78.88","43.92","OSHAWA","6155875","2014-01-09 23:00","2014","01","09","23:00","-7.3","","-10.7","","77","","","","17","","8","","16.1","","101.61","","","","-11","","NA"
"-78.88","43.92","OSHAWA","6155875","2014-01-10 00:00","2014","01","10","00:00","-11.0","","-12.3","","90","","","","12","","5","","16.1","","101.51","","","","-14","","NA"
"-78.88","43.92","OSHAWA","6155875","2014-01-10 01:00","2014","01","10","01:00","-12.2","","-13.1","","93","","","","8","","4","","16.1","","101.42","","","","-15","","NA"
"-78.88","43.92","OSHAWA","6155875","2014-01-10 02:00","2014","01","10","02:00","-11.9","","-13.4","","89","","","","3","","9","","16.1","","101.33","","","","-17","","NA"
"-78.88","43.92","OSHAWA","6155875","2014-01-10 03:00","2014","01","10","03:00","-12.3","","-13.3","","92","","","","5","","5","","16.1","","101.29","","","","-16","","NA"
"-78.88","43.92","OSHAWA","6155875","2014-01-10 04:00","2014","01","10","04:00","-11.8","","-13.3","","89","","","","4","","8","","16.1","","101.20","","","","-17","","NA"
"-78.88","43.92","OSHAWA","6155875","2014-01-10 05:00","2014","01","10","05:00","-9.9","","-11.7","","87","","","","1","","5","","16.1","","101.10","","","","-13","","NA"
"-78.88","43.92","OSHAWA","6155875","2014-01-10 06:00","2014","01","10","06:00","-8.4","","-10.2","","87","","","","","M","4","","4.8","","101.06","","","","-11","","NA"
"-78.88","43.92","OSHAWA","6155875","2014-01-10 07:00","2014","01","10","07:00","-7.7","","-8.9","","91","","","","35","","4","","2.0","","101.03","","","","-10","","NA"
"-78.88","43.92","OSHAWA","6155875","2014-01-10 08:00","2014","01","10","08:00","-7.1","","-7.9","","94","","","","2","","4","","2.0","","101.04","","","","-9","","NA"
"-78.88","43.92","OSHAWA","6155875","2014-01-10 09:00","2014","01","10","09:00","-6.1","","-6.8","","95","","","","10","","4","","2.8","","100.95","","","","-8","","NA"
"-78.88","43.92","OSHAWA","6155875","2014-01-10 10:00","2014","01","10","10:00","-5.3","","-6.0","","95","","","","8","","4","","6.4","","100.89","","","","-7","","NA"
"-78.88","43.92","OSHAWA","6155875","2014-01-10 11:00","2014","01","10","11:00","-4.6","","-5.1","","96","","","","9","","5","","4.8","","100.81","","","","-7","","NA"
"-78.88","43.92","OSHAWA","6155875","2014-01-10 12:00","2014","01","10","12:00","-4.3","","-4.8","","96","","","","9","","5","","3.6","","100.79","","","","-6","","NA"
"-78.88","43.92","OSHAWA","6155875","2014-01-10 13:00","2014","01","10","13:00","-4.0","","-4.6","","96","","","","7","","4","","3.6","","100.79","","","","-6","","NA"
"-78.88","43.92","OSHAWA","6155875","2014-01-10 14:00","2014","01","10","14:00","-3.1","","-3.7","","96","","","","9","","8","","4.8","","100.78","","","","-6","","NA"
"-78.88","43.92","OSHAWA","6155875","2014-01-10 15:00","2014","01","10","15:00","-2.2","","-2.8","","96","","","","11","","5","","3.6","","100.77","","","","-4","","NA"
"-78.88","43.92","OSHAWA","6155875","2014-01-10 16:00","2014","01","10","16:00","-1.4","","-2.1","","95","","","","10","","4","","4.0","","100.72","","","","-3","","NA"
"-78.88","43.92","OSHAWA","6155875","2014-01-10 17:00","2014","01","10","17:00","-0.6","","-1.5","","94","","","","","M","4","","4.0","","100.61","","","","-2","","NA"
"-78.88","43.92","OSHAWA","6155875","2014-01-10 18:00","2014","01","10","18:00","0.5","","-0.7","","92","","","","20","","5","","8.1","","100.52","","","","","","NA"
"-78.88","43.92","OSHAWA","6155875","2014-01-10 19:00","2014","01","10","19:00","0.8","","-0.4","","92","","","","20","","8","","12.9","","100.45","","","","","","NA"
"-78.88","43.92","OSHAWA","6155875","2014-01-10 20:00","2014","01","10","20:00","1.0","","0.0","","93","","","","17","","8","","9.7","","100.41","","","","","","NA"
"-78.88","43.92","OSHAWA","6155875","2014-01-10 21:00","2014","01","10","21:00","1.1","","0.4","","95","","","","13","","5","","6.4","","100.36","","","","","","NA"
"-78.88","43.92","OSHAWA","6155875","2014-01-10 22:00","2014","01","10","22:00","0.9","","0.3","","96","","","","11","","8","","4.8","","100.31","","","","","","NA"
"-78.88","43.92","OSHAWA","6155875","2014-01-10 23:00","2014","01","10","23:00","1.2","","0.5","","95","","","","11","","11","","6.4","","100.22","","","","","","NA"
"-78.88","43.92","OSHAWA","6155875","2014-01-11 00:00","2014","01","11","00:00","1.7","","0.7","","93","","","","11","","13","","9.7","","100.19","","","","","","NA"
"-78.88","43.92","OSHAWA","6155875","2014-01-11 01:00","2014","01","11","01:00","1.6","","0.9","","95","","","","10","","9","","4.8","","100.11","","","","","","NA"
"-78.88","43.92","OSHAWA","6155875","2014-01-11 02:00","2014","01","11","02:00","1.9","","0.9","","93","","","","12","","11","","8.1","","99.96","","","","","","NA"
"-78.88","43.92","OSHAWA","6155875","2014-01-11 03:00","2014","01","11","03:00","2.3","","1.0","","91","","","","10","","11","","12.9","","99.85","","","","","","NA"
"-78.88","43.92","OSHAWA","6155875","2014-01-11 04:00","2014","01","11","04:00","2.0","","1.0","","93","","","","9","","13","","9.7","","99.70","","","","","","NA"
"-78.88","43.92","OSHAWA","6155875","2014-01-11 05:00","2014","01","11","05:00","2.4","","1.2","","92","","","","9","","15","","9.7","","99.55","","","","","","NA"
"-78.88","43.92","OSHAWA","6155875","2014-01-11 06:00","2014","01","11","06:00","2.7","","1.4","","91","","","","7","","11","","14.5","","99.29","","","","","","NA"
"-78.88","43.92","OSHAWA","6155875","2014-01-11 07:00","2014","01","11","07:00","2.4","","1.7","","95","","","","9","","18","","4.8","","99.18","","","","","","NA"
"-78.88","43.92","OSHAWA","6155875","2014-01-11 08:00","2014","01","11","08:00","2.4","","1.8","","96","","","","10","","22","","4.8","","99.02","","","","","","NA"
"-78.88","43.92","OSHAWA","6155875","2014-01-11 09:00","2014","01","11","09:00","2.6","","2.2","","97","","","","11","","18","","3.6","","98.77","","","","","","NA"
"-78.88","43.92","OSHAWA","6155875","2014-01-11 10:00","2014","01","11","10:00","2.8","","2.4","","97","","","","10","","15","","3.6","","98.64","","","","","","NA"
"-78.88","43.92","OSHAWA","6155875","2014-01-11 11:00","2014","01","11","11:00","2.7","","2.3","","97","","","","10","","18","","2.8","","98.50","","","","","","NA"
"-78.88","43.92","OSHAWA","6155875","2014-01-11 12:00","2014","01","11","12:00","3.2","","2.8","","97","","","","10","","13","","4.8","","98.33","","","","","","NA"
"-78.88","43.92","OSHAWA","6155875","2014-01-11 13:00","2014","01","11","13:00","3.1","","2.7","","97","","","","9","","11","","2.4","","98.26","","","","","","NA"
"-78.88","43.92","OSHAWA","6155875","2014-01-11 14:00","2014","01","11","14:00","3.7","","3.4","","98","","","","9","","9","","1.0","","98.22","","","","","","NA"
"-78.88","43.92","OSHAWA","6155875","2014-01-11 15:00","2014","01","11","15:00","4.6","","4.3","","98","","","","11","","11","","0.2","","98.06","","","","","","NA"
"-78.88","43.92","OSHAWA","6155875","2014-01-11 16:00","2014","01","11","16:00","4.6","","4.3","","98","","","","9","","9","","0.2","","97.94","","","","","","NA"
"-78.88","43.92","OSHAWA","6155875","2014-01-11 17:00","2014","01","11","17:00","4.9","","4.6","","98","","","","11","","9","","0.2","","97.71","","","","","","NA"
"-78.88","43.92","OSHAWA","6155875","2014-01-11 18:00","2014","01","11","18:00","4.8","","4.5","","98","","","","9","","5","","0.2","","97.49","","","","","","NA"
"-78.88","43.92","OSHAWA","6155875","2014-01-11 19:00","2014","01","11","19:00","5.2","","5.1","","99","","","","11","","9","","0.2","","97.34","","","","","","NA"
"-78.88","43.92","OSHAWA","6155875","2014-01-11 20:00","2014","01","11","20:00","5.0","","4.9","","99","","","","15","","5","","0.2","","97.15","","","","","","NA"
"-78.88","43.92","OSHAWA","6155875","2014-01-11 21:00","2014","01","11","21:00","5.6","","5.5","","99","","","","23","","9","","0.4","","97.19","","","","","","NA"
"-78.88","43.92","OSHAWA","6155875","2014-01-11 22:00","2014","01","11","22:00","5.5","","5.4","","99","","","","22","","9","","1.6","","97.30","","","","","","NA"
"-78.88","43.92","OSHAWA","6155875","2014-01-11 23:00","2014","01","11","23:00","4.7","","4.6","","99","","","","25","","13","","6.4","","97.33","","","","","","NA"
"-78.88","43.92","OSHAWA","6155875","2014-01-12 00:00","2014","01","12","00:00","4.2","","3.9","","98","","","","25","","22","","16.1","","97.39","","","","","","NA"
"-78.88","43.92","OSHAWA","6155875","2014-01-12 01:00","2014","01","12","01:00","3.1","","2.2","","94","","","","25","","15","","16.1","","97.48","","","","","","NA"
"-78.88","43.92","OSHAWA","6155875","2014-01-12 02:00","2014","01","12","02:00","3.2","","2.0","","92","","","","24","","24","","16.1","","97.54","","","","","","NA"
"-78.88","43.92","OSHAWA","6155875","2014-01-12 03:00","2014","01","12","03:00","2.8","","1.0","","88","","","","26","","28","","16.1","","97.70","","","","","","NA"
"-78.88","43.92","OSHAWA","6155875","2014-01-12 04:00","2014","01","12","04:00","2.6","","-0.4","","81","","","","25","","24","","16.1","","97.85","","","","","","NA"
"-78.88","43.92","OSHAWA","6155875","2014-01-12 05:00","2014","01","12","05:00","2.4","","-0.9","","79","","","","25","","24","","16.1","","97.97","","","","","","NA"
"-78.88","43.92","OSHAWA","6155875","2014-01-12 06:00","2014","01","12","06:00","2.3","","-1.3","","77","","","","26","","22","","16.1","","98.05","","","","","","NA"
"-78.88","43.92","OSHAWA","6155875","2014-01-12 07:00","2014","01","12","07:00","2.1","","-1.3","","78","","","","26","","28","","16.1","","98.19","","","","","","NA"
"-78.88","43.92","OSHAWA","6155875","2014-01-12 08:00","2014","01","12","08:00","1.9","","-1.4","","79","","","","25","","22","","16.1","","98.30","","","","","","NA"
"-78.88","43.92","OSHAWA","6155875","2014-01-12 09:00","2014","01","12","09:00","1.6","","-1.3","","81","","","","26","","24","","16.1","","98.39","","","","","","NA"
"-78.88","43.92","OSHAWA","6155875","2014-01-12 10:00","2014","01","12","10:00","1.6","","-2.0","","77","","","","25","","24","","16.1","","98.52","","","","","","NA"
"-78.88","43.92","OSHAWA","6155875","2014-01-12 11:00","2014","01","12","11:00","1.5","","-1.9","","78","","","","26","","26","","16.1","","98.62","","","","","","NA"
"-78.88","43.92","OSHAWA","6155875","2014-01-12 12:00","2014","01","12","12:00","1.4","","-1.7","","80","","","","25","","18","","16.1","","98.75","","","","","","NA"
"-78.88","43.92","OSHAWA","6155875","2014-01-12 13:00","2014","01","12","13:00","0.7","","-0.8","","90","","","","26","","18","","3.6","","98.90","","","","","","NA"
"-78.88","43.92","OSHAWA","6155875","2014-01-12 14:00","2014","01","12","14:00","1.3","","-1.7","","81","","","","26","","22","","16.1","","99.01","","","","","","NA"
"-78.88","43.92","OSHAWA","6155875","2014-01-12 15:00","2014","01","12","15:00","1.4","","-1.5","","81","","","","25","","18","","16.1","","99.12","","","","","","NA"
"-78.88","43.92","OSHAWA","6155875","2014-01-12 16:00","2014","01","12","16:00","2.0","","-2.3","","73","","","","25","","24","","16.1","","99.21","","","","","","NA"
"-78.88","43.92","OSHAWA","6155875","2014-01-12 17:00","2014","01","12","17:00","1.9","","-2.3","","74","","","","25","","17","","16.1","","99.26","","","","","","NA"
"-78.88","43.92","OSHAWA","6155875","2014-01-12 18:00","2014","01","12","18:00","2.2","","-2.7","","70","","","","25","","22","","16.1","","99.24","","","","","","NA"
"-78.88","43.92","OSHAWA","6155875","2014-01-12 19:00","2014","01","12","19:00","2.2","","-2.9","","69","","","","25","","21","","16.1","","99.26","","","","","","NA"
"-78.88","43.92","OSHAWA","6155875","2014-01-12 20:00","2014","01","12","20:00","2.1","","-2.8","","70","","","","25","","17","","16.1","","99.34","","","","","","NA"
"-78.88","43.92","OSHAWA","6155875","2014-01-12 21:00","2014","01","12","21:00","2.1","","-2.8","","70","","","","25","","15","","16.1","","99.47","","","","","","NA"
"-78.88","43.92","OSHAWA","6155875","2014-01-12 22:00","2014","01","12","22:00","1.9","","-3.4","","68","","","","25","","15","","16.1","","99.49","","","","","","NA"
"-78.88","43.92","OSHAWA","6155875","2014-01-12 23:00","2014","01","12","23:00","0.6","","-3.3","","75","","","","22","","8","","16.1","","99.57","","","","","","NA"
"-78.88","43.92","OSHAWA","6155875","2014-01-13 00:00","2014","01","13","00:00","1.1","","-2.0","","80","","","","22","","17","","16.1","","99.60","","","","","","NA"
"-78.88","43.92","OSHAWA","6155875","2014-01-13 01:00","2014","01","13","01:00","1.2","","-1.5","","82","","","","22","","18","","16.1","","99.58","","","","","","NA"
"-78.88","43.92","OSHAWA","6155875","2014-01-13 02:00","2014","01","13","02:00","0.7","","-2.2","","81","","","","21","","11","","16.1","","99.55","","","","","","NA"
"-78.88","43.92","OSHAWA","6155875","2014-01-13 03:00","2014","01","13","03:00","0.7","","-1.4","","86","","","","20","","13","","16.1","","99.52","","","","","","NA"
"-78.88","43.92","OSHAWA","6155875","2014-01-13 04:00","2014","01","13","04:00","1.1","","-1.3","","84","","","","19","","22","","16.1","","99.49","","","","","","NA"
"-78.88","43.92","OSHAWA","6155875","2014-01-13 05:00","2014","01","13","05:00","1.2","","-1.2","","84","","","","20","","18","","16.1","","99.46","","","","","","NA"
"-78.88","43.92","OSHAWA","6155875","2014-01-13 06:00","2014","01","13","06:00","0.9","","-1.2","","86","","","","19","","13","","16.1","","99.50","","","","","","NA"
"-78.88","43.92","OSHAWA","6155875","2014-01-13 07:00","2014","01","13","07:00","0.9","","-1.3","","85","","","","16","","9","","16.1","","99.46","","","","","","NA"
"-78.88","43.92","OSHAWA","6155875","2014-01-13 08:00","2014","01","13","08:00","0.5","","-1.1","","89","","","","16","","8","","16.1","","99.43","","","","","","NA"
"-78.88","43.92","OSHAWA","6155875","2014-01-13 09:00","2014","01","13","09:00","-1.8","","-2.5","","95","","","","12","","5","","8.1","","99.35","","","","-4","","NA"
"-78.88","43.92","OSHAWA","6155875","2014-01-13 10:00","2014","01","13","10:00","-1.2","","-1.8","","96","","","","11","","9","","11.3","","99.24","","","","-4","","NA"
"-78.88","43.92","OSHAWA","6155875","2014-01-13 11:00","2014","01","13","11:00","-1.0","","-2.0","","93","","","","11","","8","","11.3","","99.17","","","","-4","","NA"
"-78.88","43.92","OSHAWA","6155875","2014-01-13 12:00","2014","01","13","12:00","-0.5","","-1.6","","92","","","","9","","11","","14.5","","99.13","","","","-4","","NA"
"-78.88","43.92","OSHAWA","6155875","2014-01-13 13:00","2014","01","13","13:00","-0.7","","-1.8","","92","","","","11","","8","","14.5","","99.10","","","","-4","","NA"
"-78.88","43.92","OSHAWA","6155875","2014-01-13 14:00","2014","01","13","14:00","-0.1","","-1.6","","90","","","","10","","9","","16.1","","99.09","","","","-3","","NA"
"-78.88","43.92","OSHAWA","6155875","2014-01-13 15:00","2014","01","13","15:00","1.5","","-0.8","","85","","","","11","","9","","16.1","","99.06","","","","","","NA"
"-78.88","43.92","OSHAWA","6155875","2014-01-13 16:00","2014","01","13","16:00","4.4","","0.0","","73","","","","16","","8","","16.1","","98.97","","","","","","NA"
"-78.88","43.92","OSHAWA","6155875","2014-01-13 17:00","2014","01","13","17:00","5.0","","0.2","","71","","","","17","","11","","16.1","","98.82","","","","","","NA"
"-78.88","43.92","OSHAWA","6155875","2014-01-13 18:00","2014","01","13","18:00","5.6","","0.4","","69","","","","19","","13","","16.1","","98.77","","","","","","NA"
"-78.88","43.92","OSHAWA","6155875","2014-01-13 19:00","2014","01","13","19:00","5.6","","0.4","","69","","","","19","","18","","16.1","","98.72","","","","","","NA"
"-78.88","43.92","OSHAWA","6155875","2014-01-13 20:00","2014","01","13","20:00","5.8","","0.6","","69","","","","19","","11","","16.1","","98.67","","","","","","NA"
"-78.88","43.92","OSHAWA","6155875","2014-01-13 21:00","2014","01","13","21:00","5.9","","1.0","","71","","","","19","","21","","16.1","","98.70","","","","","","NA"
"-78.88","43.92","OSHAWA","6155875","2014-01-13 22:00","2014","01","13","22:00","5.3","","1.4","","76","","","","20","","11","","16.1","","98.68","","","","","","NA"
"-78.88","43.92","OSHAWA","6155875","2014-01-13 23:00","2014","01","13","23:00","5.1","","1.7","","79","","","","21","","11","","16.1","","98.67","","","","","","NA"
"-78.88","43.92","OSHAWA","6155875","2014-01-14 00:00","2014","01","14","00:00","5.1","","2.9","","86","","","","20","","11","","16.1","","98.68","","","","","","NA"
"-78.88","43.92","OSHAWA","6155875","2014-01-14 01:00","2014","01","14","01:00","5.0","","3.0","","87","","","","22","","15","","16.1","","98.67","","","","","","NA"
"-78.88","43.92","OSHAWA","6155875","2014-01-14 02:00","2014","01","14","02:00","5.0","","3.0","","87","","","","21","","15","","16.1","","98.63","","","","","","NA"
"-78.88","43.92","OSHAWA","6155875","2014-01-14 03:00","2014","01","14","03:00","4.6","","3.1","","90","","","","21","","15","","16.1","","98.60","","","","","","NA"
"-78.88","43.92","OSHAWA","6155875","2014-01-14 04:00","2014","01","14","04:00","4.4","","3.4","","93","","","","22","","17","","16.1","","98.59","","","","","","NA"
"-78.88","43.92","OSHAWA","6155875","2014-01-14 05:00","2014","01","14","05:00","5.0","","4.0","","93","","","","21","","18","","16.1","","98.58","","","","","","NA"
"-78.88","43.92","OSHAWA","6155875","2014-01-14 06:00","2014","01","14","06:00","4.4","","3.4","","93","","","","22","","11","","16.1","","98.58","","","","","","NA"
"-78.88","43.92","OSHAWA","6155875","2014-01-14 07:00","2014","01","14","07:00","3.9","","3.2","","95","","","","21","","5","","11.3","","98.59","","","","","","NA"
"-78.88","43.92","OSHAWA","6155875","2014-01-14 08:00","2014","01","14","08:00","3.0","","2.4","","96","","","","18","","5","","4.8","","98.65","","","","","","NA"
"-78.88","43.92","OSHAWA","6155875","2014-01-14 09:00","2014","01","14","09:00","1.8","","1.5","","98","","","","","","0","","1.6","","98.66","","","","","","NA"
"-78.88","43.92","OSHAWA","6155875","2014-01-14 10:00","2014","01","14","10:00","1.5","","1.2","","98","","","","24","","5","","1.6","","98.71","","","","","","NA"
"-78.88","43.92","OSHAWA","6155875","2014-01-14 11:00","2014","01","14","11:00","1.5","","1.2","","98","","","","23","","8","","","M","98.77","","","","","","NA"
"-78.88","43.92","OSHAWA","6155875","2014-01-14 12:00","2014","01","14","12:00","1.3","","1.0","","98","","","","23","","8","","6.4","","98.83","","","","","","NA"
"-78.88","43.92","OSHAWA","6155875","2014-01-14 13:00","2014","01","14","13:00","2.0","","1.1","","94","","","","30","","9","","9.7","","98.89","","","","","","NA"
"-78.88","43.92","OSHAWA","6155875","2014-01-14 14:00","2014","01","14","14:00","2.0","","0.1","","87","","","","33","","8","","16.1","","98.99","","","","","","NA"
"-78.88","43.92","OSHAWA","6155875","2014-01-14 15:00","2014","01","14","15:00","1.9","","-1.0","","81","","","","35","","11","","16.1","","99.08","","","","","","NA"
"-78.88","43.92","OSHAWA","6155875","2014-01-14 16:00","2014","01","14","16:00","1.8","","-1.7","","77","","","","34","","17","","16.1","","99.12","","","","","","NA"
"-78.88","43.92","OSHAWA","6155875","2014-01-14 17:00","2014","01","14","17:00","1.8","","-2.1","","76","","","","35","","17","","16.1","","99.08","","","","","","NA"
"-78.88","43.92","OSHAWA","6155875","2014-01-14 18:00","2014","01","14","18:00","2.0","","-3.0","","70","","","","34","","11","","16.1","","99.05","","","","","","NA"
"-78.88","43.92","OSHAWA","6155875","2014-01-14 19:00","2014","01","14","19:00","2.4","","-3.4","","66","","","","33","","11","","16.1","","99.08","","","","","","NA"
"-78.88","43.92","OSHAWA","6155875","2014-01-14 20:00","2014","01","14","20:00","2.2","","-4.1","","63","","","","36","","8","","16.1","","99.09","","","","","","NA"
"-78.88","43.92","OSHAWA","6155875","2014-01-14 21:00","2014","01","14","21:00","2.3","","-4.7","","60","","","","2","","8","","16.1","","99.11","","","","","","NA"
"-78.88","43.92","OSHAWA","6155875","2014-01-14 22:00","2014","01","14","22:00","1.0","","-4.3","","68","","","","","","0","","16.1","","99.11","","","","","","NA"
"-78.88","43.92","OSHAWA","6155875","2014-01-14 23:00","2014","01","14","23:00","0.4","","-2.5","","81","","","","15","","4","","16.1","","99.19","","","","","","NA"
"-78.88","43.92","OSHAWA","6155875","2014-01-15 00:00","2014","01","15","00:00","0.2","","-2.3","","83","","","","7","","4","","16.1","","99.20","","","","","","NA"
"-78.88","43.92","OSHAWA","6155875","2014-01-15 01:00","2014","01","15","01:00","0.6","","-1.7","","85","","","","11","","5","","16.1","","99.23","","","","","","NA"
"-78.88","43.92","OSHAWA","6155875","2014-01-15 02:00","2014","01","15","02:00","1.4","","-1.0","","84","","","","19","","13","","16.1","","99.20","","","","","","NA"
"-78.88","43.92","OSHAWA","6155875","2014-01-15 03:00","2014","01","15","03:00","1.3","","-1.3","","83","","","","17","","9","","16.1","","99.23","","","","","","NA"
"-78.88","43.92","OSHAWA","6155875","2014-01-15 04:00","2014","01","15","04:00","1.0","","-1.4","","84","","","","18","","8","","16.1","","99.18","","","","","","NA"
"-78.88","43.92","OSHAWA","6155875","2014-01-15 05:00","2014","01","15","05:00","0.8","","-1.6","","84","","","","16","","8","","16.1","","99.14","","","","","","NA"
"-78.88","43.92","OSHAWA","6155875","2014-01-15 06:00","2014","01","15","06:00","0.6","","-1.6","","85","","","","13","","8","","16.1","","99.06","","","","","","NA"
"-78.88","43.92","OSHAWA","6155875","2014-01-15 07:00","2014","01","15","07:00","0.6","","-1.8","","84","","","","12","","11","","16.1","","99.03","","","","","","NA"
"-78.88","43.92","OSHAWA","6155875","2014-01-15 08:00","2014","01","15","08:00","0.6","","-1.0","","89","","","","10","","9","","14.5","","99.00","","","","","","NA"
"-78.88","43.92","OSHAWA","6155875","2014-01-15 09:00","2014","01","15","09:00","1.4","","-0.5","","87","","","","16","","9","","11.3","","98.97","","","","","","NA"
"-78.88","43.92","OSHAWA","6155875","2014-01-15 10:00","2014","01","15","10:00","2.0","","-0.1","","86","","","","19","","13","","16.1","","98.99","","","","","","NA"
"-78.88","43.92","OSHAWA","6155875","2014-01-15 11:00","2014","01","15","11:00","1.6","","-2.3","","75","","","","22","","30","","16.1","","98.99","","","","","","NA"
"-78.88","43.92","OSHAWA","6155875","2014-01-15 12:00","2014","01","15","12:00","0.0","","-5.1","","69","","","","22","","24","","16.1","","99.11","","","","-6","","NA"
"-78.88","43.92","OSHAWA","6155875","2014-01-15 13:00","2014","01","15","13:00","-0.6","","-7.6","","59","","","","24","","28","","16.1","","99.22","","","","-7","","NA"
"-78.88","43.92","OSHAWA","6155875","2014-01-15 14:00","2014","01","15","14:00","-0.3","","-6.9","","61","","","","21","","33","","16.1","","99.27","","","","-7","","NA"
"-78.88","43.92","OSHAWA","6155875","2014-01-15 15:00","2014","01","15","15:00","-0.6","","-6.9","","63","","","","23","","33","","16.1","","99.34","","","","-8","","NA"
"-78.88","43.92","OSHAWA","6155875","2014-01-15 16:00","2014","01","15","16:00","-1.0","","-7.6","","61","","","","23","","32","","16.1","","99.40","","","","-8","","NA"
"-78.88","43.92","OSHAWA","6155875","2014-01-15 17:00","2014","01","15","17:00","-0.9","","-7.3","","62","","","","23","","32","","16.1","","99.37","","","","-8","","NA"
"-78.88","43.92","OSHAWA","6155875","2014-01-15 18:00","2014","01","15","18:00","-1.1","","-6.3","","68","","","","23","","18","","16.1","","99.37","","","","-6","","NA"
"-78.88","43.92","OSHAWA","6155875","2014-01-15 19:00","2014","01","15","19:00","-1.0","","-6.0","","69","","","","23","","24","","16.1","","99.40","","","","-7","","NA"
"-78.88","43.92","OSHAWA","6155875","2014-01-15 20:00","2014","01","15","20:00","-1.2","","-5.3","","74","","","","22","","22","","16.1","","99.46","","","","-7","","NA"
"-78.88","43.92","OSHAWA","6155875","2014-01-15 21:00","2014","01","15","21:00","-1.2","","-5.1","","75","","","","23","","17","","16.1","","99.52","","","","-6","","NA"
"-78.88","43.92","OSHAWA","6155875","2014-01-15 22:00","2014","01","15","22:00","-1.2","","-6.6","","67","","","","24","","18","","16.1","","99.57","","","","-6","","NA"
"-78.88","43.92","OSHAWA","6155875","2014-01-15 23:00","2014","01","15","23:00","-1.5","","-6.7","","68","","","","24","","18","","16.1","","99.61","","","","-7","","NA"
"-78.88","43.92","OSHAWA","6155875","2014-01-16 00:00","2014","01","16","00:00","-2.1","","-7.5","","67","","","","27","","24","","16.1","","99.68","","","","-8","","NA"
"-78.88","43.92","OSHAWA","6155875","2014-01-16 01:00","2014","01","16","01:00","-2.9","","-7.8","","69","","","","27","","28","","16.1","","99.75","","","","-10","","NA"
"-78.88","43.92","OSHAWA","6155875","2014-01-16 02:00","2014","01","16","02:00","-3.7","","-9.2","","66","","","","27","","18","","16.1","","99.78","","","","-10","","NA"
"-78.88","43.92","OSHAWA","6155875","2014-01-16 03:00","2014","01","16","03:00","-4.8","","-9.3","","71","","","","29","","13","","16.1","","99.78","","","","-10","","NA"
"-78.88","43.92","OSHAWA","6155875","2014-01-16 04:00","2014","01","16","04:00","-5.2","","-9.5","","72","","","","25","","8","","16.1","","99.74","","","","-9","","NA"
"-78.88","43.92","OSHAWA","6155875","2014-01-16 05:00","2014","01","16","05:00","-6.2","","-9.3","","79","","","","","","0","","16.1","","99.72","","","","","","NA"
"-78.88","43.92","OSHAWA","6155875","2014-01-16 06:00","2014","01","16","06:00","-6.8","","-8.8","","86","","","","30","","4","","16.1","","99.71","","","","-9","","NA"
"-78.88","43.92","OSHAWA","6155875","2014-01-16 07:00","2014","01","16","07:00","-5.6","","-8.4","","81","","","","28","","4","","16.1","","99.73","","","","-7","","NA"
"-78.88","43.92","OSHAWA","6155875","2014-01-16 08:00","2014","01","16","08:00","-5.5","","-8.6","","79","","","","33","","8","","16.1","","99.70","","","","-9","","NA"
"-78.88","43.92","OSHAWA","6155875","2014-01-16 09:00","2014","01","16","09:00","-5.6","","-8.4","","81","","","","","","0","","16.1","","99.64","","","","","","NA"
"-78.88","43.92","OSHAWA","6155875","2014-01-16 10:00","2014","01","16","10:00","-5.1","","-7.9","","81","","","","","","0","","16.1","","99.65","","","","","","NA"
"-78.88","43.92","OSHAWA","6155875","2014-01-16 11:00","2014","01","16","11:00","-5.4","","-7.4","","86","","","","","M","4","","16.1","","99.62","","","","-7","","NA"
"-78.88","43.92","OSHAWA","6155875","2014-01-16 12:00","2014","01","16","12:00","-5.2","","-6.6","","90","","","","11","","5","","8.1","","99.63","","","","-7","","NA"
"-78.88","43.92","OSHAWA","6155875","2014-01-16 13:00","2014","01","16","13:00","-5.4","","-6.8","","90","","","","10","","9","","16.1","","99.60","","","","-9","","NA"
"-78.88","43.92","OSHAWA","6155875","2014-01-16 14:00","2014","01","16","14:00","-4.9","","-6.6","","88","","","","10","","9","","16.1","","99.62","","","","-9","","NA"
"-78.88","43.92","OSHAWA","6155875","2014-01-16 15:00","2014","01","16","15:00","-4.2","","-6.3","","85","","","","11","","8","","16.1","","99.65","","","","-8","","NA"
"-78.88","43.92","OSHAWA","6155875","2014-01-16 16:00","2014","01","16","16:00","-2.4","","-8.2","","65","","","","20","","18","","16.1","","99.62","","","","-8","","NA"
"-78.88","43.92","OSHAWA","6155875","2014-01-16 17:00","2014","01","16","17:00","-2.5","","-6.3","","75","","","","19","","15","","16.1","","99.53","","","","-7","","NA"
"-78.88","43.92","OSHAWA","6155875","2014-01-16 18:00","2014","01","16","18:00","-2.0","","-7.3","","67","","","","18","","15","","16.1","","99.42","","","","-7","","NA"
"-78.88","43.92","OSHAWA","6155875","2014-01-16 19:00","2014","01","16","19:00","-1.7","","-6.5","","70","","","","21","","21","","16.1","","99.35","","","","-8","","NA"
"-78.88","43.92","OSHAWA","6155875","2014-01-16 20:00","2014","01","16","20:00","-1.6","","-6.9","","67","","","","20","","17","","16.1","","99.37","","","","-7","","NA"
"-78.88","43.92","OSHAWA","6155875","2014-01-16 21:00","2014","01","16","21:00","-1.6","","-8.3","","60","","","","18","","17","","16.1","","99.38","","","","-7","","NA"
"-78.88","43.92","OSHAWA","6155875","2014-01-16 22:00","2014","01","16","22:00","-1.6","","-8.2","","61","","","","18","","13","","16.1","","99.38","","","","-6","","NA"
"-78.88","43.92","OSHAWA","6155875","2014-01-16 23:00","2014","01","16","23:00","-1.5","","-9.0","","57","","","","17","","8","","16.1","","99.34","","","","-5","","NA"
"-78.88","43.92","OSHAWA","6155875","2014-01-17 00:00","2014","01","17","00:00","-1.4","","-9.1","","56","","","","15","","8","","16.1","","99.33","","","","-4","","NA"
"-78.88","43.92","OSHAWA","6155875","2014-01-17 01:00","2014","01","17","01:00","-0.9","","-8.0","","59","","","","14","","8","","16.1","","99.32","","","","-4","","NA"
"-78.88","43.92","OSHAWA","6155875","2014-01-17 02:00","2014","01","17","02:00","-0.8","","-8.0","","58","","","","19","","17","","16.1","","99.34","","","","-6","","NA"
"-78.88","43.92","OSHAWA","6155875","2014-01-17 03:00","2014","01","17","03:00","-2.2","","-3.9","","88","","","","20","","9","","16.1","","99.35","","","","-6","","NA"
"-78.88","43.92","OSHAWA","6155875","2014-01-17 04:00","2014","01","17","04:00","-1.7","","-5.4","","76","","","","17","","4","","16.1","","99.30","","","","-3","","NA"
"-78.88","43.92","OSHAWA","6155875","2014-01-17 05:00","2014","01","17","05:00","-0.8","","-6.6","","65","","","","20","","17","","16.1","","99.24","","","","-6","","NA"
"-78.88","43.92","OSHAWA","6155875","2014-01-17 06:00","2014","01","17","06:00","-1.4","","-4.6","","79","","","","18","","15","","16.1","","99.21","","","","-6","","NA"
"-78.88","43.92","OSHAWA","6155875","2014-01-17 07:00","2014","01","17","07:00","-1.9","","-3.3","","90","","","","16","","9","","2.8","","99.14","","","","-5","","NA"
"-78.88","43.92","OSHAWA","6155875","2014-01-17 08:00","2014","01","17","08:00","-1.7","","-2.8","","92","","","","16","","11","","3.6","","99.11","","","","-6","","NA"
"-78.88","43.92","OSHAWA","6155875","2014-01-17 09:00","2014","01","17","09:00","-1.6","","-2.9","","91","","","","18","","11","","2.4","","99.05","","","","-5","","NA"
"-78.88","43.92","OSHAWA","6155875","2014-01-17 10:00","2014","01","17","10:00","-1.4","","-2.1","","95","","","","18","","15","","4.0","","98.99","","","","-6","","NA"
"-78.88","43.92","OSHAWA","6155875","2014-01-17 11:00","2014","01","17","11:00","-0.8","","-2.4","","89","","","","19","","22","","16.1","","98.97","","","","-7","","NA"
"-78.88","43.92","OSHAWA","6155875","2014-01-17 12:00","2014","01","17","12:00","-0.6","","-2.0","","90","","","","19","","17","","12.9","","99.00","","","","-6","","NA"
"-78.88","43.92","OSHAWA","6155875","2014-01-17 13:00","2014","01","17","13:00","-0.2","","-1.6","","90","","","","20","","26","","16.1","","98.98","","","","-6","","NA"
"-78.88","43.92","OSHAWA","6155875","2014-01-17 14:00","2014","01","17","14:00","0.1","","-1.4","","90","","","","20","","18","","16.1","","99.02","","","","","","NA"
"-78.88","43.92","OSHAWA","6155875","2014-01-17 15:00","2014","01","17","15:00","0.3","","-1.9","","85","","","","22","","21","","16.1","","99.06","","","","","","NA"
"-78.88","43.92","OSHAWA","6155875","2014-01-17 16:00","2014","01","17","16:00","0.2","","-2.0","","85","","","","21","","15","","16.1","","99.06","","","","","","NA"
"-78.88","43.92","OSHAWA","6155875","2014-01-17 17:00","2014","01","17","17:00","0.3","","-2.9","","79","","","","23","","24","","16.1","","99.05","","","","","","NA"
"-78.88","43.92","OSHAWA","6155875","2014-01-17 18:00","2014","01","17","18:00","0.3","","-3.1","","78","","","","21","","17","","16.1","","99.03","","","","","","NA"
"-78.88","43.92","OSHAWA","6155875","2014-01-17 19:00","2014","01","17","19:00","-0.2","","-2.2","","86","","","","24","","17","","4.0","","99.08","","","","-5","","NA"
"-78.88","43.92","OSHAWA","6155875","2014-01-17 20:00","2014","01","17","20:00","0.7","","-3.2","","75","","","","21","","13","","16.1","","99.10","","","","","","NA"
"-78.88","43.92","OSHAWA","6155875","2014-01-17 21:00","2014","01","17","21:00","0.7","","-5.4","","64","","","","25","","13","","16.1","","99.15","","","","","","NA"
"-78.88","43.92","OSHAWA","6155875","2014-01-17 22:00","2014","01","17","22:00","-0.6","","-3.9","","79","","","","22","","8","","16.1","","99.23","","","","-3","","NA"
"-78.88","43.92","OSHAWA","6155875","2014-01-17 23:00","2014","01","17","23:00","-2.1","","-4.5","","84","","","","22","","5","","16.1","","99.27","","","","-4","","NA"
"-78.88","43.92","OSHAWA","6155875","2014-01-18 00:00","2014","01","18","00:00","-2.9","","-5.2","","84","","","","","M","4","","16.1","","99.30","","","","-4","","NA"
"-78.88","43.92","OSHAWA","6155875","2014-01-18 01:00","2014","01","18","01:00","-4.1","","-5.8","","88","","","","","","0","","16.1","","99.30","","","","","","NA"
"-78.88","43.92","OSHAWA","6155875","2014-01-18 02:00","2014","01","18","02:00","-4.6","","-6.5","","86","","","","5","","4","","16.1","","99.30","","","","-6","","NA"
"-78.88","43.92","OSHAWA","6155875","2014-01-18 03:00","2014","01","18","03:00","-6.8","","-7.9","","92","","","","1","","9","","16.1","","99.30","","","","-11","","NA"
"-78.88","43.92","OSHAWA","6155875","2014-01-18 04:00","2014","01","18","04:00","-5.7","","-7.1","","90","","","","1","","11","","16.1","","99.29","","","","-10","","NA"
"-78.88","43.92","OSHAWA","6155875","2014-01-18 05:00","2014","01","18","05:00","-4.3","","-6.0","","88","","","","1","","9","","16.1","","99.22","","","","-8","","NA"
"-78.88","43.92","OSHAWA","6155875","2014-01-18 06:00","2014","01","18","06:00","-3.2","","-5.2","","86","","","","36","","13","","16.1","","99.17","","","","-8","","NA"
"-78.88","43.92","OSHAWA","6155875","2014-01-18 07:00","2014","01","18","07:00","-2.5","","-4.7","","85","","","","33","","8","","4.8","","99.22","","","","-6","","NA"
"-78.88","43.92","OSHAWA","6155875","2014-01-18 08:00","2014","01","18","08:00","-2.9","","-4.2","","91","","","","34","","9","","4.0","","99.23","","","","-6","","NA"
"-78.88","43.92","OSHAWA","6155875","2014-01-18 09:00","2014","01","18","09:00","-3.2","","-4.3","","92","","","","32","","13","","3.6","","99.22","","","","-8","","NA"
"-78.88","43.92","OSHAWA","6155875","2014-01-18 10:00","2014","01","18","10:00","-3.2","","-4.6","","90","","","","30","","8","","12.9","","99.23","","","","-6","","NA"
"-78.88","43.92","OSHAWA","6155875","2014-01-18 11:00","2014","01","18","11:00","-3.3","","-4.6","","91","","","","25","","9","","12.9","","99.25","","","","-7","","NA"
"-78.88","43.92","OSHAWA","6155875","2014-01-18 12:00","2014","01","18","12:00","-3.8","","-5.1","","91","","","","26","","13","","2.8","","99.26","","","","-9","","NA"
"-78.88","43.92","OSHAWA","6155875","2014-01-18 13:00","2014","01","18","13:00","-4.0","","-5.0","","93","","","","25","","13","","2.4","","99.29","","","","-9","","NA"
"-78.88","43.92","OSHAWA","6155875","2014-01-18 14:00","2014","01","18","14:00","-4.1","","-5.5","","90","","","","26","","13","","4.8","","99.32","","","","-9","","NA"
"-78.88","43.92","OSHAWA","6155875","2014-01-18 15:00","2014","01","18","15:00","-3.8","","-6.0","","85","","","","25","","13","","11.3","","99.36","","","","-9","","NA"
"-78.88","43.92","OSHAWA","6155875","2014-01-18 16:00","2014","01","18","16:00","-3.4","","-7.6","","73","","","","26","","21","","16.1","","99.38","","","","-10","","NA"
"-78.88","43.92","OSHAWA","6155875","2014-01-18 17:00","2014","01","18","17:00","-3.2","","-7.4","","73","","","","27","","21","","16.1","","99.35","","","","-9","","NA"
"-78.88","43.92","OSHAWA","6155875","2014-01-18 18:00","2014","01","18","18:00","-2.7","","-7.3","","71","","","","24","","18","","16.1","","99.31","","","","-8","","NA"
"-78.88","43.92","OSHAWA","6155875","2014-01-18 19:00","2014","01","18","19:00","-2.8","","-7.5","","70","","","","23","","18","","16.1","","99.29","","","","-8","","NA"
"-78.88","43.92","OSHAWA","6155875","2014-01-18 20:00","2014","01","18","20:00","-3.0","","-8.1","","68","","","","25","","24","","16.1","","99.32","","","","-10","","NA"
"-78.88","43.92","OSHAWA","6155875","2014-01-18 21:00","2014","01","18","21:00","-3.2","","-8.4","","68","","","","24","","21","","16.1","","99.37","","","","-9","","NA"
"-78.88","43.92","OSHAWA","6155875","2014-01-18 22:00","2014","01","18","22:00","-3.7","","-8.8","","68","","","","25","","18","","16.1","","99.41","","","","-10","","NA"
"-78.88","43.92","OSHAWA","6155875","2014-01-18 23:00","2014","01","18","23:00","-4.4","","-9.3","","69","","","","25","","17","","16.1","","99.43","","","","-10","","NA"
"-78.88","43.92","OSHAWA","6155875","2014-01-19 00:00","2014","01","19","00:00","-5.4","","-9.7","","72","","","","25","","17","","16.1","","99.44","","","","-11","","NA"
"-78.88","43.92","OSHAWA","6155875","2014-01-19 01:00","2014","01","19","01:00","-6.1","","-9.9","","75","","","","24","","17","","16.1","","99.44","","","","-12","","NA"
"-78.88","43.92","OSHAWA","6155875","2014-01-19 02:00","2014","01","19","02:00","-6.7","","-10.3","","76","","","","24","","17","","16.1","","99.40","","","","-13","","NA"
"-78.88","43.92","OSHAWA","6155875","2014-01-19 03:00","2014","01","19","03:00","-7.0","","-10.6","","76","","","","24","","15","","16.1","","99.38","","","","-13","","NA"
"-78.88","43.92","OSHAWA","6155875","2014-01-19 04:00","2014","01","19","04:00","-7.2","","-10.6","","77","","","","25","","11","","16.1","","99.33","","","","-12","","NA"
"-78.88","43.92","OSHAWA","6155875","2014-01-19 05:00","2014","01","19","05:00","-6.9","","-10.3","","77","","","","24","","9","","16.1","","99.23","","","","-11","","NA"
"-78.88","43.92","OSHAWA","6155875","2014-01-19 06:00","2014","01","19","06:00","-6.6","","-10.8","","72","","","","24","","15","","16.1","","99.17","","","","-13","","NA"
"-78.88","43.92","OSHAWA","6155875","2014-01-19 07:00","2014","01","19","07:00","-7.1","","-11.5","","71","","","","24","","24","","16.1","","99.10","","","","-15","","NA"
"-78.88","43.92","OSHAWA","6155875","2014-01-19 08:00","2014","01","19","08:00","-7.7","","-11.4","","75","","","","23","","13","","16.1","","99.07","","","","-13","","NA"
"-78.88","43.92","OSHAWA","6155875","2014-01-19 09:00","2014","01","19","09:00","-7.5","","-11.4","","74","","","","23","","15","","16.1","","98.97","","","","-14","","NA"
"-78.88","43.92","OSHAWA","6155875","2014-01-19 10:00","2014","01","19","10:00","-7.7","","-11.0","","77","","","","25","","11","","16.1","","98.88","","","","-13","","NA"
"-78.88","43.92","OSHAWA","6155875","2014-01-19 11:00","2014","01","19","11:00","-7.2","","-10.4","","78","","","","23","","15","","16.1","","98.80","","","","-13","","NA"
"-78.88","43.92","OSHAWA","6155875","2014-01-19 12:00","2014","01","19","12:00","-6.9","","-10.1","","78","","","","23","","17","","16.1","","98.71","","","","-13","","NA"
"-78.88","43.92","OSHAWA","6155875","2014-01-19 13:00","2014","01","19","13:00","-6.8","","-10.0","","78","","","","24","","24","","16.1","","98.63","","","","-14","","NA"
"-78.88","43.92","OSHAWA","6155875","2014-01-19 14:00","2014","01","19","14:00","-6.3","","-9.5","","78","","","","24","","18","","16.1","","98.49","","","","-13","","NA"
"-78.88","43.92","OSHAWA","6155875","2014-01-19 15:00","2014","01","19","15:00","-5.7","","-9.1","","77","","","","24","","22","","16.1","","98.37","","","","-13","","NA"
"-78.88","43.92","OSHAWA","6155875","2014-01-19 16:00","2014","01","19","16:00","-4.4","","-8.3","","75","","","","22","","30","","16.1","","98.24","","","","-12","","NA"
"-78.88","43.92","OSHAWA","6155875","2014-01-19 17:00","2014","01","19","17:00","-4.0","","-7.9","","74","","","","23","","26","","9.7","","98.08","","","","-11","","NA"
"-78.88","43.92","OSHAWA","6155875","2014-01-19 18:00","2014","01","19","18:00","-3.9","","-6.7","","81","","","","23","","30","","2.8","","97.96","","","","-12","","NA"
"-78.88","43.92","OSHAWA","6155875","2014-01-19 19:00","2014","01","19","19:00","-3.6","","-6.6","","80","","","","24","","32","","6.4","","97.91","","","","-11","","NA"
"-78.88","43.92","OSHAWA","6155875","2014-01-19 20:00","2014","01","19","20:00","-3.4","","-6.6","","79","","","","24","","28","","14.5","","97.91","","","","-11","","NA"
"-78.88","43.92","OSHAWA","6155875","2014-01-19 21:00","2014","01","19","21:00","-3.7","","-5.6","","87","","","","24","","26","","2.8","","97.99","","","","-11","","NA"
"-78.88","43.92","OSHAWA","6155875","2014-01-19 22:00","2014","01","19","22:00","-3.6","","-5.3","","88","","","","23","","17","","4.0","","98.05","","","","-9","","NA"
"-78.88","43.92","OSHAWA","6155875","2014-01-19 23:00","2014","01","19","23:00","-2.8","","-6.0","","79","","","","23","","26","","16.1","","98.13","","","","-10","","NA"
"-78.88","43.92","OSHAWA","6155875","2014-01-20 00:00","2014","01","20","00:00","-2.8","","-5.1","","84","","","","23","","24","","6.4","","98.18","","","","-9","","NA"
"-78.88","43.92","OSHAWA","6155875","2014-01-20 01:00","2014","01","20","01:00","-2.8","","-4.4","","89","","","","23","","26","","2.4","","98.18","","","","-10","","NA"
"-78.88","43.92","OSHAWA","6155875","2014-01-20 02:00","2014","01","20","02:00","-2.8","","-5.3","","83","","","","23","","24","","12.9","","98.22","","","","-9","","NA"
"-78.88","43.92","OSHAWA","6155875","2014-01-20 03:00","2014","01","20","03:00","-2.9","","-5.1","","85","","","","23","","32","","8.1","","98.22","","","","-10","","NA"
"-78.88","43.92","OSHAWA","6155875","2014-01-20 04:00","2014","01","20","04:00","-2.7","","-5.4","","82","","","","24","","26","","16.1","","98.23","","","","-10","","NA"
"-78.88","43.92","OSHAWA","6155875","2014-01-20 05:00","2014","01","20","05:00","-2.7","","-5.4","","82","","","","25","","22","","16.1","","98.18","","","","-9","","NA"
"-78.88","43.92","OSHAWA","6155875","2014-01-20 06:00","2014","01","20","06:00","-2.5","","-5.2","","82","","","","24","","18","","16.1","","98.14","","","","-8","","NA"
"-78.88","43.92","OSHAWA","6155875","2014-01-20 07:00","2014","01","20","07:00","-2.4","","-5.1","","82","","","","25","","13","","16.1","","98.11","","","","-7","","NA"
"-78.88","43.92","OSHAWA","6155875","2014-01-20 08:00","2014","01","20","08:00","-3.0","","-4.9","","87","","","","31","","21","","3.2","","98.17","","","","-9","","NA"
"-78.88","43.92","OSHAWA","6155875","2014-01-20 09:00","2014","01","20","09:00","-4.4","","-5.7","","91","","","","35","","13","","2.8","","98.21","","","","-9","","NA"
"-78.88","43.92","OSHAWA","6155875","2014-01-20 10:00","2014","01","20","10:00","-5.1","","-6.5","","90","","","","33","","11","","6.4","","98.28","","","","-10","","NA"
"-78.88","43.92","OSHAWA","6155875","2014-01-20 11:00","2014","01","20","11:00","-5.6","","-7.7","","85","","","","36","","15","","16.1","","98.35","","","","-11","","NA"
"-78.88","43.92","OSHAWA","6155875","2014-01-20 12:00","2014","01","20","12:00","-7.4","","-10.3","","80","","","","36","","33","","16.1","","98.49","","","","-17","","NA"
"-78.88","43.92","OSHAWA","6155875","2014-01-20 13:00","2014","01","20","13:00","-9.4","","-13.6","","72","","","","34","","22","","16.1","","98.65","","","","-17","","NA"
"-78.88","43.92","OSHAWA","6155875","2014-01-20 14:00","2014","01","20","14:00","-9.8","","-14.9","","67","","","","34","","21","","16.1","","98.75","","","","-18","","NA"
"-78.88","43.92","OSHAWA","6155875","2014-01-20 15:00","2014","01","20","15:00","-10.6","","-18.1","","55","","","","34","","28","","16.1","","98.81","","","","-20","","NA"
"-78.88","43.92","OSHAWA","6155875","2014-01-20 16:00","2014","01","20","16:00","-11.1","","-16.8","","63","","","","33","","21","","16.1","","98.97","","","","-19","","NA"
"-78.88","43.92","OSHAWA","6155875","2014-01-20 17:00","2014","01","20","17:00","-11.4","","-17.1","","63","","","","32","","15","","16.1","","99.05","","","","-18","","NA"
"-78.88","43.92","OSHAWA","6155875","2014-01-20 18:00","2014","01","20","18:00","-12.1","","-18.5","","59","","","","32","","21","","16.1","","99.12","","","","-21","","NA"
"-78.88","43.92","OSHAWA","6155875","2014-01-20 19:00","2014","01","20","19:00","-11.9","","-19.6","","54","","","","31","","30","","16.1","","99.22","","","","-22","","NA"
"-78.88","43.92","OSHAWA","6155875","2014-01-20 20:00","2014","01","20","20:00","-11.6","","-18.2","","59","","","","30","","30","","16.1","","99.32","","","","-22","","NA"
"-78.88","43.92","OSHAWA","6155875","2014-01-20 21:00","2014","01","20","21:00","-12.4","","-19.2","","57","","","","33","","30","","16.1","","99.48","","","","-23","","NA"
"-78.88","43.92","OSHAWA","6155875","2014-01-20 22:00","2014","01","20","22:00","-13.6","","-19.0","","64","","","","32","","21","","16.1","","99.64","","","","-23","","NA"
"-78.88","43.92","OSHAWA","6155875","2014-01-20 23:00","2014","01","20","23:00","-14.5","","-19.6","","66","","","","32","","13","","16.1","","99.76","","","","-22","","NA"
"-78.88","43.92","OSHAWA","6155875","2014-01-21 00:00","2014","01","21","00:00","-15.3","","-20.5","","65","","","","33","","8","","16.1","","99.86","","","","-21","","NA"
"-78.88","43.92","OSHAWA","6155875","2014-01-21 01:00","2014","01","21","01:00","-16.0","","-20.8","","67","","","","34","","13","","16.1","","99.94","","","","-24","","NA"
"-78.88","43.92","OSHAWA","6155875","2014-01-21 02:00","2014","01","21","02:00","-16.7","","-20.8","","71","","","","32","","15","","16.1","","99.98","","","","-25","","NA"
"-78.88","43.92","OSHAWA","6155875","2014-01-21 03:00","2014","01","21","03:00","-17.0","","-21.5","","68","","","","32","","11","","16.1","","100.06","","","","-24","","NA"
"-78.88","43.92","OSHAWA","6155875","2014-01-21 04:00","2014","01","21","04:00","-17.5","","-23.3","","61","","","","36","","15","","16.1","","100.13","","","","-26","","NA"
"-78.88","43.92","OSHAWA","6155875","2014-01-21 05:00","2014","01","21","05:00","-18.1","","-23.7","","62","","","","35","","13","","16.1","","100.19","","","","-26","","NA"
"-78.88","43.92","OSHAWA","6155875","2014-01-21 06:00","2014","01","21","06:00","-18.8","","-23.9","","65","","","","35","","13","","16.1","","100.20","","","","-27","","NA"
"-78.88","43.92","OSHAWA","6155875","2014-01-21 07:00","2014","01","21","07:00","-19.4","","-24.4","","65","","","","36","","15","","16.1","","100.19","","","","-28","","NA"
"-78.88","43.92","OSHAWA","6155875","2014-01-21 08:00","2014","01","21","08:00","-20.2","","-24.7","","68","","","","2","","15","","16.1","","100.26","","","","-29","","NA"
"-78.88","43.92","OSHAWA","6155875","2014-01-21 09:00","2014","01","21","09:00","-20.8","","-24.9","","70","","","","36","","13","","16.1","","100.29","","","","-29","","NA"
"-78.88","43.92","OSHAWA","6155875","2014-01-21 10:00","2014","01","21","10:00","-21.4","","-25.4","","71","","","","36","","13","","16.1","","100.28","","","","-30","","NA"
"-78.88","43.92","OSHAWA","6155875","2014-01-21 11:00","2014","01","21","11:00","-21.5","","-25.4","","71","","","","36","","17","","16.1","","100.29","","","","-32","","NA"
"-78.88","43.92","OSHAWA","6155875","2014-01-21 12:00","2014","01","21","12:00","-22.0","","-25.8","","72","","","","36","","18","","16.1","","100.31","","","","-32","","NA"
"-78.88","43.92","OSHAWA","6155875","2014-01-21 13:00","2014","01","21","13:00","-22.3","","-26.3","","71","","","","1","","15","","16.1","","100.37","","","","-32","","NA"
"-78.88","43.92","OSHAWA","6155875","2014-01-21 14:00","2014","01","21","14:00","-21.5","","-26.4","","65","","","","2","","11","","16.1","","100.47","","","","-29","","NA"
"-78.88","43.92","OSHAWA","6155875","2014-01-21 15:00","2014","01","21","15:00","-20.5","","-26.2","","61","","","","4","","13","","16.1","","100.53","","","","-29","","NA"
"-78.88","43.92","OSHAWA","6155875","2014-01-21 16:00","2014","01","21","16:00","-19.7","","-25.5","","61","","","","2","","11","","16.1","","100.55","","","","-27","","NA"
"-78.88","43.92","OSHAWA","6155875","2014-01-21 17:00","2014","01","21","17:00","-19.4","","-25.7","","58","","","","36","","13","","16.1","","100.47","","","","-28","","NA"
"-78.88","43.92","OSHAWA","6155875","2014-01-21 18:00","2014","01","21","18:00","-18.9","","-25.7","","56","","","","32","","13","","16.1","","100.42","","","","-27","","NA"
"-78.88","43.92","OSHAWA","6155875","2014-01-21 19:00","2014","01","21","19:00","-18.0","","-25.6","","52","","","","33","","17","","16.1","","100.37","","","","-27","","NA"
"-78.88","43.92","OSHAWA","6155875","2014-01-21 20:00","2014","01","21","20:00","-17.6","","-25.5","","51","","","","34","","15","","16.1","","100.35","","","","-26","","NA"
"-78.88","43.92","OSHAWA","6155875","2014-01-21 21:00","2014","01","21","21:00","-18.2","","-25.9","","52","","","","34","","22","","16.1","","100.35","","","","-29","","NA"
"-78.88","43.92","OSHAWA","6155875","2014-01-21 22:00","2014","01","21","22:00","-19.1","","-26.0","","55","","","","35","","17","","16.1","","100.41","","","","-29","","NA"
"-78.88","43.92","OSHAWA","6155875","2014-01-21 23:00","2014","01","21","23:00","-20.0","","-26.3","","58","","","","34","","13","","16.1","","100.44","","","","-28","","NA"
"-78.88","43.92","OSHAWA","6155875","2014-01-22 00:00","2014","01","22","00:00","-20.2","","-26.3","","59","","","","33","","5","","16.1","","100.44","","","","-25","","NA"
"-78.88","43.92","OSHAWA","6155875","2014-01-22 01:00","2014","01","22","01:00","-20.3","","-26.4","","59","","","","32","","5","","16.1","","100.44","","","","-25","","NA"
"-78.88","43.92","OSHAWA","6155875","2014-01-22 02:00","2014","01","22","02:00","-21.1","","-26.1","","65","","","","35","","9","","16.1","","100.46","","","","-28","","NA"
"-78.88","43.92","OSHAWA","6155875","2014-01-22 03:00","2014","01","22","03:00","-21.1","","-26.1","","65","","","","35","","11","","16.1","","100.47","","","","-29","","NA"
"-78.88","43.92","OSHAWA","6155875","2014-01-22 04:00","2014","01","22","04:00","-21.6","","-26.2","","67","","","","36","","13","","16.1","","100.44","","","","-30","","NA"
"-78.88","43.92","OSHAWA","6155875","2014-01-22 05:00","2014","01","22","05:00","-22.1","","-26.5","","68","","","","1","","15","","16.1","","100.43","","","","-32","","NA"
"-78.88","43.92","OSHAWA","6155875","2014-01-22 06:00","2014","01","22","06:00","-22.4","","-26.5","","70","","","","1","","15","","16.1","","100.40","","","","-32","","NA"
"-78.88","43.92","OSHAWA","6155875","2014-01-22 07:00","2014","01","22","07:00","-22.5","","-26.7","","69","","","","36","","11","","16.1","","100.33","","","","-31","","NA"
"-78.88","43.92","OSHAWA","6155875","2014-01-22 08:00","2014","01","22","08:00","-23.0","","-26.9","","71","","","","2","","9","","16.1","","100.35","","","","-30","","NA"
"-78.88","43.92","OSHAWA","6155875","2014-01-22 09:00","2014","01","22","09:00","-23.2","","-27.4","","69","","","","35","","8","","16.1","","100.32","","","","-30","","NA"
"-78.88","43.92","OSHAWA","6155875","2014-01-22 10:00","2014","01","22","10:00","-24.0","","-28.0","","70","","","","34","","11","","16.1","","100.32","","","","-32","","NA"
"-78.88","43.92","OSHAWA","6155875","2014-01-22 11:00","2014","01","22","11:00","-24.0","","-27.7","","72","","","","2","","8","","16.1","","100.32","","","","-31","","NA"
"-78.88","43.92","OSHAWA","6155875","2014-01-22 12:00","2014","01","22","12:00","-24.1","","-27.8","","72","","","","34","","8","","16.1","","100.31","","","","-31","","NA"
"-78.88","43.92","OSHAWA","6155875","2014-01-22 13:00","2014","01","22","13:00","-24.2","","-28.1","","71","","","","36","","9","","16.1","","100.29","","","","-32","","NA"
"-78.88","43.92","OSHAWA","6155875","2014-01-22 14:00","2014","01","22","14:00","-22.9","","-27.3","","68","","","","3","","8","","16.1","","100.30","","","","-30","","NA"
"-78.88","43.92","OSHAWA","6155875","2014-01-22 15:00","2014","01","22","15:00","-20.7","","-26.4","","61","","","","2","","11","","16.1","","100.28","","","","-28","","NA"
"-78.88","43.92","OSHAWA","6155875","2014-01-22 16:00","2014","01","22","16:00","-19.4","","-26.1","","56","","","","35","","8","","16.1","","100.25","","","","-26","","NA"
"-78.88","43.92","OSHAWA","6155875","2014-01-22 17:00","2014","01","22","17:00","-18.3","","-25.5","","54","","","","33","","9","","16.1","","100.18","","","","-25","","NA"
"-78.88","43.92","OSHAWA","6155875","2014-01-22 18:00","2014","01","22","18:00","-17.3","","-25.4","","50","","","","","","0","","16.1","","100.09","","","","","","NA"
"-78.88","43.92","OSHAWA","6155875","2014-01-22 19:00","2014","01","22","19:00","-16.8","","-25.1","","50","","","","31","","5","","16.1","","100.04","","","","-21","","NA"
"-78.88","43.92","OSHAWA","6155875","2014-01-22 20:00","2014","01","22","20:00","-16.2","","-25.1","","47","","","","","M","4","","16.1","","100.01","","","","-19","","NA"
"-78.88","43.92","OSHAWA","6155875","2014-01-22 21:00","2014","01","22","21:00","-16.1","","-24.6","","49","","","","33","","5","","16.1","","100.03","","","","-20","","NA"
"-78.88","43.92","OSHAWA","6155875","2014-01-22 22:00","2014","01","22","22:00","-16.2","","-24.1","","51","","","","3","","5","","16.1","","100.04","","","","-20","","NA"
"-78.88","43.92","OSHAWA","6155875","2014-01-22 23:00","2014","01","22","23:00","-17.3","","-23.4","","60","","","","2","","9","","16.1","","100.06","","","","-24","","NA"
"-78.88","43.92","OSHAWA","6155875","2014-01-23 00:00","2014","01","23","00:00","-18.1","","-23.8","","62","","","","1","","11","","16.1","","100.08","","","","-25","","NA"
"-78.88","43.92","OSHAWA","6155875","2014-01-23 01:00","2014","01","23","01:00","-18.2","","-23.8","","62","","","","35","","8","","16.1","","100.07","","","","-24","","NA"
"-78.88","43.92","OSHAWA","6155875","2014-01-23 02:00","2014","01","23","02:00","-18.5","","-23.9","","63","","","","35","","9","","16.1","","100.07","","","","-25","","NA"
"-78.88","43.92","OSHAWA","6155875","2014-01-23 03:00","2014","01","23","03:00","-18.0","","-23.3","","64","","","","36","","11","","16.1","","100.05","","","","-25","","NA"
"-78.88","43.92","OSHAWA","6155875","2014-01-23 04:00","2014","01","23","04:00","-17.3","","-23.1","","61","","","","36","","9","","16.1","","100.03","","","","-24","","NA"
"-78.88","43.92","OSHAWA","6155875","2014-01-23 05:00","2014","01","23","05:00","-16.7","","-23.2","","58","","","","36","","8","","16.1","","100.04","","","","-22","","NA"
"-78.88","43.92","OSHAWA","6155875","2014-01-23 06:00","2014","01","23","06:00","-16.1","","-22.7","","57","","","","2","","8","","16.1","","100.01","","","","-22","","NA"
"-78.88","43.92","OSHAWA","6155875","2014-01-23 07:00","2014","01","23","07:00","-16.2","","-21.0","","67","","","","1","","8","","16.1","","100.04","","","","-22","","NA"
"-78.88","43.92","OSHAWA","6155875","2014-01-23 08:00","2014","01","23","08:00","-16.6","","-20.7","","71","","","","2","","9","","16.1","","100.09","","","","-23","","NA"
"-78.88","43.92","OSHAWA","6155875","2014-01-23 09:00","2014","01","23","09:00","-16.6","","-20.5","","72","","","","6","","8","","16.1","","100.12","","","","-22","","NA"
"-78.88","43.92","OSHAWA","6155875","2014-01-23 10:00","2014","01","23","10:00","-16.9","","-20.2","","76","","","","7","","9","","12.9","","100.16","","","","-23","","NA"
"-78.88","43.92","OSHAWA","6155875","2014-01-23 11:00","2014","01","23","11:00","-17.5","","-21.1","","74","","","","5","","11","","11.3","","100.22","","","","-25","","NA"
"-78.88","43.92","OSHAWA","6155875","2014-01-23 12:00","2014","01","23","12:00","-17.8","","-21.5","","74","","","","2","","11","","16.1","","100.31","","","","-25","","NA"
"-78.88","43.92","OSHAWA","6155875","2014-01-23 13:00","2014","01","23","13:00","-18.3","","-22.6","","70","","","","36","","13","","16.1","","100.36","","","","-26","","NA"
"-78.88","43.92","OSHAWA","6155875","2014-01-23 14:00","2014","01","23","14:00","-18.3","","-22.9","","68","","","","36","","15","","16.1","","100.42","","","","-27","","NA"
"-78.88","43.92","OSHAWA","6155875","2014-01-23 15:00","2014","01","23","15:00","-18.2","","-23.2","","65","","","","33","","17","","16.1","","100.49","","","","-27","","NA"
"-78.88","43.92","OSHAWA","6155875","2014-01-23 16:00","2014","01","23","16:00","-17.6","","-23.6","","60","","","","33","","17","","16.1","","100.57","","","","-27","","NA"
"-78.88","43.92","OSHAWA","6155875","2014-01-23 17:00","2014","01","23","17:00","-16.5","","-23.3","","56","","","","32","","22","","16.1","","100.56","","","","-27","","NA"
"-78.88","43.92","OSHAWA","6155875","2014-01-23 18:00","2014","01","23","18:00","-16.1","","-23.8","","52","","","","33","","22","","16.1","","100.56","","","","-26","","NA"
"-78.88","43.92","OSHAWA","6155875","2014-01-23 19:00","2014","01","23","19:00","-15.7","","-23.7","","51","","","","34","","21","","16.1","","100.60","","","","-25","","NA"
"-78.88","43.92","OSHAWA","6155875","2014-01-23 20:00","2014","01","23","20:00","-15.5","","-23.5","","51","","","","33","","21","","16.1","","100.67","","","","-25","","NA"
"-78.88","43.92","OSHAWA","6155875","2014-01-23 21:00","2014","01","23","21:00","-15.3","","-22.8","","53","","","","34","","18","","16.1","","100.77","","","","-24","","NA"
"-78.88","43.92","OSHAWA","6155875","2014-01-23 22:00","2014","01","23","22:00","-15.7","","-22.9","","55","","","","31","","15","","16.1","","100.85","","","","-24","","NA"
"-78.88","43.92","OSHAWA","6155875","2014-01-23 23:00","2014","01","23","23:00","-16.4","","-21.6","","65","","","","31","","21","","16.1","","100.91","","","","-26","","NA"
"-78.88","43.92","OSHAWA","6155875","2014-01-24 00:00","2014","01","24","00:00","-17.0","","-21.9","","66","","","","31","","21","","16.1","","100.99","","","","-27","","NA"
"-78.88","43.92","OSHAWA","6155875","2014-01-24 01:00","2014","01","24","01:00","-17.6","","-22.5","","66","","","","31","","17","","16.1","","101.04","","","","-27","","NA"
"-78.88","43.92","OSHAWA","6155875","2014-01-24 02:00","2014","01","24","02:00","-18.4","","-22.8","","69","","","","30","","15","","16.1","","101.06","","","","-27","","NA"
"-78.88","43.92","OSHAWA","6155875","2014-01-24 03:00","2014","01","24","03:00","-19.1","","-23.6","","68","","","","30","","13","","16.1","","101.08","","","","-27","","NA"
"-78.88","43.92","OSHAWA","6155875","2014-01-24 04:00","2014","01","24","04:00","-20.0","","-24.5","","68","","","","30","","9","","16.1","","101.11","","","","-27","","NA"
"-78.88","43.92","OSHAWA","6155875","2014-01-24 05:00","2014","01","24","05:00","-20.5","","-25.2","","67","","","","34","","8","","16.1","","101.06","","","","-27","","NA"
"-78.88","43.92","OSHAWA","6155875","2014-01-24 06:00","2014","01","24","06:00","-20.9","","-25.0","","70","","","","25","","9","","16.1","","101.07","","","","-28","","NA"
"-78.88","43.92","OSHAWA","6155875","2014-01-24 07:00","2014","01","24","07:00","-21.5","","-24.7","","76","","","","29","","4","","16.1","","101.07","","","","-25","","NA"
"-78.88","43.92","OSHAWA","6155875","2014-01-24 08:00","2014","01","24","08:00","-22.6","","-25.5","","78","","","","1","","4","","16.1","","101.08","","","","-26","","NA"
"-78.88","43.92","OSHAWA","6155875","2014-01-24 09:00","2014","01","24","09:00","-23.2","","-25.8","","80","","","","35","","8","","16.1","","101.01","","","","-30","","NA"
"-78.88","43.92","OSHAWA","6155875","2014-01-24 10:00","2014","01","24","10:00","-22.3","","-25.0","","79","","","","36","","8","","16.1","","100.96","","","","-29","","NA"
"-78.88","43.92","OSHAWA","6155875","2014-01-24 11:00","2014","01","24","11:00","-23.0","","-25.4","","81","","","","36","","4","","16.1","","100.91","","","","-27","","NA"
"-78.88","43.92","OSHAWA","6155875","2014-01-24 12:00","2014","01","24","12:00","-23.0","","-25.6","","80","","","","35","","8","","16.1","","100.88","","","","-30","","NA"
"-78.88","43.92","OSHAWA","6155875","2014-01-24 13:00","2014","01","24","13:00","-23.0","","-25.4","","81","","","","36","","8","","16.1","","100.77","","","","-30","","NA"
"-78.88","43.92","OSHAWA","6155875","2014-01-24 14:00","2014","01","24","14:00","-18.6","","-21.4","","79","","","","30","","4","","16.1","","100.71","","","","-22","","NA"
"-78.88","43.92","OSHAWA","6155875","2014-01-24 15:00","2014","01","24","15:00","-13.5","","-18.4","","67","","","","25","","13","","16.1","","100.58","","","","-20","","NA"
"-78.88","43.92","OSHAWA","6155875","2014-01-24 16:00","2014","01","24","16:00","-11.1","","-15.0","","73","","","","24","","28","","16.1","","100.41","","","","-21","","NA"
"-78.88","43.92","OSHAWA","6155875","2014-01-24 17:00","2014","01","24","17:00","-11.0","","-14.3","","77","","","","23","","26","","2.4","","100.20","","","","-20","","NA"
"-78.88","43.92","OSHAWA","6155875","2014-01-24 18:00","2014","01","24","18:00","-10.6","","-14.9","","71","","","","23","","35","","4.8","","100.00","","","","-21","","NA"
"-78.88","43.92","OSHAWA","6155875","2014-01-24 19:00","2014","01","24","19:00","-10.4","","-15.1","","69","","","","21","","32","","11.3","","99.76","","","","-20","","NA"
"-78.88","43.92","OSHAWA","6155875","2014-01-24 20:00","2014","01","24","20:00","-10.1","","-15.2","","67","","","","23","","32","","14.5","","99.63","","","","-20","","NA"
"-78.88","43.92","OSHAWA","6155875","2014-01-24 21:00","2014","01","24","21:00","-9.8","","-15.1","","66","","","","22","","39","","12.9","","99.49","","","","-20","","NA"
"-78.88","43.92","OSHAWA","6155875","2014-01-24 22:00","2014","01","24","22:00","-9.2","","-16.5","","56","","","","23","","42","","8.1","","99.33","","","","-20","","NA"
"-78.88","43.92","OSHAWA","6155875","2014-01-24 23:00","2014","01","24","23:00","-8.4","","-13.6","","67","","","","21","","41","","16.1","","99.20","","","","-19","","NA"
"-78.88","43.92","OSHAWA","6155875","2014-01-25 00:00","2014","01","25","00:00","-8.3","","-13.9","","64","","","","23","","41","","6.4","","99.17","","","","-19","","NA"
"-78.88","43.92","OSHAWA","6155875","2014-01-25 01:00","2014","01","25","01:00","-8.8","","-14.9","","62","","","","23","","37","","3.6","","99.08","","","","-19","","NA"
"-78.88","43.92","OSHAWA","6155875","2014-01-25 02:00","2014","01","25","02:00","-8.5","","-14.3","","63","","","","23","","30","","16.1","","98.94","","","","-18","","NA"
"-78.88","43.92","OSHAWA","6155875","2014-01-25 03:00","2014","01","25","03:00","-8.2","","-13.7","","65","","","","23","","39","","16.1","","98.75","","","","-18","","NA"
"-78.88","43.92","OSHAWA","6155875","2014-01-25 04:00","2014","01","25","04:00","-7.7","","-12.1","","71","","","","23","","32","","11.3","","98.63","","","","-17","","NA"
"-78.88","43.92","OSHAWA","6155875","2014-01-25 05:00","2014","01","25","05:00","-7.6","","-10.2","","82","","","","22","","33","","2.4","","98.49","","","","-17","","NA"
"-78.88","43.92","OSHAWA","6155875","2014-01-25 06:00","2014","01","25","06:00","-7.1","","-10.3","","78","","","","22","","39","","2.4","","98.31","","","","-17","","NA"
"-78.88","43.92","OSHAWA","6155875","2014-01-25 07:00","2014","01","25","07:00","-6.7","","-9.6","","80","","","","23","","33","","2.4","","98.18","","","","-16","","NA"
"-78.88","43.92","OSHAWA","6155875","2014-01-25 08:00","2014","01","25","08:00","-6.6","","-8.7","","85","","","","22","","37","","1.6","","98.03","","","","-16","","NA"
"-78.88","43.92","OSHAWA","6155875","2014-01-25 09:00","2014","01","25","09:00","-6.3","","-8.1","","87","","","","21","","33","","1.6","","97.88","","","","-15","","NA"
"-78.88","43.92","OSHAWA","6155875","2014-01-25 10:00","2014","01","25","10:00","-6.3","","-8.0","","88","","","","21","","24","","1.6","","97.78","","","","-14","","NA"
"-78.88","43.92","OSHAWA","6155875","2014-01-25 11:00","2014","01","25","11:00","-5.9","","-7.7","","87","","","","22","","42","","1.2","","97.68","","","","-15","","NA"
"-78.88","43.92","OSHAWA","6155875","2014-01-25 12:00","2014","01","25","12:00","-5.5","","-7.0","","89","","","","21","","33","","1.6","","97.60","","","","-14","","NA"
"-78.88","43.92","OSHAWA","6155875","2014-01-25 13:00","2014","01","25","13:00","-5.3","","-7.0","","88","","","","22","","33","","1.2","","97.51","","","","-14","","NA"
"-78.88","43.92","OSHAWA","6155875","2014-01-25 14:00","2014","01","25","14:00","-4.8","","-7.0","","85","","","","22","","32","","2.4","","97.43","","","","-13","","NA"
"-78.88","43.92","OSHAWA","6155875","2014-01-25 15:00","2014","01","25","15:00","-4.4","","-7.0","","82","","","","22","","39","","2.4","","97.37","","","","-13","","NA"
"-78.88","43.92","OSHAWA","6155875","2014-01-25 16:00","2014","01","25","16:00","-4.1","","-6.4","","84","","","","22","","32","","2.8","","97.31","","","","-12","","NA"
"-78.88","43.92","OSHAWA","6155875","2014-01-25 17:00","2014","01","25","17:00","-3.9","","-6.5","","82","","","","24","","32","","4.0","","97.23","","","","-12","","NA"
"-78.88","43.92","OSHAWA","6155875","2014-01-25 18:00","2014","01","25","18:00","-3.5","","-6.3","","81","","","","25","","21","","9.7","","97.19","","","","-10","","NA"
"-78.88","43.92","OSHAWA","6155875","2014-01-25 19:00","2014","01","25","19:00","-5.2","","-10.5","","67","","","","31","","28","","16.1","","97.24","","","","-13","","NA"
"-78.88","43.92","OSHAWA","6155875","2014-01-25 20:00","2014","01","25","20:00","-6.6","","-10.1","","76","","","","32","","32","","4.8","","97.31","","","","-15","","NA"
"-78.88","43.92","OSHAWA","6155875","2014-01-25 21:00","2014","01","25","21:00","-7.5","","-12.8","","66","","","","32","","35","","12.9","","97.45","","","","-17","","NA"
"-78.88","43.92","OSHAWA","6155875","2014-01-25 22:00","2014","01","25","22:00","-9.4","","-14.6","","66","","","","32","","46","","8.1","","97.64","","","","-21","","NA"
"-78.88","43.92","OSHAWA","6155875","2014-01-25 23:00","2014","01","25","23:00","-10.9","","-16.5","","64","","","","29","","26","","16.1","","97.87","","","","-20","","NA"
"-78.88","43.92","OSHAWA","6155875","2014-01-26 00:00","2014","01","26","00:00","-12.1","","-18.0","","62","","","","29","","30","","16.1","","98.05","","","","-22","","NA"
"-78.88","43.92","OSHAWA","6155875","2014-01-26 01:00","2014","01","26","01:00","-12.8","","-19.4","","59","","","","29","","37","","16.1","","98.16","","","","-24","","NA"
"-78.88","43.92","OSHAWA","6155875","2014-01-26 02:00","2014","01","26","02:00","-13.5","","-19.7","","60","","","","28","","26","","16.1","","98.28","","","","-23","","NA"
"-78.88","43.92","OSHAWA","6155875","2014-01-26 03:00","2014","01","26","03:00","-15.4","","-18.4","","78","","","","35","","11","","16.1","","98.43","","","","-22","","NA"
"-78.88","43.92","OSHAWA","6155875","2014-01-26 04:00","2014","01","26","04:00","-16.6","","-19.7","","77","","","","33","","11","","16.1","","98.52","","","","-24","","NA"
"-78.88","43.92","OSHAWA","6155875","2014-01-26 05:00","2014","01","26","05:00","-16.7","","-20.4","","73","","","","33","","13","","11.3","","98.59","","","","-24","","NA"
"-78.88","43.92","OSHAWA","6155875","2014-01-26 06:00","2014","01","26","06:00","-17.3","","-20.7","","75","","","","35","","13","","16.1","","98.65","","","","-25","","NA"
"-78.88","43.92","OSHAWA","6155875","2014-01-26 07:00","2014","01","26","07:00","-17.9","","-21.4","","75","","","","35","","11","","16.1","","98.73","","","","-25","","NA"
"-78.88","43.92","OSHAWA","6155875","2014-01-26 08:00","2014","01","26","08:00","-18.8","","-22.5","","73","","","","36","","11","","16.1","","98.80","","","","-26","","NA"
"-78.88","43.92","OSHAWA","6155875","2014-01-26 09:00","2014","01","26","09:00","-19.7","","-23.2","","74","","","","36","","9","","16.1","","98.79","","","","-26","","NA"
"-78.88","43.92","OSHAWA","6155875","2014-01-26 10:00","2014","01","26","10:00","-20.2","","-23.5","","75","","","","34","","4","","16.1","","98.81","","","","-24","","NA"
"-78.88","43.92","OSHAWA","6155875","2014-01-26 11:00","2014","01","26","11:00","-20.7","","-23.5","","79","","","","","","0","","16.1","","98.81","","","","","","NA"
"-78.88","43.92","OSHAWA","6155875","2014-01-26 12:00","2014","01","26","12:00","-21.9","","-24.3","","82","","","","1","","4","","16.1","","98.90","","","","-26","","NA"
"-78.88","43.92","OSHAWA","6155875","2014-01-26 13:00","2014","01","26","13:00","-19.6","","-22.4","","79","","","","","","0","","16.1","","98.94","","","","","","NA"
"-78.88","43.92","OSHAWA","6155875","2014-01-26 14:00","2014","01","26","14:00","-17.6","","-20.4","","79","","","","26","","9","","16.1","","98.97","","","","-24","","NA"
"-78.88","43.92","OSHAWA","6155875","2014-01-26 15:00","2014","01","26","15:00","-13.6","","-20.1","","59","","","","26","","22","","16.1","","98.92","","","","-23","","NA"
"-78.88","43.92","OSHAWA","6155875","2014-01-26 16:00","2014","01","26","16:00","-12.5","","-19.3","","57","","","","24","","22","","16.1","","98.87","","","","-21","","NA"
"-78.88","43.92","OSHAWA","6155875","2014-01-26 17:00","2014","01","26","17:00","-11.7","","-19.6","","53","","","","24","","17","","16.1","","98.76","","","","-19","","NA"
"-78.88","43.92","OSHAWA","6155875","2014-01-26 18:00","2014","01","26","18:00","-11.1","","-18.2","","57","","","","26","","13","","16.1","","98.63","","","","-18","","NA"
"-78.88","43.92","OSHAWA","6155875","2014-01-26 19:00","2014","01","26","19:00","-11.2","","-13.2","","85","","","","22","","8","","1.2","","98.49","","","","-16","","NA"
"-78.88","43.92","OSHAWA","6155875","2014-01-26 20:00","2014","01","26","20:00","-9.6","","-11.4","","87","","","","19","","21","","2.0","","98.49","","","","-18","","NA"
"-78.88","43.92","OSHAWA","6155875","2014-01-26 21:00","2014","01","26","21:00","-9.4","","-11.5","","85","","","","18","","17","","3.2","","98.37","","","","-16","","NA"
"-78.88","43.92","OSHAWA","6155875","2014-01-26 22:00","2014","01","26","22:00","-9.0","","-11.4","","83","","","","18","","18","","4.8","","98.32","","","","-16","","NA"
"-78.88","43.92","OSHAWA","6155875","2014-01-26 23:00","2014","01","26","23:00","-8.8","","-10.2","","90","","","","19","","13","","2.8","","98.27","","","","-15","","NA"
"-78.88","43.92","OSHAWA","6155875","2014-01-27 00:00","2014","01","27","00:00","-8.1","","-9.9","","87","","","","17","","15","","6.4","","98.23","","","","-14","","NA"
"-78.88","43.92","OSHAWA","6155875","2014-01-27 01:00","2014","01","27","01:00","-7.4","","-8.5","","92","","","","19","","15","","2.0","","98.20","","","","-14","","NA"
"-78.88","43.92","OSHAWA","6155875","2014-01-27 02:00","2014","01","27","02:00","-6.1","","-7.3","","91","","","","20","","21","","3.6","","98.06","","","","-13","","NA"
"-78.88","43.92","OSHAWA","6155875","2014-01-27 03:00","2014","01","27","03:00","-4.7","","-6.3","","89","","","","21","","21","","12.9","","98.02","","","","-11","","NA"
"-78.88","43.92","OSHAWA","6155875","2014-01-27 04:00","2014","01","27","04:00","-4.1","","-7.0","","80","","","","23","","26","","16.1","","97.93","","","","-11","","NA"
"-78.88","43.92","OSHAWA","6155875","2014-01-27 05:00","2014","01","27","05:00","-4.9","","-7.8","","80","","","","24","","13","","16.1","","97.86","","","","-10","","NA"
"-78.88","43.92","OSHAWA","6155875","2014-01-27 06:00","2014","01","27","06:00","-5.1","","-7.9","","81","","","","23","","8","","16.1","","97.80","","","","-9","","NA"
"-78.88","43.92","OSHAWA","6155875","2014-01-27 07:00","2014","01","27","07:00","-5.3","","-7.3","","86","","","","20","","5","","11.3","","97.64","","","","-8","","NA"
"-78.88","43.92","OSHAWA","6155875","2014-01-27 08:00","2014","01","27","08:00","-5.4","","-6.5","","92","","","","25","","8","","2.0","","97.61","","","","-9","","NA"
"-78.88","43.92","OSHAWA","6155875","2014-01-27 09:00","2014","01","27","09:00","-5.8","","-7.2","","90","","","","26","","15","","2.4","","97.64","","","","-12","","NA"
"-78.88","43.92","OSHAWA","6155875","2014-01-27 10:00","2014","01","27","10:00","-6.8","","-8.6","","87","","","","28","","26","","2.4","","97.77","","","","-15","","NA"
"-78.88","43.92","OSHAWA","6155875","2014-01-27 11:00","2014","01","27","11:00","-8.6","","-11.3","","81","","","","26","","28","","8.1","","98.03","","","","-17","","NA"
"-78.88","43.92","OSHAWA","6155875","2014-01-27 12:00","2014","01","27","12:00","-10.1","","-15.8","","63","","","","26","","30","","6.4","","98.26","","","","-20","","NA"
"-78.88","43.92","OSHAWA","6155875","2014-01-27 13:00","2014","01","27","13:00","-10.5","","-15.5","","67","","","","26","","30","","6.4","","98.54","","","","-20","","NA"
"-78.88","43.92","OSHAWA","6155875","2014-01-27 14:00","2014","01","27","14:00","-10.3","","-14.4","","72","","","","26","","32","","4.0","","98.78","","","","-20","","NA"
"-78.88","43.92","OSHAWA","6155875","2014-01-27 15:00","2014","01","27","15:00","-10.7","","-16.9","","61","","","","30","","37","","8.1","","99.01","","","","-21","","NA"
"-78.88","43.92","OSHAWA","6155875","2014-01-27 16:00","2014","01","27","16:00","-10.4","","-18.2","","53","","","","28","","30","","14.5","","99.20","","","","-20","","NA"
"-78.88","43.92","OSHAWA","6155875","2014-01-27 17:00","2014","01","27","17:00","-10.4","","-18.4","","52","","","","30","","41","","2.8","","99.30","","","","-21","","NA"
"-78.88","43.92","OSHAWA","6155875","2014-01-27 18:00","2014","01","27","18:00","-10.2","","-18.1","","53","","","","27","","32","","3.6","","99.39","","","","-20","","NA"
"-78.88","43.92","OSHAWA","6155875","2014-01-27 19:00","2014","01","27","19:00","-11.3","","-17.4","","61","","","","27","","32","","6.4","","99.48","","","","-22","","NA"
"-78.88","43.92","OSHAWA","6155875","2014-01-27 20:00","2014","01","27","20:00","-11.8","","-16.9","","66","","","","28","","24","","8.1","","99.60","","","","-21","","NA"
"-78.88","43.92","OSHAWA","6155875","2014-01-27 21:00","2014","01","27","21:00","-12.2","","-19.0","","57","","","","28","","15","","16.1","","99.68","","","","-19","","NA"
"-78.88","43.92","OSHAWA","6155875","2014-01-27 22:00","2014","01","27","22:00","-13.0","","-19.4","","59","","","","30","","13","","16.1","","99.74","","","","-20","","NA"
"-78.88","43.92","OSHAWA","6155875","2014-01-27 23:00","2014","01","27","23:00","-13.8","","-17.7","","73","","","","27","","13","","16.1","","99.81","","","","-21","","NA"
"-78.88","43.92","OSHAWA","6155875","2014-01-28 00:00","2014","01","28","00:00","-13.9","","-17.8","","73","","","","26","","15","","16.1","","99.89","","","","-22","","NA"
"-78.88","43.92","OSHAWA","6155875","2014-01-28 01:00","2014","01","28","01:00","-15.1","","-21.0","","61","","","","26","","24","","16.1","","99.95","","","","-25","","NA"
"-78.88","43.92","OSHAWA","6155875","2014-01-28 02:00","2014","01","28","02:00","-15.4","","-21.9","","58","","","","27","","17","","16.1","","100.00","","","","-24","","NA"
"-78.88","43.92","OSHAWA","6155875","2014-01-28 03:00","2014","01","28","03:00","-15.2","","-21.9","","57","","","","27","","24","","12.9","","100.04","","","","-25","","NA"
"-78.88","43.92","OSHAWA","6155875","2014-01-28 04:00","2014","01","28","04:00","-15.4","","-22.3","","56","","","","26","","24","","12.9","","100.09","","","","-26","","NA"
"-78.88","43.92","OSHAWA","6155875","2014-01-28 05:00","2014","01","28","05:00","-16.4","","-22.7","","59","","","","27","","22","","16.1","","100.16","","","","-26","","NA"
"-78.88","43.92","OSHAWA","6155875","2014-01-28 06:00","2014","01","28","06:00","-17.1","","-23.0","","61","","","","26","","18","","16.1","","100.24","","","","-26","","NA"
"-78.88","43.92","OSHAWA","6155875","2014-01-28 07:00","2014","01","28","07:00","-16.9","","-22.5","","63","","","","26","","24","","16.1","","100.31","","","","-27","","NA"
"-78.88","43.92","OSHAWA","6155875","2014-01-28 08:00","2014","01","28","08:00","-17.0","","-22.1","","65","","","","25","","32","","14.5","","100.37","","","","-29","","NA"
"-78.88","43.92","OSHAWA","6155875","2014-01-28 09:00","2014","01","28","09:00","-17.0","","-22.1","","65","","","","24","","21","","16.1","","100.43","","","","-27","","NA"
"-78.88","43.92","OSHAWA","6155875","2014-01-28 10:00","2014","01","28","10:00","-17.3","","-22.2","","66","","","","25","","22","","16.1","","100.48","","","","-28","","NA"
"-78.88","43.92","OSHAWA","6155875","2014-01-28 11:00","2014","01","28","11:00","-17.7","","-22.3","","68","","","","25","","21","","16.1","","100.51","","","","-28","","NA"
"-78.88","43.92","OSHAWA","6155875","2014-01-28 12:00","2014","01","28","12:00","-17.8","","-22.2","","69","","","","24","","18","","16.1","","100.59","","","","-27","","NA"
"-78.88","43.92","OSHAWA","6155875","2014-01-28 13:00","2014","01","28","13:00","-18.0","","-22.4","","69","","","","25","","22","","16.1","","100.65","","","","-28","","NA"
"-78.88","43.92","OSHAWA","6155875","2014-01-28 14:00","2014","01","28","14:00","-16.9","","-21.7","","67","","","","24","","28","","16.1","","100.71","","","","-28","","NA"
"-78.88","43.92","OSHAWA","6155875","2014-01-28 15:00","2014","01","28","15:00","-16.6","","-21.9","","64","","","","24","","22","","16.1","","100.76","","","","-27","","NA"
"-78.88","43.92","OSHAWA","6155875","2014-01-28 16:00","2014","01","28","16:00","-15.9","","-21.6","","62","","","","25","","28","","16.1","","100.79","","","","-27","","NA"
"-78.88","43.92","OSHAWA","6155875","2014-01-28 17:00","2014","01","28","17:00","-14.5","","-21.0","","58","","","","24","","26","","14.5","","100.75","","","","-25","","NA"
"-78.88","43.92","OSHAWA","6155875","2014-01-28 18:00","2014","01","28","18:00","-13.8","","-21.2","","54","","","","25","","26","","14.5","","100.66","","","","-24","","NA"
"-78.88","43.92","OSHAWA","6155875","2014-01-28 19:00","2014","01","28","19:00","-12.9","","-20.7","","53","","","","24","","22","","16.1","","100.56","","","","-22","","NA"
"-78.88","43.92","OSHAWA","6155875","2014-01-28 20:00","2014","01","28","20:00","-12.4","","-21.0","","49","","","","23","","22","","16.1","","100.54","","","","-21","","NA"
"-78.88","43.92","OSHAWA","6155875","2014-01-28 21:00","2014","01","28","21:00","-12.3","","-20.0","","53","","","","24","","21","","16.1","","100.49","","","","-21","","NA"
"-78.88","43.92","OSHAWA","6155875","2014-01-28 22:00","2014","01","28","22:00","-12.9","","-19.9","","56","","","","22","","17","","16.1","","100.45","","","","-21","","NA"
"-78.88","43.92","OSHAWA","6155875","2014-01-28 23:00","2014","01","28","23:00","-13.4","","-20.3","","57","","","","25","","28","","16.1","","100.42","","","","-24","","NA"
"-78.88","43.92","OSHAWA","6155875","2014-01-29 00:00","2014","01","29","00:00","-13.7","","-20.0","","60","","","","25","","26","","16.1","","100.42","","","","-24","","NA"
"-78.88","43.92","OSHAWA","6155875","2014-01-29 01:00","2014","01","29","01:00","-14.1","","-19.5","","64","","","","25","","21","","16.1","","100.42","","","","-23","","NA"
"-78.88","43.92","OSHAWA","6155875","2014-01-29 02:00","2014","01","29","02:00","-14.6","","-19.1","","69","","","","24","","22","","16.1","","100.38","","","","-24","","NA"
"-78.88","43.92","OSHAWA","6155875","2014-01-29 03:00","2014","01","29","03:00","-14.8","","-19.5","","68","","","","24","","21","","16.1","","100.32","","","","-24","","NA"
"-78.88","43.92","OSHAWA","6155875","2014-01-29 04:00","2014","01","29","04:00","-15.1","","-20.9","","62","","","","24","","22","","16.1","","100.26","","","","-25","","NA"
"-78.88","43.92","OSHAWA","6155875","2014-01-29 05:00","2014","01","29","05:00","-15.5","","-22.0","","58","","","","25","","18","","16.1","","100.24","","","","-24","","NA"
"-78.88","43.92","OSHAWA","6155875","2014-01-29 06:00","2014","01","29","06:00","-16.1","","-22.2","","60","","","","24","","15","","16.1","","100.23","","","","-24","","NA"
"-78.88","43.92","OSHAWA","6155875","2014-01-29 07:00","2014","01","29","07:00","-16.7","","-22.2","","63","","","","24","","11","","16.1","","100.19","","","","-24","","NA"
"-78.88","43.92","OSHAWA","6155875","2014-01-29 08:00","2014","01","29","08:00","-16.9","","-22.2","","64","","","","25","","17","","16.1","","100.14","","","","-26","","NA"
"-78.88","43.92","OSHAWA","6155875","2014-01-29 09:00","2014","01","29","09:00","-16.9","","-22.0","","65","","","","25","","21","","16.1","","100.04","","","","-27","","NA"
"-78.88","43.92","OSHAWA","6155875","2014-01-29 10:00","2014","01","29","10:00","-17.1","","-22.0","","66","","","","28","","17","","16.1","","100.00","","","","-26","","NA"
"-78.88","43.92","OSHAWA","6155875","2014-01-29 11:00","2014","01","29","11:00","-16.8","","-21.8","","66","","","","26","","17","","16.1","","99.94","","","","-26","","NA"
"-78.88","43.92","OSHAWA","6155875","2014-01-29 12:00","2014","01","29","12:00","-16.8","","-21.3","","69","","","","26","","17","","16.1","","99.90","","","","-26","","NA"
"-78.88","43.92","OSHAWA","6155875","2014-01-29 13:00","2014","01","29","13:00","-16.3","","-20.6","","70","","","","25","","26","","16.1","","99.94","","","","-27","","NA"
"-78.88","43.92","OSHAWA","6155875","2014-01-29 14:00","2014","01","29","14:00","-15.5","","-19.8","","70","","","","24","","24","","14.5","","99.91","","","","-26","","NA"
"-78.88","43.92","OSHAWA","6155875","2014-01-29 15:00","2014","01","29","15:00","-14.6","","-19.1","","69","","","","24","","22","","16.1","","99.88","","","","-24","","NA"
"-78.88","43.92","OSHAWA","6155875","2014-01-29 16:00","2014","01","29","16:00","-13.7","","-19.0","","65","","","","25","","30","","16.1","","99.94","","","","-24","","NA"
"-78.88","43.92","OSHAWA","6155875","2014-01-29 17:00","2014","01","29","17:00","-13.2","","-18.1","","67","","","","25","","28","","12.9","","99.90","","","","-23","","NA"
"-78.88","43.92","OSHAWA","6155875","2014-01-29 18:00","2014","01","29","18:00","-12.0","","-17.9","","62","","","","24","","28","","12.9","","99.84","","","","-22","","NA"
"-78.88","43.92","OSHAWA","6155875","2014-01-29 19:00","2014","01","29","19:00","-10.4","","-17.6","","56","","","","25","","35","","16.1","","99.83","","","","-21","","NA"
"-78.88","43.92","OSHAWA","6155875","2014-01-29 20:00","2014","01","29","20:00","-10.1","","-17.7","","54","","","","25","","32","","12.9","","99.90","","","","-20","","NA"
"-78.88","43.92","OSHAWA","6155875","2014-01-29 21:00","2014","01","29","21:00","-9.9","","-17.3","","55","","","","25","","28","","16.1","","99.98","","","","-19","","NA"
"-78.88","43.92","OSHAWA","6155875","2014-01-29 22:00","2014","01","29","22:00","-10.5","","-17.5","","57","","","","24","","30","","16.1","","100.07","","","","-20","","NA"
"-78.88","43.92","OSHAWA","6155875","2014-01-29 23:00","2014","01","29","23:00","-11.0","","-16.9","","62","","","","24","","21","","16.1","","100.17","","","","-19","","NA"
"-78.88","43.92","OSHAWA","6155875","2014-01-30 00:00","2014","01","30","00:00","-11.2","","-16.6","","65","","","","25","","22","","16.1","","100.23","","","","-20","","NA"
"-78.88","43.92","OSHAWA","6155875","2014-01-30 01:00","2014","01","30","01:00","-11.9","","-16.1","","71","","","","23","","11","","16.1","","100.29","","","","-18","","NA"
"-78.88","43.92","OSHAWA","6155875","2014-01-30 02:00","2014","01","30","02:00","-11.7","","-16.3","","69","","","","25","","17","","16.1","","100.35","","","","-19","","NA"
"-78.88","43.92","OSHAWA","6155875","2014-01-30 03:00","2014","01","30","03:00","-11.6","","-16.2","","69","","","","24","","17","","16.1","","100.40","","","","-19","","NA"
"-78.88","43.92","OSHAWA","6155875","2014-01-30 04:00","2014","01","30","04:00","-10.6","","-15.6","","67","","","","23","","17","","16.1","","100.46","","","","-18","","NA"
"-78.88","43.92","OSHAWA","6155875","2014-01-30 05:00","2014","01","30","05:00","-11.0","","-16.1","","67","","","","23","","13","","16.1","","100.52","","","","-17","","NA"
"-78.88","43.92","OSHAWA","6155875","2014-01-30 06:00","2014","01","30","06:00","-11.4","","-16.6","","66","","","","25","","11","","16.1","","100.54","","","","-17","","NA"
"-78.88","43.92","OSHAWA","6155875","2014-01-30 07:00","2014","01","30","07:00","-12.3","","-17.2","","67","","","","23","","9","","16.1","","100.55","","","","-18","","NA"
"-78.88","43.92","OSHAWA","6155875","2014-01-30 08:00","2014","01","30","08:00","-12.3","","-17.6","","65","","","","24","","9","","16.1","","100.53","","","","-18","","NA"
"-78.88","43.92","OSHAWA","6155875","2014-01-30 09:00","2014","01","30","09:00","-12.1","","-17.5","","65","","","","24","","9","","16.1","","100.51","","","","-17","","NA"
"-78.88","43.92","OSHAWA","6155875","2014-01-30 10:00","2014","01","30","10:00","-12.8","","-17.5","","68","","","","28","","9","","16.1","","100.52","","","","-18","","NA"
"-78.88","43.92","OSHAWA","6155875","2014-01-30 11:00","2014","01","30","11:00","-15.2","","-18.2","","78","","","","3","","5","","16.1","","100.52","","","","-19","","NA"
"-78.88","43.92","OSHAWA","6155875","2014-01-30 12:00","2014","01","30","12:00","-14.9","","-17.5","","81","","","","","","0","","16.1","","100.50","","","","","","NA"
"-78.88","43.92","OSHAWA","6155875","2014-01-30 13:00","2014","01","30","13:00","-7.3","","-10.8","","76","","","","21","","18","","16.1","","100.53","","","","-14","","NA"
"-78.88","43.92","OSHAWA","6155875","2014-01-30 14:00","2014","01","30","14:00","-6.5","","-10.9","","71","","","","21","","24","","16.1","","100.53","","","","-14","","NA"
"-78.88","43.92","OSHAWA","6155875","2014-01-30 15:00","2014","01","30","15:00","-5.5","","-11.3","","64","","","","21","","30","","16.1","","100.51","","","","-14","","NA"
"-78.88","43.92","OSHAWA","6155875","2014-01-30 16:00","2014","01","30","16:00","-4.9","","-10.9","","63","","","","21","","32","","16.1","","100.45","","","","-13","","NA"
"-78.88","43.92","OSHAWA","6155875","2014-01-30 17:00","2014","01","30","17:00","-4.5","","-11.1","","60","","","","22","","26","","16.1","","100.36","","","","-12","","NA"
"-78.88","43.92","OSHAWA","6155875","2014-01-30 18:00","2014","01","30","18:00","-4.6","","-12.3","","55","","","","20","","35","","16.1","","100.17","","","","-13","","NA"
"-78.88","43.92","OSHAWA","6155875","2014-01-30 19:00","2014","01","30","19:00","-4.4","","-12.2","","55","","","","20","","32","","16.1","","100.13","","","","-12","","NA"
"-78.88","43.92","OSHAWA","6155875","2014-01-30 20:00","2014","01","30","20:00","-4.1","","-11.8","","56","","","","20","","26","","16.1","","100.04","","","","-11","","NA"
"-78.88","43.92","OSHAWA","6155875","2014-01-30 21:00","2014","01","30","21:00","-3.8","","-13.4","","48","","","","20","","26","","16.1","","99.91","","","","-11","","NA"
"-78.88","43.92","OSHAWA","6155875","2014-01-30 22:00","2014","01","30","22:00","-2.9","","-14.4","","41","","","","21","","30","","16.1","","99.83","","","","-10","","NA"
"-78.88","43.92","OSHAWA","6155875","2014-01-30 23:00","2014","01","30","23:00","-2.5","","-12.8","","45","","","","18","","15","","16.1","","99.70","","","","-7","","NA"
"-78.88","43.92","OSHAWA","6155875","2014-01-31 00:00","2014","01","31","00:00","-1.6","","-12.8","","42","","","","18","","18","","16.1","","99.53","","","","-7","","NA"
"-78.88","43.92","OSHAWA","6155875","2014-01-31 01:00","2014","01","31","01:00","-0.7","","-13.0","","39","","","","18","","15","","16.1","","99.40","","","","-5","","NA"
"-78.88","43.92","OSHAWA","6155875","2014-01-31 02:00","2014","01","31","02:00","-0.6","","-13.3","","38","","","","19","","13","","16.1","","99.34","","","","-5","","NA"
"-78.88","43.92","OSHAWA","6155875","2014-01-31 03:00","2014","01","31","03:00","-1.0","","-11.9","","44","","","","23","","15","","16.1","","99.38","","","","-6","","NA"
"-78.88","43.92","OSHAWA","6155875","2014-01-31 04:00","2014","01","31","04:00","-1.3","","-11.2","","47","","","","23","","35","","16.1","","99.32","","","","-9","","NA"
"-78.88","43.92","OSHAWA","6155875","2014-01-31 05:00","2014","01","31","05:00","-2.6","","-8.2","","66","","","","23","","22","","16.1","","99.35","","","","-9","","NA"
"-78.88","43.92","OSHAWA","6155875","2014-01-31 06:00","2014","01","31","06:00","-2.5","","-6.4","","75","","","","23","","35","","14.5","","99.34","","","","-10","","NA"
"-78.88","43.92","OSHAWA","6155875","2014-01-31 07:00","2014","01","31","07:00","-2.6","","-5.6","","80","","","","23","","18","","16.1","","99.33","","","","-8","","NA"
"-78.88","43.92","OSHAWA","6155875","2014-01-31 08:00","2014","01","31","08:00","-2.5","","-5.5","","80","","","","24","","15","","16.1","","99.35","","","","-7","","NA"
"-78.88","43.92","OSHAWA","6155875","2014-01-31 09:00","2014","01","31","09:00","-2.4","","-5.5","","80","","","","24","","18","","16.1","","99.43","","","","-8","","NA"
"-78.88","43.92","OSHAWA","6155875","2014-01-31 10:00","2014","01","31","10:00","-2.5","","-5.5","","80","","","","24","","15","","16.1","","99.45","","","","-7","","NA"
"-78.88","43.92","OSHAWA","6155875","2014-01-31 11:00","2014","01","31","11:00","-2.1","","-4.9","","81","","","","24","","17","","16.1","","99.49","","","","-7","","NA"
"-78.88","43.92","OSHAWA","6155875","2014-01-31 12:00","2014","01","31","12:00","-1.6","","-4.8","","79","","","","24","","21","","16.1","","99.56","","","","-7","","NA"
"-78.88","43.92","OSHAWA","6155875","2014-01-31 13:00","2014","01","31","13:00","-1.3","","-4.5","","79","","","","23","","18","","16.1","","99.70","","","","-7","","NA"
"-78.88","43.92","OSHAWA","6155875","2014-01-31 14:00","2014","01","31","14:00","-0.8","","-4.3","","77","","","","23","","15","","16.1","","99.82","","","","-5","","NA"
"-78.88","43.92","OSHAWA","6155875","2014-01-31 15:00","2014","01","31","15:00","-0.6","","-4.1","","77","","","","25","","17","","16.1","","99.88","","","","-6","","NA"
"-78.88","43.92","OSHAWA","6155875","2014-01-31 16:00","2014","01","31","16:00","-0.1","","-3.4","","79","","","","27","","22","","16.1","","99.95","","","","-6","","NA"
"-78.88","43.92","OSHAWA","6155875","2014-01-31 17:00","2014","01","31","17:00","-0.8","","-5.4","","71","","","","30","","24","","16.1","","100.02","","","","-7","","NA"
"-78.88","43.92","OSHAWA","6155875","2014-01-31 18:00","2014","01","31","18:00","-0.7","","-6.3","","66","","","","30","","21","","16.1","","99.96","","","","-6","","NA"
"-78.88","43.92","OSHAWA","6155875","2014-01-31 19:00","2014","01","31","19:00","-1.1","","-6.0","","69","","","","31","","11","","16.1","","99.99","","","","-5","","NA"
"-78.88","43.92","OSHAWA","6155875","2014-01-31 20:00","2014","01","31","20:00","-0.7","","-6.5","","65","","","","30","","15","","16.1","","100.02","","","","-5","","NA"
"-78.88","43.92","OSHAWA","6155875","2014-01-31 21:00","2014","01","31","21:00","-1.0","","-6.6","","66","","","","29","","17","","16.1","","100.15","","","","-6","","NA"
"-78.88","43.92","OSHAWA","6155875","2014-01-31 22:00","2014","01","31","22:00","-1.6","","-6.7","","68","","","","30","","11","","16.1","","100.21","","","","-5","","NA"
"-78.88","43.92","OSHAWA","6155875","2014-01-31 23:00","2014","01","31","23:00","-2.2","","-7.1","","69","","","","29","","9","","16.1","","100.26","","","","-6","","NA"
